<?xml version="1.0" encoding="UTF-8"?>
<kml xmlns="http://www.opengis.net/kml/2.2" xmlns:gx="http://www.google.com/kml/ext/2.2">
    <Document id="395">
        <Placemark id="397">
            <name>Старое кладбище (ru)</name>
            <description/>
            <Point id="396">
                <coordinates>114.2348956,52.1076385,0.0</coordinates>
            </Point>
        </Placemark>
        <Placemark id="399">
            <name>Заброшенный каменный карьер (ru)</name>
            <description/>
            <Point id="398">
                <coordinates>114.0063553,51.9637622,0.0</coordinates>
            </Point>
        </Placemark>
        <Placemark id="401">
            <name>Кладбище (ru)</name>
            <description/>
            <Point id="400">
                <coordinates>114.2142963,52.0900808,0.0</coordinates>
            </Point>
        </Placemark>
    </Document>
</kml>
