<?xml version="1.0" encoding="UTF-8"?>
<kml xmlns="http://www.opengis.net/kml/2.2" xmlns:gx="http://www.google.com/kml/ext/2.2">
    <Document id="879">
        <Placemark id="881">
            <name>Убежище гражданской обороны (ru)</name>
            <description/>
            <Point id="880">
                <coordinates>132.2078888,43.3642228,0.0</coordinates>
            </Point>
        </Placemark>
        <Placemark id="883">
            <name>Убежище №462 (ru)</name>
            <description/>
            <Point id="882">
                <coordinates>132.2683028,43.4510875,0.0</coordinates>
            </Point>
        </Placemark>
        <Placemark id="885">
            <name>Убежище гражданской обороны (ru)</name>
            <description/>
            <Point id="884">
                <coordinates>132.319624,43.3688075,0.0</coordinates>
            </Point>
        </Placemark>
        <Placemark id="887">
            <name>бомбоубежище (ru)</name>
            <description/>
            <Point id="886">
                <coordinates>132.2006105,43.3960361,0.0</coordinates>
            </Point>
        </Placemark>
        <Placemark id="889">
            <name>Убежище гражданской обороны (ru)</name>
            <description/>
            <Point id="888">
                <coordinates>132.3208252,43.3695372,0.0</coordinates>
            </Point>
        </Placemark>
        <Placemark id="891">
            <name>Защитное сооружение гражданской обороны (ЗС ГО) (ru)</name>
            <description/>
            <Point id="890">
                <coordinates>132.2057174,43.3581162,0.0</coordinates>
            </Point>
        </Placemark>
        <Placemark id="893">
            <name>Убежище птицефабрики (ru)</name>
            <description/>
            <Point id="892">
                <coordinates>132.285827,43.3827584,0.0</coordinates>
            </Point>
        </Placemark>
        <Placemark id="895">
            <name>Карьер с бомбоубежищем (ru)</name>
            <description/>
            <Point id="894">
                <coordinates>132.3081992,43.3743939,0.0</coordinates>
            </Point>
        </Placemark>
        <Placemark id="897">
            <name>Заброшенное убежище гражданской обороны (ru)</name>
            <description/>
            <Point id="896">
                <coordinates>132.2371422,43.3757519,0.0</coordinates>
            </Point>
        </Placemark>
        <Placemark id="899">
            <name>Убежище (ru)</name>
            <description/>
            <Point id="898">
                <coordinates>132.3266261,43.4195797,0.0</coordinates>
            </Point>
        </Placemark>
        <Placemark id="901">
            <name>Строящееся защитное сооружение гражданской обороны (ru)</name>
            <description/>
            <Point id="900">
                <coordinates>132.2537934,43.3519679,0.0</coordinates>
            </Point>
        </Placemark>
        <Placemark id="903">
            <name>Убежище (ru)</name>
            <description/>
            <Point id="902">
                <coordinates>132.2190937,43.3762823,0.0</coordinates>
            </Point>
        </Placemark>
        <Placemark id="905">
            <name>Защитное сооружение ГО (убежище) (ru)</name>
            <description/>
            <Point id="904">
                <coordinates>132.3013128,43.3749068,0.0</coordinates>
            </Point>
        </Placemark>
        <Placemark id="907">
            <name>Бомбоубежище (ru)</name>
            <description/>
            <Point id="906">
                <coordinates>132.1930467,43.3545716,0.0</coordinates>
            </Point>
        </Placemark>
        <Placemark id="909">
            <name>Убежище гражданской обороны (ru)</name>
            <description/>
            <Point id="908">
                <coordinates>132.2435715,43.3791032,0.0</coordinates>
            </Point>
        </Placemark>
        <Placemark id="911">
            <name>Противорадиационное укрытие (ПРУ) (ru)</name>
            <description/>
            <Point id="910">
                <coordinates>132.3501786,43.3816385,0.0</coordinates>
            </Point>
        </Placemark>
        <Placemark id="913">
            <name>Убежище (ru)</name>
            <description/>
            <Point id="912">
                <coordinates>132.199526,43.3567898,0.0</coordinates>
            </Point>
        </Placemark>
        <Placemark id="915">
            <name>Убежище (ru)</name>
            <description/>
            <Point id="914">
                <coordinates>132.2126819,43.3663319,0.0</coordinates>
            </Point>
        </Placemark>
        <Placemark id="917">
            <name>Заброшенное подземное убежище личного состава (ru)</name>
            <description/>
            <Point id="916">
                <coordinates>132.2200928,43.4074194,0.0</coordinates>
            </Point>
        </Placemark>
        <Placemark id="919">
            <name>Убежище (ru)</name>
            <description/>
            <Point id="918">
                <coordinates>132.1924714,43.3583599,0.0</coordinates>
            </Point>
        </Placemark>
        <Placemark id="921">
            <name>Убежище (ru)</name>
            <description/>
            <Point id="920">
                <coordinates>132.2111033,43.3617239,0.0</coordinates>
            </Point>
        </Placemark>
        <Placemark id="923">
            <name>Вход/Выход №1 в бомбоубежище (ru)</name>
            <description/>
            <Point id="922">
                <coordinates>132.1930199,43.3547284,0.0</coordinates>
            </Point>
        </Placemark>
        <Placemark id="925">
            <name>Вход/Выход №2 в бомбоубежище (ru)</name>
            <description/>
            <Point id="924">
                <coordinates>132.1930399,43.3545421,0.0</coordinates>
            </Point>
        </Placemark>
    </Document>
</kml>
