<?xml version="1.0" encoding="UTF-8"?>
<kml xmlns="http://www.opengis.net/kml/2.2" xmlns:gx="http://www.google.com/kml/ext/2.2">
    <Document id="1067">
        <Placemark id="1069">
            <name>Развалины биофабрики (ru)</name>
            <description/>
            <Point id="1068">
                <coordinates>58.6421065,51.1420083,0.0</coordinates>
            </Point>
        </Placemark>
        <Placemark id="1071">
            <name>Заброшенный комбинат железобетонных конструкций (ru)</name>
            <description/>
            <Point id="1070">
                <coordinates>58.6719327,51.214384,0.0</coordinates>
            </Point>
        </Placemark>
        <Placemark id="1073">
            <name>Развалины пионерского лагеря «Солнечный» (ru)</name>
            <description/>
            <Point id="1072">
                <coordinates>58.6687195,51.1542927,0.0</coordinates>
            </Point>
        </Placemark>
        <Placemark id="1075">
            <name>Бывший пионерский лагерь (ru)</name>
            <description/>
            <Point id="1074">
                <coordinates>58.6578807,51.1668363,0.0</coordinates>
            </Point>
        </Placemark>
        <Placemark id="1077">
            <name>Разобранная трамвайная линия на завод &quot;Синтез&quot; (ru)</name>
            <description/>
            <Point id="1076">
                <coordinates>58.5459172,51.2482,0.0</coordinates>
            </Point>
        </Placemark>
        <Placemark id="1079">
            <name>Бывший авторемонтный завод (ru)</name>
            <description/>
            <Point id="1078">
                <coordinates>58.6798881,51.2314111,0.0</coordinates>
            </Point>
        </Placemark>
        <Placemark id="1081">
            <name>Градирни (ru)</name>
            <description/>
            <Point id="1080">
                <coordinates>58.502503,51.2418281,0.0</coordinates>
            </Point>
        </Placemark>
        <Placemark id="1083">
            <name>Цех № 20 Кузнечный (ru)</name>
            <description/>
            <Point id="1082">
                <coordinates>58.4988498,51.2323348,0.0</coordinates>
            </Point>
        </Placemark>
        <Placemark id="1085">
            <name>Недостроенный родильный дом (ru)</name>
            <description/>
            <Point id="1084">
                <coordinates>58.6287063,51.2310685,0.0</coordinates>
            </Point>
        </Placemark>
        <Placemark id="1087">
            <name>Недостроенный литейный цех ОЗТП (ru)</name>
            <description/>
            <Point id="1086">
                <coordinates>58.6630587,51.2305335,0.0</coordinates>
            </Point>
        </Placemark>
        <Placemark id="1089">
            <name>Бывший цех № 5 (ru)</name>
            <description/>
            <Point id="1088">
                <coordinates>58.5075938,51.23389,0.0</coordinates>
            </Point>
        </Placemark>
        <Placemark id="1091">
            <name>Закрытое трамвайное депо ОЗТП (ru)</name>
            <description/>
            <Point id="1090">
                <coordinates>58.6757053,51.2318549,0.0</coordinates>
            </Point>
        </Placemark>
        <Placemark id="1093">
            <name>Гараж БСРТО (ru)</name>
            <description/>
            <Point id="1092">
                <coordinates>58.6114258,51.2750988,0.0</coordinates>
            </Point>
        </Placemark>
        <Placemark id="1095">
            <name>Заброшенный цех (ru)</name>
            <description/>
            <Point id="1094">
                <coordinates>58.508774,51.2327631,0.0</coordinates>
            </Point>
        </Placemark>
        <Placemark id="1097">
            <name>Стадион (ru)</name>
            <description/>
            <Point id="1096">
                <coordinates>58.4998717,51.2284802,0.0</coordinates>
            </Point>
        </Placemark>
        <Placemark id="1099">
            <name>Цеха (ru)</name>
            <description/>
            <Point id="1098">
                <coordinates>58.644263,51.1401639,0.0</coordinates>
            </Point>
        </Placemark>
        <Placemark id="1101">
            <name>Трамвайная станция &quot;ОЗТП&quot; (ru)</name>
            <description/>
            <Point id="1100">
                <coordinates>58.6754747,51.2328521,0.0</coordinates>
            </Point>
        </Placemark>
        <Placemark id="1103">
            <name>Трамвайное кольцо «Южное кольцо» (ru)</name>
            <description/>
            <Point id="1102">
                <coordinates>58.6132193,51.2177343,0.0</coordinates>
            </Point>
        </Placemark>
        <Placemark id="1105">
            <name>Заброшенный цех (ru)</name>
            <description/>
            <Point id="1104">
                <coordinates>58.5077866,51.2328036,0.0</coordinates>
            </Point>
        </Placemark>
        <Placemark id="1107">
            <name>Теннисные корты (ru)</name>
            <description/>
            <Point id="1106">
                <coordinates>58.5350408,51.2255827,0.0</coordinates>
            </Point>
        </Placemark>
        <Placemark id="1109">
            <name>Заброшенная Орская химчистка (ru)</name>
            <description/>
            <Point id="1108">
                <coordinates>58.4958775,51.2452338,0.0</coordinates>
            </Point>
        </Placemark>
        <Placemark id="1111">
            <name>Градирня (ru)</name>
            <description/>
            <Point id="1110">
                <coordinates>58.5017634,51.2415783,0.0</coordinates>
            </Point>
        </Placemark>
        <Placemark id="1113">
            <name>Градирня (ru)</name>
            <description/>
            <Point id="1112">
                <coordinates>58.5028437,51.2414249,0.0</coordinates>
            </Point>
        </Placemark>
        <Placemark id="1115">
            <name>Бывший 22-й цех (ru)</name>
            <description/>
            <Point id="1114">
                <coordinates>58.6593746,51.2278218,0.0</coordinates>
            </Point>
        </Placemark>
        <Placemark id="1117">
            <name>Бывший молокозавод (ru)</name>
            <description/>
            <Point id="1116">
                <coordinates>58.4732576,51.2438128,0.0</coordinates>
            </Point>
        </Placemark>
        <Placemark id="1119">
            <name>Заброшенная спортплощадка (ru)</name>
            <description/>
            <Point id="1118">
                <coordinates>58.4788794,51.2391153,0.0</coordinates>
            </Point>
        </Placemark>
        <Placemark id="1121">
            <name>Руины цеха (ru)</name>
            <description/>
            <Point id="1120">
                <coordinates>58.665667,51.2291095,0.0</coordinates>
            </Point>
        </Placemark>
        <Placemark id="1123">
            <name>Cтарая площадка (ru)</name>
            <description/>
            <Point id="1122">
                <coordinates>58.4581338,51.2489874,0.0</coordinates>
            </Point>
        </Placemark>
        <Placemark id="1125">
            <name>Лаборатория (ru)</name>
            <description/>
            <Point id="1124">
                <coordinates>58.5075155,51.2323607,0.0</coordinates>
            </Point>
        </Placemark>
        <Placemark id="1127">
            <name>Заброшенный жилой дом (ru)</name>
            <description/>
            <Point id="1126">
                <coordinates>58.4734858,51.2385163,0.0</coordinates>
            </Point>
        </Placemark>
        <Placemark id="1129">
            <name>Недостроенное здание (ru)</name>
            <description/>
            <Point id="1128">
                <coordinates>58.4266607,51.2542707,0.0</coordinates>
            </Point>
        </Placemark>
        <Placemark id="1131">
            <name>Заброшенное бомбоубежище (ru)</name>
            <description/>
            <Point id="1130">
                <coordinates>58.6124897,51.2099282,0.0</coordinates>
            </Point>
        </Placemark>
        <Placemark id="1133">
            <name>Заброшенный жилой дом (ru)</name>
            <description/>
            <Point id="1132">
                <coordinates>58.4738301,51.2381616,0.0</coordinates>
            </Point>
        </Placemark>
        <Placemark id="1135">
            <name>Заброшенный жилой дом (ru)</name>
            <description/>
            <Point id="1134">
                <coordinates>58.473216,51.2377425,0.0</coordinates>
            </Point>
        </Placemark>
        <Placemark id="1137">
            <name>Заброшенный жилой дом (ru)</name>
            <description/>
            <Point id="1136">
                <coordinates>58.4730658,51.2379843,0.0</coordinates>
            </Point>
        </Placemark>
        <Placemark id="1139">
            <name>Развалины (ru)</name>
            <description/>
            <Point id="1138">
                <coordinates>58.6423342,51.1975385,0.0</coordinates>
            </Point>
        </Placemark>
        <Placemark id="1141">
            <name>Полуразрушенный дом (ru)</name>
            <description/>
            <Point id="1140">
                <coordinates>58.4333961,51.2413653,0.0</coordinates>
            </Point>
        </Placemark>
        <Placemark id="1143">
            <name>Заброшенный вход в катакомбы (ru)</name>
            <description/>
            <Point id="1142">
                <coordinates>58.4817587,51.2198703,0.0</coordinates>
            </Point>
        </Placemark>
        <Placemark id="1145">
            <name>Заброшенный подземный пешеходный переход (ru)</name>
            <description/>
            <Point id="1144">
                <coordinates>58.5095973,51.2286453,0.0</coordinates>
            </Point>
        </Placemark>
        <Placemark id="1147">
            <name>Развалины (ru)</name>
            <description/>
            <Point id="1146">
                <coordinates>58.6417918,51.1970905,0.0</coordinates>
            </Point>
        </Placemark>
        <Placemark id="1149">
            <name>Заброшенный пост ДПС (ru)</name>
            <description/>
            <Point id="1148">
                <coordinates>58.5452694,51.2119788,0.0</coordinates>
            </Point>
        </Placemark>
        <Placemark id="1151">
            <name>Заброшенная трансформаторная подстанция (ru)</name>
            <description/>
            <Point id="1150">
                <coordinates>58.5275944,51.2287716,0.0</coordinates>
            </Point>
        </Placemark>
        <Placemark id="1153">
            <name>Вентшахта бомбоубежища (ru)</name>
            <description/>
            <Point id="1152">
                <coordinates>58.4754246,51.2320367,0.0</coordinates>
            </Point>
        </Placemark>
    </Document>
</kml>
