<?xml version="1.0" encoding="UTF-8"?>
<kml xmlns="http://www.opengis.net/kml/2.2" xmlns:gx="http://www.google.com/kml/ext/2.2">
    <Document id="2719">
        <Placemark id="2721">
            <name>Склад вооружения МВД (ru)</name>
            <description/>
            <Point id="2720">
                <coordinates>56.1674308,58.0092047,0.0</coordinates>
            </Point>
        </Placemark>
        <Placemark id="2723">
            <name>Убежище гражданской обороны (ru)</name>
            <description/>
            <Point id="2722">
                <coordinates>56.2005721,58.004039,0.0</coordinates>
            </Point>
        </Placemark>
        <Placemark id="2725">
            <name>Убежище (ru)</name>
            <description/>
            <Point id="2724">
                <coordinates>56.1716257,58.0072451,0.0</coordinates>
            </Point>
        </Placemark>
        <Placemark id="2727">
            <name>Убежище гражданской обороны железнодорожной станции Пермь 2 (ru)</name>
            <description/>
            <Point id="2726">
                <coordinates>56.1828023,58.0034229,0.0</coordinates>
            </Point>
        </Placemark>
        <Placemark id="2729">
            <name>ЗСГО ГУ МВД (ru)</name>
            <description/>
            <Point id="2728">
                <coordinates>56.2468577,57.9922853,0.0</coordinates>
            </Point>
        </Placemark>
        <Placemark id="2731">
            <name>Заброшенное убежище гражданской обороны (ru)</name>
            <description/>
            <Point id="2730">
                <coordinates>56.10839,58.0407154,0.0</coordinates>
            </Point>
        </Placemark>
        <Placemark id="2733">
            <name>Оголовок бомбоубежища (ru)</name>
            <description/>
            <Point id="2732">
                <coordinates>56.2463628,57.9819341,0.0</coordinates>
            </Point>
        </Placemark>
        <Placemark id="2735">
            <name>Вход в бомбоубежище (ru)</name>
            <description/>
            <Point id="2734">
                <coordinates>56.1891319,57.9964075,0.0</coordinates>
            </Point>
        </Placemark>
        <Placemark id="2737">
            <name>Вход в бомбоубежище (ru)</name>
            <description/>
            <Point id="2736">
                <coordinates>56.2473432,58.0068841,0.0</coordinates>
            </Point>
        </Placemark>
        <Placemark id="2739">
            <name>Оголовок бомбоубежища (ru)</name>
            <description/>
            <Point id="2738">
                <coordinates>56.2478931,57.9866849,0.0</coordinates>
            </Point>
        </Placemark>
        <Placemark id="2741">
            <name>Бомбоубежище (ru)</name>
            <description/>
            <Point id="2740">
                <coordinates>56.1032295,58.0411101,0.0</coordinates>
            </Point>
        </Placemark>
    </Document>
</kml>
