<?xml version="1.0" encoding="UTF-8"?>
<kml xmlns="http://www.opengis.net/kml/2.2" xmlns:gx="http://www.google.com/kml/ext/2.2">
    <Document id="433">
        <Placemark id="435">
            <name>Large military warehouse</name>
            <description/>
            <Point id="434">
                <coordinates>65.5639601,56.8609593,0.0</coordinates>
            </Point>
        </Placemark>
        <Placemark id="437">
            <name>Заброшенный водопровод (ru)</name>
            <description/>
            <Point id="436">
                <coordinates>65.298683,57.1578123,0.0</coordinates>
            </Point>
        </Placemark>
        <Placemark id="439">
            <name>Расформированная войсковая часть 47156 (ru)</name>
            <description/>
            <Point id="438">
                <coordinates>65.5721783,56.8527587,0.0</coordinates>
            </Point>
        </Placemark>
        <Placemark id="441">
            <name>Свинокомплекс (ru)</name>
            <description/>
            <Point id="440">
                <coordinates>65.3951363,56.6646936,0.0</coordinates>
            </Point>
        </Placemark>
        <Placemark id="443">
            <name>Расформированная войсковая часть 48856 (ru)</name>
            <description/>
            <Point id="442">
                <coordinates>65.7246377,57.0957036,0.0</coordinates>
            </Point>
        </Placemark>
        <Placemark id="445">
            <name>Заброшенный плодопитомник (ru)</name>
            <description/>
            <Point id="444">
                <coordinates>65.3724556,57.2073511,0.0</coordinates>
            </Point>
        </Placemark>
        <Placemark id="447">
            <name>Заброшенный детский лагерь «Звёздный» (ru)</name>
            <description/>
            <Point id="446">
                <coordinates>65.786519,57.0208729,0.0</coordinates>
            </Point>
        </Placemark>
        <Placemark id="449">
            <name>Расформированная войсковая часть Ракетных войск стратегического назначения «Долина» (ru)</name>
            <description/>
            <Point id="448">
                <coordinates>65.5662775,56.8600882,0.0</coordinates>
            </Point>
        </Placemark>
        <Placemark id="451">
            <name>Заброшенный карьер (ru)</name>
            <description/>
            <Point id="450">
                <coordinates>66.0810362,57.0150032,0.0</coordinates>
            </Point>
        </Placemark>
        <Placemark id="453">
            <name>Заброшенная ферма (ru)</name>
            <description/>
            <Point id="452">
                <coordinates>65.1750933,57.2887033,0.0</coordinates>
            </Point>
        </Placemark>
        <Placemark id="455">
            <name>Расформированный радиоцентр «Долины» (ru)</name>
            <description/>
            <Point id="454">
                <coordinates>65.6002459,56.8680214,0.0</coordinates>
            </Point>
        </Placemark>
        <Placemark id="457">
            <name>Заброшенный пионерский лагерь «Орлёнок» (ru)</name>
            <description/>
            <Point id="456">
                <coordinates>65.9171747,56.985021,0.0</coordinates>
            </Point>
        </Placemark>
        <Placemark id="459">
            <name>Заброшенная стройка свинокомплекса (ru)</name>
            <description/>
            <Point id="458">
                <coordinates>65.3275608,57.0875097,0.0</coordinates>
            </Point>
        </Placemark>
        <Placemark id="461">
            <name>Заброшенный песчаный карьер (ru)</name>
            <description/>
            <Point id="460">
                <coordinates>65.7859825,57.028149,0.0</coordinates>
            </Point>
        </Placemark>
        <Placemark id="463">
            <name>Заброшенная стройплощадка (ru)</name>
            <description/>
            <Point id="462">
                <coordinates>65.7289023,57.0642831,0.0</coordinates>
            </Point>
        </Placemark>
        <Placemark id="465">
            <name>Заброшенный сад из боярышника (ru)</name>
            <description/>
            <Point id="464">
                <coordinates>64.9125694,57.094793,0.0</coordinates>
            </Point>
        </Placemark>
        <Placemark id="467">
            <name>Заброшенная Успенская бумажная фабрика (ru)</name>
            <description/>
            <Point id="466">
                <coordinates>65.0156667,56.8594301,0.0</coordinates>
            </Point>
        </Placemark>
        <Placemark id="469">
            <name>Заброшенные бывшие оптовые базы (ru)</name>
            <description/>
            <Point id="468">
                <coordinates>65.5656068,57.1483847,0.0</coordinates>
            </Point>
        </Placemark>
        <Placemark id="471">
            <name>Заброшенная база обслуживания железнодорожного полотна (ru)</name>
            <description/>
            <Point id="470">
                <coordinates>65.5183571,57.1450308,0.0</coordinates>
            </Point>
        </Placemark>
        <Placemark id="473">
            <name>Заброшенные отделы хранения (ru)</name>
            <description/>
            <Point id="472">
                <coordinates>65.5737567,56.8556509,0.0</coordinates>
            </Point>
        </Placemark>
        <Placemark id="475">
            <name>Заброшенный автопарк (ru)</name>
            <description/>
            <Point id="474">
                <coordinates>65.5703691,56.8563014,0.0</coordinates>
            </Point>
        </Placemark>
        <Placemark id="477">
            <name>Заброшенные фермы (ru)</name>
            <description/>
            <Point id="476">
                <coordinates>65.4631411,57.0827203,0.0</coordinates>
            </Point>
        </Placemark>
        <Placemark id="479">
            <name>Бывший керамзитный завод (ru)</name>
            <description/>
            <Point id="478">
                <coordinates>65.8752763,56.8794521,0.0</coordinates>
            </Point>
        </Placemark>
        <Placemark id="481">
            <name>Заброшенный стадион «Патриот» (ru)</name>
            <description/>
            <Point id="480">
                <coordinates>65.5998345,57.1481315,0.0</coordinates>
            </Point>
        </Placemark>
        <Placemark id="483">
            <name>Заброшенный ремонтно-механический цех (ru)</name>
            <description/>
            <Point id="482">
                <coordinates>65.5753312,56.8542035,0.0</coordinates>
            </Point>
        </Placemark>
        <Placemark id="485">
            <name>Заброшенная территория с ангаром (ru)</name>
            <description/>
            <Point id="484">
                <coordinates>65.4889668,57.1332393,0.0</coordinates>
            </Point>
        </Placemark>
        <Placemark id="487">
            <name>Заброшенное футбольное поле (ru)</name>
            <description/>
            <Point id="486">
                <coordinates>65.7327406,57.062727,0.0</coordinates>
            </Point>
        </Placemark>
        <Placemark id="489">
            <name>Недействующий вертодром Боровский (ru)</name>
            <description/>
            <Point id="488">
                <coordinates>65.7450199,57.0349946,0.0</coordinates>
            </Point>
        </Placemark>
        <Placemark id="491">
            <name>Заброшенная ферма (ru)</name>
            <description/>
            <Point id="490">
                <coordinates>65.123434,57.2596558,0.0</coordinates>
            </Point>
        </Placemark>
        <Placemark id="493">
            <name>Заброшенный заправочный пункт (ru)</name>
            <description/>
            <Point id="492">
                <coordinates>65.5675367,56.8533243,0.0</coordinates>
            </Point>
        </Placemark>
        <Placemark id="495">
            <name>Заброшенная автозаправочная станция (ru)</name>
            <description/>
            <Point id="494">
                <coordinates>65.683329,57.1480326,0.0</coordinates>
            </Point>
        </Placemark>
        <Placemark id="497">
            <name>Старая свалка утилизации отходов ТЭЦ-1 (ru)</name>
            <description/>
            <Point id="496">
                <coordinates>65.6138383,57.1455414,0.0</coordinates>
            </Point>
        </Placemark>
        <Placemark id="499">
            <name>Площадка под строительство храма святых Царственных страстотерпцев (ru)</name>
            <description/>
            <Point id="498">
                <coordinates>65.6861963,57.1742457,0.0</coordinates>
            </Point>
        </Placemark>
        <Placemark id="501">
            <name>Игровые площадки (ru)</name>
            <description/>
            <Point id="500">
                <coordinates>65.2587371,57.1420577,0.0</coordinates>
            </Point>
        </Placemark>
        <Placemark id="503">
            <name>Заброшенная база (ru)</name>
            <description/>
            <Point id="502">
                <coordinates>65.6437557,57.0843729,0.0</coordinates>
            </Point>
        </Placemark>
        <Placemark id="505">
            <name>Строящийся жилой дом для сотрудников полиции (ru)</name>
            <description/>
            <Point id="504">
                <coordinates>65.5775145,57.189199,0.0</coordinates>
            </Point>
        </Placemark>
        <Placemark id="507">
            <name>Заброшенные гаражи (ru)</name>
            <description/>
            <Point id="506">
                <coordinates>65.4813639,57.1517062,0.0</coordinates>
            </Point>
        </Placemark>
        <Placemark id="509">
            <name>Заброшенная строительная площадка (ru)</name>
            <description/>
            <Point id="508">
                <coordinates>65.5558067,57.1404612,0.0</coordinates>
            </Point>
        </Placemark>
        <Placemark id="511">
            <name>Неиспользуемая парковка (ru)</name>
            <description/>
            <Point id="510">
                <coordinates>65.5673328,57.1715331,0.0</coordinates>
            </Point>
        </Placemark>
        <Placemark id="513">
            <name>Заброшенный строевой плац (ru)</name>
            <description/>
            <Point id="512">
                <coordinates>65.7209042,57.0945498,0.0</coordinates>
            </Point>
        </Placemark>
        <Placemark id="515">
            <name>Недействующий остановочный пункт 2089 км (ru)</name>
            <description/>
            <Point id="514">
                <coordinates>64.7280254,57.077477,0.0</coordinates>
            </Point>
        </Placemark>
        <Placemark id="517">
            <name>Заброшенный недостроенный автоцентр (ru)</name>
            <description/>
            <Point id="516">
                <coordinates>65.6006312,57.1709653,0.0</coordinates>
            </Point>
        </Placemark>
        <Placemark id="519">
            <name>Заброшенный склад элеватора (ru)</name>
            <description/>
            <Point id="518">
                <coordinates>65.6226011,57.1581472,0.0</coordinates>
            </Point>
        </Placemark>
        <Placemark id="521">
            <name>Заброшенный подземный паркинг (ru)</name>
            <description/>
            <Point id="520">
                <coordinates>65.5219673,57.1224467,0.0</coordinates>
            </Point>
        </Placemark>
        <Placemark id="523">
            <name>Tsentralnaya ulitsa, 6</name>
            <description/>
            <Point id="522">
                <coordinates>66.0530796,57.1744514,0.0</coordinates>
            </Point>
        </Placemark>
        <Placemark id="525">
            <name>Заброшенная стройка многоэтажного гаражного комплекса (ru)</name>
            <description/>
            <Point id="524">
                <coordinates>65.4899658,57.1667161,0.0</coordinates>
            </Point>
        </Placemark>
        <Placemark id="527">
            <name>Северная ул. (ru), 13</name>
            <description/>
            <Point id="526">
                <coordinates>65.7693206,56.969689,0.0</coordinates>
            </Point>
        </Placemark>
        <Placemark id="529">
            <name>Заброшенное здание (ru)</name>
            <description/>
            <Point id="528">
                <coordinates>65.6376564,57.0859509,0.0</coordinates>
            </Point>
        </Placemark>
        <Placemark id="531">
            <name>Заброшенное здание (ru)</name>
            <description/>
            <Point id="530">
                <coordinates>65.6394556,57.0853419,0.0</coordinates>
            </Point>
        </Placemark>
        <Placemark id="533">
            <name>Пустующее торговое здание (ru)</name>
            <description/>
            <Point id="532">
                <coordinates>65.6019535,57.0909301,0.0</coordinates>
            </Point>
        </Placemark>
        <Placemark id="535">
            <name>Бывший передающий радиоцентр (ru)</name>
            <description/>
            <Point id="534">
                <coordinates>65.7571274,57.0910044,0.0</coordinates>
            </Point>
        </Placemark>
        <Placemark id="537">
            <name>Moskovsky trakt, 130б</name>
            <description/>
            <Point id="536">
                <coordinates>65.4888594,57.1332468,0.0</coordinates>
            </Point>
        </Placemark>
        <Placemark id="539">
            <name>Строительство 6-этажного паркинга (ru)</name>
            <description/>
            <Point id="538">
                <coordinates>65.6432137,57.1459082,0.0</coordinates>
            </Point>
        </Placemark>
        <Placemark id="541">
            <name>Бывшая конечная остановка «Аэропорт Плеханово» (ru)</name>
            <description/>
            <Point id="540">
                <coordinates>65.4798673,57.1506413,0.0</coordinates>
            </Point>
        </Placemark>
        <Placemark id="543">
            <name>Заброшенная пейнтбольная площадка (ru)</name>
            <description/>
            <Point id="542">
                <coordinates>65.7410287,56.9974192,0.0</coordinates>
            </Point>
        </Placemark>
        <Placemark id="545">
            <name>Заброшенная стройплощадка многоэтажного паркинга (ru)</name>
            <description/>
            <Point id="544">
                <coordinates>65.5426043,57.1404075,0.0</coordinates>
            </Point>
        </Placemark>
        <Placemark id="547">
            <name>Октябрьская ул. (ru), 14</name>
            <description/>
            <Point id="546">
                <coordinates>65.4809403,56.6123978,0.0</coordinates>
            </Point>
        </Placemark>
        <Placemark id="549">
            <name>Заброшенная дача (ru)</name>
            <description/>
            <Point id="548">
                <coordinates>65.3617898,57.1735637,0.0</coordinates>
            </Point>
        </Placemark>
        <Placemark id="551">
            <name>Заброшенный лабораторный корпус Тюменского завода медоборудования (ru)</name>
            <description/>
            <Point id="550">
                <coordinates>65.6008427,57.1248584,0.0</coordinates>
            </Point>
        </Placemark>
        <Placemark id="553">
            <name>хранилище ракет (ru)</name>
            <description/>
            <Point id="552">
                <coordinates>65.4616256,56.8438012,0.0</coordinates>
            </Point>
        </Placemark>
        <Placemark id="555">
            <name>Ферма (ru)</name>
            <description/>
            <Point id="554">
                <coordinates>64.9429615,56.5894641,0.0</coordinates>
            </Point>
        </Placemark>
        <Placemark id="557">
            <name>Домовладение (ru)</name>
            <description/>
            <Point id="556">
                <coordinates>64.7313969,57.0865477,0.0</coordinates>
            </Point>
        </Placemark>
        <Placemark id="559">
            <name>Бомбоубежище (ru)</name>
            <description/>
            <Point id="558">
                <coordinates>65.682928,57.1500157,0.0</coordinates>
            </Point>
        </Placemark>
        <Placemark id="561">
            <name>Полевая ул. (ru), 17</name>
            <description/>
            <Point id="560">
                <coordinates>65.9096015,57.1749036,0.0</coordinates>
            </Point>
        </Placemark>
        <Placemark id="563">
            <name>Заброшенный корпус (ru)</name>
            <description/>
            <Point id="562">
                <coordinates>65.8477364,56.9738102,0.0</coordinates>
            </Point>
        </Placemark>
        <Placemark id="565">
            <name>Заброшенная стройплощадка многоэтажного паркинга (ru)</name>
            <description/>
            <Point id="564">
                <coordinates>65.5445963,57.1395685,0.0</coordinates>
            </Point>
        </Placemark>
        <Placemark id="567">
            <name>Заброшенный ангар (ru)</name>
            <description/>
            <Point id="566">
                <coordinates>65.379663,57.1499915,0.0</coordinates>
            </Point>
        </Placemark>
        <Placemark id="569">
            <name>Заброшенный госпиталь (ru)</name>
            <description/>
            <Point id="568">
                <coordinates>65.7080808,57.0929456,0.0</coordinates>
            </Point>
        </Placemark>
        <Placemark id="571">
            <name>Ферма (ru)</name>
            <description/>
            <Point id="570">
                <coordinates>64.8997297,57.2532188,0.0</coordinates>
            </Point>
        </Placemark>
        <Placemark id="573">
            <name>Заброшенные казармы (ru)</name>
            <description/>
            <Point id="572">
                <coordinates>65.7226778,57.0943314,0.0</coordinates>
            </Point>
        </Placemark>
        <Placemark id="575">
            <name>Заброшенное общественное здание (ru)</name>
            <description/>
            <Point id="574">
                <coordinates>65.5922198,57.1216699,0.0</coordinates>
            </Point>
        </Placemark>
        <Placemark id="577">
            <name>Бывшая лодочная станция (ru)</name>
            <description/>
            <Point id="576">
                <coordinates>65.8395583,57.0328804,0.0</coordinates>
            </Point>
        </Placemark>
        <Placemark id="579">
            <name>Заброшенный строевой плац (ru)</name>
            <description/>
            <Point id="578">
                <coordinates>65.5690509,56.8548076,0.0</coordinates>
            </Point>
        </Placemark>
        <Placemark id="581">
            <name>Заброшенная котельная (ru)</name>
            <description/>
            <Point id="580">
                <coordinates>65.4283681,56.9432341,0.0</coordinates>
            </Point>
        </Placemark>
        <Placemark id="583">
            <name>Зеленая ул. (ru), 35</name>
            <description/>
            <Point id="582">
                <coordinates>65.0726625,56.9730939,0.0</coordinates>
            </Point>
        </Placemark>
        <Placemark id="585">
            <name>Заброшенная казарма (ru)</name>
            <description/>
            <Point id="584">
                <coordinates>65.8450583,56.8951658,0.0</coordinates>
            </Point>
        </Placemark>
        <Placemark id="587">
            <name>Заброшенный пятиэтажный шестиподъездный панельный жилой дом № 1 (ru)</name>
            <description/>
            <Point id="586">
                <coordinates>65.5695501,56.8516207,0.0</coordinates>
            </Point>
        </Placemark>
        <Placemark id="589">
            <name>Ферма (ru)</name>
            <description/>
            <Point id="588">
                <coordinates>64.9450693,56.5895411,0.0</coordinates>
            </Point>
        </Placemark>
        <Placemark id="591">
            <name>Заброшенное здание (ru)</name>
            <description/>
            <Point id="590">
                <coordinates>65.5889894,57.1778055,0.0</coordinates>
            </Point>
        </Placemark>
        <Placemark id="593">
            <name>ulitsa Lenina, 31</name>
            <description/>
            <Point id="592">
                <coordinates>65.5294279,57.1572734,0.0</coordinates>
            </Point>
        </Placemark>
        <Placemark id="595">
            <name>Заброшенный штаб войсковой части 48856 (ru)</name>
            <description/>
            <Point id="594">
                <coordinates>65.7212596,57.094063,0.0</coordinates>
            </Point>
        </Placemark>
        <Placemark id="597">
            <name>Октябрьская ул. (ru), 34</name>
            <description/>
            <Point id="596">
                <coordinates>65.4760238,56.6128391,0.0</coordinates>
            </Point>
        </Placemark>
        <Placemark id="599">
            <name>Октябрьская ул. (ru), 127</name>
            <description/>
            <Point id="598">
                <coordinates>65.7760395,56.9682563,0.0</coordinates>
            </Point>
        </Placemark>
        <Placemark id="601">
            <name>Хранилище (ru)</name>
            <description/>
            <Point id="600">
                <coordinates>65.8143428,56.8975861,0.0</coordinates>
            </Point>
        </Placemark>
        <Placemark id="603">
            <name>Хранилище (ru)</name>
            <description/>
            <Point id="602">
                <coordinates>65.5448827,56.8501923,0.0</coordinates>
            </Point>
        </Placemark>
        <Placemark id="605">
            <name>Заброшенный спортивный комплекс (ru)</name>
            <description/>
            <Point id="604">
                <coordinates>65.8477404,56.9722636,0.0</coordinates>
            </Point>
        </Placemark>
        <Placemark id="607">
            <name>Хранилище (ru)</name>
            <description/>
            <Point id="606">
                <coordinates>65.5505489,56.8606891,0.0</coordinates>
            </Point>
        </Placemark>
        <Placemark id="609">
            <name>Хранилище (ru)</name>
            <description/>
            <Point id="608">
                <coordinates>65.5425479,56.8497294,0.0</coordinates>
            </Point>
        </Placemark>
        <Placemark id="611">
            <name>Заброшенная стройка (ru)</name>
            <description/>
            <Point id="610">
                <coordinates>65.6108571,57.1204082,0.0</coordinates>
            </Point>
        </Placemark>
        <Placemark id="613">
            <name>Хранилище (ru)</name>
            <description/>
            <Point id="612">
                <coordinates>65.5426244,56.8508185,0.0</coordinates>
            </Point>
        </Placemark>
        <Placemark id="615">
            <name>Хранилище (ru)</name>
            <description/>
            <Point id="614">
                <coordinates>65.5565786,56.858141,0.0</coordinates>
            </Point>
        </Placemark>
        <Placemark id="617">
            <name>Хранилище (ru)</name>
            <description/>
            <Point id="616">
                <coordinates>65.5496532,56.850157,0.0</coordinates>
            </Point>
        </Placemark>
        <Placemark id="619">
            <name>Хранилище (ru)</name>
            <description/>
            <Point id="618">
                <coordinates>65.5427035,56.8529487,0.0</coordinates>
            </Point>
        </Placemark>
        <Placemark id="621">
            <name>Хранилище (ru)</name>
            <description/>
            <Point id="620">
                <coordinates>65.5494961,56.8480471,0.0</coordinates>
            </Point>
        </Placemark>
        <Placemark id="623">
            <name>Хранилище (ru)</name>
            <description/>
            <Point id="622">
                <coordinates>65.5586492,56.8553151,0.0</coordinates>
            </Point>
        </Placemark>
        <Placemark id="625">
            <name>Хранилище (ru)</name>
            <description/>
            <Point id="624">
                <coordinates>65.5599165,56.8541917,0.0</coordinates>
            </Point>
        </Placemark>
        <Placemark id="627">
            <name>Заброшенный фундамент (ru)</name>
            <description/>
            <Point id="626">
                <coordinates>65.4770967,57.1449246,0.0</coordinates>
            </Point>
        </Placemark>
        <Placemark id="629">
            <name>Заброшенный фундамент (ru)</name>
            <description/>
            <Point id="628">
                <coordinates>65.4781467,57.1453945,0.0</coordinates>
            </Point>
        </Placemark>
        <Placemark id="631">
            <name>Хранилище (ru)</name>
            <description/>
            <Point id="630">
                <coordinates>65.554233,56.8601081,0.0</coordinates>
            </Point>
        </Placemark>
        <Placemark id="633">
            <name>Хранилище (ru)</name>
            <description/>
            <Point id="632">
                <coordinates>65.5495881,56.8490951,0.0</coordinates>
            </Point>
        </Placemark>
        <Placemark id="635">
            <name>Хранилище (ru)</name>
            <description/>
            <Point id="634">
                <coordinates>65.5473987,56.8506989,0.0</coordinates>
            </Point>
        </Placemark>
        <Placemark id="637">
            <name>Хранилище (ru)</name>
            <description/>
            <Point id="636">
                <coordinates>65.5601057,56.8625238,0.0</coordinates>
            </Point>
        </Placemark>
        <Placemark id="639">
            <name>Хранилище (ru)</name>
            <description/>
            <Point id="638">
                <coordinates>65.5521073,56.8495997,0.0</coordinates>
            </Point>
        </Placemark>
        <Placemark id="641">
            <name>Хранилище (ru)</name>
            <description/>
            <Point id="640">
                <coordinates>65.5474174,56.851752,0.0</coordinates>
            </Point>
        </Placemark>
        <Placemark id="643">
            <name>Хранилище (ru)</name>
            <description/>
            <Point id="642">
                <coordinates>65.5598535,56.8531492,0.0</coordinates>
            </Point>
        </Placemark>
        <Placemark id="645">
            <name>Хранилище (ru)</name>
            <description/>
            <Point id="644">
                <coordinates>65.5522213,56.8591622,0.0</coordinates>
            </Point>
        </Placemark>
        <Placemark id="647">
            <name>Хранилище (ru)</name>
            <description/>
            <Point id="646">
                <coordinates>65.5449914,56.851257,0.0</coordinates>
            </Point>
        </Placemark>
        <Placemark id="649">
            <name>Приусадебный участок (ru)</name>
            <description/>
            <Point id="648">
                <coordinates>65.4928667,57.1295718,0.0</coordinates>
            </Point>
        </Placemark>
        <Placemark id="651">
            <name>Хранилище (ru)</name>
            <description/>
            <Point id="650">
                <coordinates>65.5540734,56.8582722,0.0</coordinates>
            </Point>
        </Placemark>
        <Placemark id="653">
            <name>Хранилище (ru)</name>
            <description/>
            <Point id="652">
                <coordinates>65.8179168,56.8850163,0.0</coordinates>
            </Point>
        </Placemark>
        <Placemark id="655">
            <name>Недостроенный культурно-спортивный центр (ru)</name>
            <description/>
            <Point id="654">
                <coordinates>65.5788083,57.1829467,0.0</coordinates>
            </Point>
        </Placemark>
        <Placemark id="657">
            <name>Недействующая Богандинская средняя школа № 3 (ru)</name>
            <description/>
            <Point id="656">
                <coordinates>65.5720339,56.8516639,0.0</coordinates>
            </Point>
        </Placemark>
        <Placemark id="659">
            <name>Хранилище (ru)</name>
            <description/>
            <Point id="658">
                <coordinates>65.5519542,56.8474713,0.0</coordinates>
            </Point>
        </Placemark>
        <Placemark id="661">
            <name>Хранилище (ru)</name>
            <description/>
            <Point id="660">
                <coordinates>65.5520321,56.8485406,0.0</coordinates>
            </Point>
        </Placemark>
        <Placemark id="663">
            <name>Хранилище (ru)</name>
            <description/>
            <Point id="662">
                <coordinates>65.5496866,56.8511976,0.0</coordinates>
            </Point>
        </Placemark>
        <Placemark id="665">
            <name>Хранилище (ru)</name>
            <description/>
            <Point id="664">
                <coordinates>65.5473678,56.8496172,0.0</coordinates>
            </Point>
        </Placemark>
        <Placemark id="667">
            <name>Хранилище (ru)</name>
            <description/>
            <Point id="666">
                <coordinates>65.5426377,56.8518855,0.0</coordinates>
            </Point>
        </Placemark>
        <Placemark id="669">
            <name>Хранилище (ru)</name>
            <description/>
            <Point id="668">
                <coordinates>65.5450619,56.8523461,0.0</coordinates>
            </Point>
        </Placemark>
        <Placemark id="671">
            <name>Хранилище (ru)</name>
            <description/>
            <Point id="670">
                <coordinates>65.5451215,56.8533746,0.0</coordinates>
            </Point>
        </Placemark>
        <Placemark id="673">
            <name>Хранилище (ru)</name>
            <description/>
            <Point id="672">
                <coordinates>65.8184198,56.8974879,0.0</coordinates>
            </Point>
        </Placemark>
        <Placemark id="675">
            <name>Хранилище (ru)</name>
            <description/>
            <Point id="674">
                <coordinates>65.5448866,56.849124,0.0</coordinates>
            </Point>
        </Placemark>
        <Placemark id="677">
            <name>Хранилище (ru)</name>
            <description/>
            <Point id="676">
                <coordinates>65.8093111,56.8853534,0.0</coordinates>
            </Point>
        </Placemark>
        <Placemark id="679">
            <name>Хранилище (ru)</name>
            <description/>
            <Point id="678">
                <coordinates>65.5890011,56.8630768,0.0</coordinates>
            </Point>
        </Placemark>
        <Placemark id="681">
            <name>Хранилище (ru)</name>
            <description/>
            <Point id="680">
                <coordinates>65.542713,56.8540093,0.0</coordinates>
            </Point>
        </Placemark>
        <Placemark id="683">
            <name>Хранилище (ru)</name>
            <description/>
            <Point id="682">
                <coordinates>65.8162687,56.8957206,0.0</coordinates>
            </Point>
        </Placemark>
        <Placemark id="685">
            <name>Заброшенный спортивный зал с клубом (ru)</name>
            <description/>
            <Point id="684">
                <coordinates>65.5712715,56.8536869,0.0</coordinates>
            </Point>
        </Placemark>
        <Placemark id="687">
            <name>Недостроенное и заброшенное здание школы (ru)</name>
            <description/>
            <Point id="686">
                <coordinates>65.5281418,57.0873836,0.0</coordinates>
            </Point>
        </Placemark>
        <Placemark id="689">
            <name>Заброшенный машиностроительный завод (ru)</name>
            <description/>
            <Point id="688">
                <coordinates>65.5454164,57.1288413,0.0</coordinates>
            </Point>
        </Placemark>
        <Placemark id="691">
            <name>Хранилище (ru)</name>
            <description/>
            <Point id="690">
                <coordinates>65.8288924,56.8957543,0.0</coordinates>
            </Point>
        </Placemark>
        <Placemark id="693">
            <name>Хранилище (ru)</name>
            <description/>
            <Point id="692">
                <coordinates>65.5580873,56.8600135,0.0</coordinates>
            </Point>
        </Placemark>
        <Placemark id="695">
            <name>Заброшенный хлебозавод (ru)</name>
            <description/>
            <Point id="694">
                <coordinates>64.912878,57.1177167,0.0</coordinates>
            </Point>
        </Placemark>
        <Placemark id="697">
            <name>Хранилище (ru)</name>
            <description/>
            <Point id="696">
                <coordinates>65.8134278,56.8852133,0.0</coordinates>
            </Point>
        </Placemark>
        <Placemark id="699">
            <name>Хранилище (ru)</name>
            <description/>
            <Point id="698">
                <coordinates>65.8259179,56.8846052,0.0</coordinates>
            </Point>
        </Placemark>
        <Placemark id="701">
            <name>Хранилище (ru)</name>
            <description/>
            <Point id="700">
                <coordinates>65.8203429,56.8956077,0.0</coordinates>
            </Point>
        </Placemark>
        <Placemark id="703">
            <name>Хранилище (ru)</name>
            <description/>
            <Point id="702">
                <coordinates>65.8228307,56.8973078,0.0</coordinates>
            </Point>
        </Placemark>
        <Placemark id="705">
            <name>Студенческая ул. (ru), 12</name>
            <description/>
            <Point id="704">
                <coordinates>65.5760045,57.1857536,0.0</coordinates>
            </Point>
        </Placemark>
        <Placemark id="707">
            <name>Хранилище (ru)</name>
            <description/>
            <Point id="706">
                <coordinates>65.8308761,56.8972242,0.0</coordinates>
            </Point>
        </Placemark>
        <Placemark id="709">
            <name>Бывшие боксы военной кафедры при ТюмГНГУ (ru)</name>
            <description/>
            <Point id="708">
                <coordinates>65.5759429,57.1461446,0.0</coordinates>
            </Point>
        </Placemark>
        <Placemark id="711">
            <name>Хранилище (ru)</name>
            <description/>
            <Point id="710">
                <coordinates>65.5591375,56.8613182,0.0</coordinates>
            </Point>
        </Placemark>
        <Placemark id="713">
            <name>Заброшенный комбинат (ru)</name>
            <description/>
            <Point id="712">
                <coordinates>65.4804142,57.1685141,0.0</coordinates>
            </Point>
        </Placemark>
        <Placemark id="715">
            <name>Заброшенное здание (ru)</name>
            <description/>
            <Point id="714">
                <coordinates>65.7340093,57.1258434,0.0</coordinates>
            </Point>
        </Placemark>
        <Placemark id="717">
            <name>Заброшенная котельная (ru)</name>
            <description/>
            <Point id="716">
                <coordinates>65.5730753,56.8550425,0.0</coordinates>
            </Point>
        </Placemark>
        <Placemark id="719">
            <name>Хранилище (ru)</name>
            <description/>
            <Point id="718">
                <coordinates>65.8268701,56.8972615,0.0</coordinates>
            </Point>
        </Placemark>
        <Placemark id="721">
            <name>Заброшенная стройка (ru)</name>
            <description/>
            <Point id="720">
                <coordinates>65.4912453,57.1298113,0.0</coordinates>
            </Point>
        </Placemark>
        <Placemark id="723">
            <name>Заброшенная столовая (ru)</name>
            <description/>
            <Point id="722">
                <coordinates>65.5722282,56.8550748,0.0</coordinates>
            </Point>
        </Placemark>
        <Placemark id="725">
            <name>Заброшенный объект (ru)</name>
            <description/>
            <Point id="724">
                <coordinates>65.3685251,57.1720607,0.0</coordinates>
            </Point>
        </Placemark>
        <Placemark id="727">
            <name>Хранилище (ru)</name>
            <description/>
            <Point id="726">
                <coordinates>65.8121139,56.8956971,0.0</coordinates>
            </Point>
        </Placemark>
        <Placemark id="729">
            <name>Заброшенные гаражи (ru)</name>
            <description/>
            <Point id="728">
                <coordinates>65.5700741,56.8501891,0.0</coordinates>
            </Point>
        </Placemark>
        <Placemark id="731">
            <name>Tsentralnaya ulitsa, 51</name>
            <description/>
            <Point id="730">
                <coordinates>66.0654847,57.1713652,0.0</coordinates>
            </Point>
        </Placemark>
        <Placemark id="733">
            <name>Заброшенный КПП с караулом (ru)</name>
            <description/>
            <Point id="732">
                <coordinates>65.5675286,56.8569964,0.0</coordinates>
            </Point>
        </Placemark>
        <Placemark id="735">
            <name>Бывшая казарма в/ч 96544 (ru)</name>
            <description/>
            <Point id="734">
                <coordinates>65.7784562,57.0795251,0.0</coordinates>
            </Point>
        </Placemark>
        <Placemark id="737">
            <name>Недействующий автосалон (ru)</name>
            <description/>
            <Point id="736">
                <coordinates>65.5694384,57.1721002,0.0</coordinates>
            </Point>
        </Placemark>
        <Placemark id="739">
            <name>Заброшенный ангар (ru)</name>
            <description/>
            <Point id="738">
                <coordinates>65.6412666,57.0827699,0.0</coordinates>
            </Point>
        </Placemark>
        <Placemark id="741">
            <name>Заброшенная стройка (ru)</name>
            <description/>
            <Point id="740">
                <coordinates>65.4931375,57.1344853,0.0</coordinates>
            </Point>
        </Placemark>
        <Placemark id="743">
            <name>Заброшенная хоккейная площадка (ru)</name>
            <description/>
            <Point id="742">
                <coordinates>65.5706937,56.8512923,0.0</coordinates>
            </Point>
        </Placemark>
        <Placemark id="745">
            <name>Недостроенный мост (ru)</name>
            <description/>
            <Point id="744">
                <coordinates>65.4439566,56.9561995,0.0</coordinates>
            </Point>
        </Placemark>
        <Placemark id="747">
            <name>Заброшенный детский сад (ru)</name>
            <description/>
            <Point id="746">
                <coordinates>65.5707073,56.8517536,0.0</coordinates>
            </Point>
        </Placemark>
        <Placemark id="749">
            <name>Заброшенная казарма отдельной мотострелковой роты (ОСМР) (ru)</name>
            <description/>
            <Point id="748">
                <coordinates>65.5709121,56.8552416,0.0</coordinates>
            </Point>
        </Placemark>
        <Placemark id="751">
            <name>Студенческая ул. (ru), 10</name>
            <description/>
            <Point id="750">
                <coordinates>65.5757483,57.1856504,0.0</coordinates>
            </Point>
        </Placemark>
        <Placemark id="753">
            <name>Старое караульное помещение (ru)</name>
            <description/>
            <Point id="752">
                <coordinates>65.7821764,56.889554,0.0</coordinates>
            </Point>
        </Placemark>
        <Placemark id="755">
            <name>Заброшенное управление войсковой части 47156 (ru)</name>
            <description/>
            <Point id="754">
                <coordinates>65.5707418,56.8544462,0.0</coordinates>
            </Point>
        </Placemark>
        <Placemark id="757">
            <name>Заброшенное здание (ru)</name>
            <description/>
            <Point id="756">
                <coordinates>65.6511249,57.0940731,0.0</coordinates>
            </Point>
        </Placemark>
        <Placemark id="759">
            <name>Гаражи (ru)</name>
            <description/>
            <Point id="758">
                <coordinates>65.6247885,57.1221016,0.0</coordinates>
            </Point>
        </Placemark>
        <Placemark id="761">
            <name>Каховская ул. (ru), 4</name>
            <description/>
            <Point id="760">
                <coordinates>65.5331293,57.1659439,0.0</coordinates>
            </Point>
        </Placemark>
        <Placemark id="763">
            <name>Заброшенный сквер (ru)</name>
            <description/>
            <Point id="762">
                <coordinates>65.618327,57.1572242,0.0</coordinates>
            </Point>
        </Placemark>
        <Placemark id="765">
            <name>Каховская ул. (ru), 8</name>
            <description/>
            <Point id="764">
                <coordinates>65.5336953,57.1658901,0.0</coordinates>
            </Point>
        </Placemark>
        <Placemark id="767">
            <name>Недостроенный десятиэтажный жилой дом (ru)</name>
            <description/>
            <Point id="766">
                <coordinates>65.5867482,57.1366055,0.0</coordinates>
            </Point>
        </Placemark>
        <Placemark id="769">
            <name>Заброшенное резервное караульное помещение (ru)</name>
            <description/>
            <Point id="768">
                <coordinates>65.5550552,56.8648521,0.0</coordinates>
            </Point>
        </Placemark>
        <Placemark id="771">
            <name>Остатки старого клуба (ru)</name>
            <description/>
            <Point id="770">
                <coordinates>65.5728795,56.8545774,0.0</coordinates>
            </Point>
        </Placemark>
        <Placemark id="773">
            <name>Заброшенная казарма техроты с санчастью (ru)</name>
            <description/>
            <Point id="772">
                <coordinates>65.5714716,56.8546515,0.0</coordinates>
            </Point>
        </Placemark>
        <Placemark id="775">
            <name>Заброшенная молочная кухня (ru)</name>
            <description/>
            <Point id="774">
                <coordinates>65.6405745,57.0999952,0.0</coordinates>
            </Point>
        </Placemark>
        <Placemark id="777">
            <name>Заброшенный ремонтный бок техники РЖД (ru)</name>
            <description/>
            <Point id="776">
                <coordinates>65.5260457,57.1453858,0.0</coordinates>
            </Point>
        </Placemark>
        <Placemark id="779">
            <name>Заброшенный детский сад № 69 «Снежинка» (ru)</name>
            <description/>
            <Point id="778">
                <coordinates>65.4844781,57.1580975,0.0</coordinates>
            </Point>
        </Placemark>
        <Placemark id="781">
            <name>Недостроенный центр лечебного массажа (ru)</name>
            <description/>
            <Point id="780">
                <coordinates>65.5618224,57.11436,0.0</coordinates>
            </Point>
        </Placemark>
        <Placemark id="783">
            <name>Заброшенное здание (ru)</name>
            <description/>
            <Point id="782">
                <coordinates>65.6425442,57.0826947,0.0</coordinates>
            </Point>
        </Placemark>
        <Placemark id="785">
            <name>Заброшенный пристрой (ru)</name>
            <description/>
            <Point id="784">
                <coordinates>65.557508,57.1564379,0.0</coordinates>
            </Point>
        </Placemark>
        <Placemark id="787">
            <name>Заброшенное здание (ru)</name>
            <description/>
            <Point id="786">
                <coordinates>65.6213378,57.0923493,0.0</coordinates>
            </Point>
        </Placemark>
        <Placemark id="789">
            <name>Заброшенное здание (ru)</name>
            <description/>
            <Point id="788">
                <coordinates>65.4634752,57.230748,0.0</coordinates>
            </Point>
        </Placemark>
        <Placemark id="791">
            <name>Здание бывшей военной команды противопожарной защиты и спасательных работ (ВКПЗиСР) (ru)</name>
            <description/>
            <Point id="790">
                <coordinates>65.5693079,56.8535245,0.0</coordinates>
            </Point>
        </Placemark>
        <Placemark id="793">
            <name>Бывшая АЗС «Газпромнефть» № 59 (ru)</name>
            <description/>
            <Point id="792">
                <coordinates>65.5915794,57.1558449,0.0</coordinates>
            </Point>
        </Placemark>
        <Placemark id="795">
            <name>Неиспользуемая бесплатная автостоянка (ru)</name>
            <description/>
            <Point id="794">
                <coordinates>65.6046598,57.1775307,0.0</coordinates>
            </Point>
        </Placemark>
        <Placemark id="797">
            <name>Руины электростанции ТЭЦ (ru)</name>
            <description/>
            <Point id="796">
                <coordinates>65.6102919,57.1488821,0.0</coordinates>
            </Point>
        </Placemark>
        <Placemark id="799">
            <name>Административное здание (ru)</name>
            <description/>
            <Point id="798">
                <coordinates>65.4576118,57.1989232,0.0</coordinates>
            </Point>
        </Placemark>
        <Placemark id="801">
            <name>Заброшенные гаражи (ru)</name>
            <description/>
            <Point id="800">
                <coordinates>65.5701357,56.849964,0.0</coordinates>
            </Point>
        </Placemark>
        <Placemark id="803">
            <name>Заброшенный пятиэтажный одноподъездный кирпичный жилой дом № 2 (ru)</name>
            <description/>
            <Point id="802">
                <coordinates>65.5696853,56.8524798,0.0</coordinates>
            </Point>
        </Placemark>
        <Placemark id="805">
            <name>Подземный переход (недействующий) (ru)</name>
            <description/>
            <Point id="804">
                <coordinates>65.6307027,57.1135369,0.0</coordinates>
            </Point>
        </Placemark>
        <Placemark id="807">
            <name>Заброшенное здание (ru)</name>
            <description/>
            <Point id="806">
                <coordinates>65.5714204,56.8549728,0.0</coordinates>
            </Point>
        </Placemark>
        <Placemark id="809">
            <name>ул. Судостроителей (ru), 9</name>
            <description/>
            <Point id="808">
                <coordinates>65.6287649,57.1563503,0.0</coordinates>
            </Point>
        </Placemark>
        <Placemark id="811">
            <name>Заброшенная переливочная станция (ru)</name>
            <description/>
            <Point id="810">
                <coordinates>65.279222,57.0953234,0.0</coordinates>
            </Point>
        </Placemark>
        <Placemark id="813">
            <name>Заброшенный детский сад № 33 «Пчёлка» (ru)</name>
            <description/>
            <Point id="812">
                <coordinates>65.5205816,57.1683187,0.0</coordinates>
            </Point>
        </Placemark>
        <Placemark id="815">
            <name>Заброшенное бомбоубежище (ru)</name>
            <description/>
            <Point id="814">
                <coordinates>65.4721426,57.153986,0.0</coordinates>
            </Point>
        </Placemark>
        <Placemark id="817">
            <name>Здание бывшей молочной кухни (ru)</name>
            <description/>
            <Point id="816">
                <coordinates>65.4862376,57.1559078,0.0</coordinates>
            </Point>
        </Placemark>
        <Placemark id="819">
            <name>Заброшенное здание (ru)</name>
            <description/>
            <Point id="818">
                <coordinates>65.5316069,57.2148094,0.0</coordinates>
            </Point>
        </Placemark>
        <Placemark id="821">
            <name>Заброшенный многоквартирный дом (ru)</name>
            <description/>
            <Point id="820">
                <coordinates>65.0691758,57.1051145,0.0</coordinates>
            </Point>
        </Placemark>
        <Placemark id="823">
            <name>Бывшая столовая (ru)</name>
            <description/>
            <Point id="822">
                <coordinates>64.717671,56.6503895,0.0</coordinates>
            </Point>
        </Placemark>
        <Placemark id="825">
            <name>Военная комендатура (ru)</name>
            <description/>
            <Point id="824">
                <coordinates>65.5225628,57.1613815,0.0</coordinates>
            </Point>
        </Placemark>
        <Placemark id="827">
            <name>Неиспользуемый съезд (ru)</name>
            <description/>
            <Point id="826">
                <coordinates>65.5643824,57.1319992,0.0</coordinates>
            </Point>
        </Placemark>
        <Placemark id="829">
            <name>Заброшенные гаражи (ru)</name>
            <description/>
            <Point id="828">
                <coordinates>65.5687415,56.8507718,0.0</coordinates>
            </Point>
        </Placemark>
        <Placemark id="831">
            <name>Заброшеная стройка (ru)</name>
            <description/>
            <Point id="830">
                <coordinates>65.5031819,57.1420992,0.0</coordinates>
            </Point>
        </Placemark>
        <Placemark id="833">
            <name>Усадьба причта Знаменской церкви (ru)</name>
            <description/>
            <Point id="832">
                <coordinates>65.5341009,57.1604912,0.0</coordinates>
            </Point>
        </Placemark>
        <Placemark id="835">
            <name>Сельмаг (ru)</name>
            <description/>
            <Point id="834">
                <coordinates>64.752345,57.1606368,0.0</coordinates>
            </Point>
        </Placemark>
        <Placemark id="837">
            <name>Заброшенное здание (ru)</name>
            <description/>
            <Point id="836">
                <coordinates>65.6249949,57.0927173,0.0</coordinates>
            </Point>
        </Placemark>
        <Placemark id="839">
            <name>Долгострой (ru)</name>
            <description/>
            <Point id="838">
                <coordinates>65.5647834,57.1548182,0.0</coordinates>
            </Point>
        </Placemark>
        <Placemark id="841">
            <name>Здание бывшей гауптвахты (ru)</name>
            <description/>
            <Point id="840">
                <coordinates>65.5311348,57.1606541,0.0</coordinates>
            </Point>
        </Placemark>
        <Placemark id="843">
            <name>Заброшенная детская игровая площадка (ru)</name>
            <description/>
            <Point id="842">
                <coordinates>65.5699985,56.8516972,0.0</coordinates>
            </Point>
        </Placemark>
        <Placemark id="845">
            <name>Заброшенная церковь (ru)</name>
            <description/>
            <Point id="844">
                <coordinates>65.088804,57.2496052,0.0</coordinates>
            </Point>
        </Placemark>
        <Placemark id="847">
            <name>Амурская ул. (ru), 174</name>
            <description/>
            <Point id="846">
                <coordinates>65.4833463,57.1478998,0.0</coordinates>
            </Point>
        </Placemark>
        <Placemark id="849">
            <name>Заброшенная солдатская баня (ru)</name>
            <description/>
            <Point id="848">
                <coordinates>65.5735762,56.8544091,0.0</coordinates>
            </Point>
        </Placemark>
        <Placemark id="851">
            <name>Заброшенное здание (ru)</name>
            <description/>
            <Point id="850">
                <coordinates>64.7164671,56.651731,0.0</coordinates>
            </Point>
        </Placemark>
        <Placemark id="853">
            <name>Развалины моста, бывший мост (ru)</name>
            <description/>
            <Point id="852">
                <coordinates>66.0619443,56.9957435,0.0</coordinates>
            </Point>
        </Placemark>
        <Placemark id="855">
            <name>Заброшенное здание (ru)</name>
            <description/>
            <Point id="854">
                <coordinates>65.6025182,57.2104604,0.0</coordinates>
            </Point>
        </Placemark>
        <Placemark id="857">
            <name>Заброшенное здание (ru)</name>
            <description/>
            <Point id="856">
                <coordinates>65.775811,57.079465,0.0</coordinates>
            </Point>
        </Placemark>
        <Placemark id="859">
            <name>Заброшенное РММ (ru)</name>
            <description/>
            <Point id="858">
                <coordinates>65.643627,57.0845364,0.0</coordinates>
            </Point>
        </Placemark>
        <Placemark id="861">
            <name>Неиспользуемый съезд (ru)</name>
            <description/>
            <Point id="860">
                <coordinates>65.5621025,57.1328289,0.0</coordinates>
            </Point>
        </Placemark>
        <Placemark id="863">
            <name>Теплоход (ru)</name>
            <description/>
            <Point id="862">
                <coordinates>65.8229782,56.9705867,0.0</coordinates>
            </Point>
        </Placemark>
        <Placemark id="865">
            <name>Брошенный дом (ru)</name>
            <description/>
            <Point id="864">
                <coordinates>65.7757157,57.0823071,0.0</coordinates>
            </Point>
        </Placemark>
        <Placemark id="867">
            <name>Заброшенная вышка (ru)</name>
            <description/>
            <Point id="866">
                <coordinates>65.7938071,57.086945,0.0</coordinates>
            </Point>
        </Placemark>
        <Placemark id="869">
            <name>Заброшенный водозабор (ru)</name>
            <description/>
            <Point id="868">
                <coordinates>65.3289782,57.2202699,0.0</coordinates>
            </Point>
        </Placemark>
        <Placemark id="871">
            <name>АЗС «Стрела» (ru)</name>
            <description/>
            <Point id="870">
                <coordinates>65.5338569,57.1403111,0.0</coordinates>
            </Point>
        </Placemark>
        <Placemark id="873">
            <name>Заброшенный подземный переход (ru)</name>
            <description/>
            <Point id="872">
                <coordinates>65.5877029,57.1249976,0.0</coordinates>
            </Point>
        </Placemark>
        <Placemark id="875">
            <name>Разрушенный дом (ru)</name>
            <description/>
            <Point id="874">
                <coordinates>65.4291176,57.2058438,0.0</coordinates>
            </Point>
        </Placemark>
        <Placemark id="877">
            <name>Вход в подземное сооружение (ru)</name>
            <description/>
            <Point id="876">
                <coordinates>65.6691599,57.155079,0.0</coordinates>
            </Point>
        </Placemark>
        <Placemark id="879">
            <name>Заброшенная котельная (ru)</name>
            <description/>
            <Point id="878">
                <coordinates>65.4443214,57.1650527,0.0</coordinates>
            </Point>
        </Placemark>
        <Placemark id="881">
            <name>Северная ул. (ru), 25</name>
            <description/>
            <Point id="880">
                <coordinates>65.4630745,56.634205,0.0</coordinates>
            </Point>
        </Placemark>
        <Placemark id="883">
            <name>Гараж (ru)</name>
            <description/>
            <Point id="882">
                <coordinates>65.8021264,57.0624748,0.0</coordinates>
            </Point>
        </Placemark>
        <Placemark id="885">
            <name>Заброшенное здание школы (ru)</name>
            <description/>
            <Point id="884">
                <coordinates>65.0392745,56.6763684,0.0</coordinates>
            </Point>
        </Placemark>
        <Placemark id="887">
            <name>Заброшенная насосная станция (ru)</name>
            <description/>
            <Point id="886">
                <coordinates>65.6209207,57.1587254,0.0</coordinates>
            </Point>
        </Placemark>
        <Placemark id="889">
            <name>Магазин (ru)</name>
            <description/>
            <Point id="888">
                <coordinates>65.0379922,56.6745623,0.0</coordinates>
            </Point>
        </Placemark>
        <Placemark id="891">
            <name>Двухэтажное здание (ru)</name>
            <description/>
            <Point id="890">
                <coordinates>65.1248128,57.1001067,0.0</coordinates>
            </Point>
        </Placemark>
        <Placemark id="893">
            <name>Руины очистного объекта (ru)</name>
            <description/>
            <Point id="892">
                <coordinates>65.8538626,56.9207537,0.0</coordinates>
            </Point>
        </Placemark>
        <Placemark id="895">
            <name>Станционная ул. (ru), 28а</name>
            <description/>
            <Point id="894">
                <coordinates>65.6477163,57.097279,0.0</coordinates>
            </Point>
        </Placemark>
        <Placemark id="897">
            <name>Старое здание (ru)</name>
            <description/>
            <Point id="896">
                <coordinates>65.5708285,57.1628893,0.0</coordinates>
            </Point>
        </Placemark>
        <Placemark id="899">
            <name>Заброшенный понтон ТВВИКУ (ru)</name>
            <description/>
            <Point id="898">
                <coordinates>65.4942623,57.155671,0.0</coordinates>
            </Point>
        </Placemark>
        <Placemark id="901">
            <name>Заброшенная охотничья база (ru)</name>
            <description/>
            <Point id="900">
                <coordinates>66.0106844,57.0526571,0.0</coordinates>
            </Point>
        </Placemark>
        <Placemark id="903">
            <name>ул. Гагарина (ru), 37</name>
            <description/>
            <Point id="902">
                <coordinates>64.6966484,56.6593739,0.0</coordinates>
            </Point>
        </Placemark>
        <Placemark id="905">
            <name>Заречная ул. (ru), 5</name>
            <description/>
            <Point id="904">
                <coordinates>65.4749618,56.6168496,0.0</coordinates>
            </Point>
        </Placemark>
        <Placemark id="907">
            <name>Заречная ул. (ru), 3</name>
            <description/>
            <Point id="906">
                <coordinates>65.4745499,56.6171105,0.0</coordinates>
            </Point>
        </Placemark>
        <Placemark id="909">
            <name>Заброшенная трансформаторная подстанция (ru)</name>
            <description/>
            <Point id="908">
                <coordinates>65.5687364,56.8542906,0.0</coordinates>
            </Point>
        </Placemark>
        <Placemark id="911">
            <name>Заброшенная водонапорная башня (ru)</name>
            <description/>
            <Point id="910">
                <coordinates>65.6418862,57.0823982,0.0</coordinates>
            </Point>
        </Placemark>
        <Placemark id="913">
            <name>ул.  Котовского (ru), 43</name>
            <description/>
            <Point id="912">
                <coordinates>65.4627053,56.6323343,0.0</coordinates>
            </Point>
        </Placemark>
        <Placemark id="915">
            <name>Частный дом под снос (ru)</name>
            <description/>
            <Point id="914">
                <coordinates>65.5502026,57.1399831,0.0</coordinates>
            </Point>
        </Placemark>
        <Placemark id="917">
            <name>Заброшенная трансформаторная подстанция (ru)</name>
            <description/>
            <Point id="916">
                <coordinates>65.5726023,56.8549026,0.0</coordinates>
            </Point>
        </Placemark>
        <Placemark id="919">
            <name>Заброшенная блочно-модульная котельная (ru)</name>
            <description/>
            <Point id="918">
                <coordinates>65.5701888,56.8530139,0.0</coordinates>
            </Point>
        </Placemark>
        <Placemark id="921">
            <name>Заброшенный КПП (ru)</name>
            <description/>
            <Point id="920">
                <coordinates>65.708626,57.0928635,0.0</coordinates>
            </Point>
        </Placemark>
        <Placemark id="923">
            <name>Заброшенный магазин (ru)</name>
            <description/>
            <Point id="922">
                <coordinates>65.5619779,57.200645,0.0</coordinates>
            </Point>
        </Placemark>
        <Placemark id="925">
            <name>Заброшенное двухэтажное здание (ru)</name>
            <description/>
            <Point id="924">
                <coordinates>65.6440507,57.0847569,0.0</coordinates>
            </Point>
        </Placemark>
        <Placemark id="927">
            <name>Заброшенный дом (ru)</name>
            <description/>
            <Point id="926">
                <coordinates>65.036472,56.6744037,0.0</coordinates>
            </Point>
        </Placemark>
        <Placemark id="929">
            <name>Комсомольская ул. (ru), 11</name>
            <description/>
            <Point id="928">
                <coordinates>65.8918399,56.8958622,0.0</coordinates>
            </Point>
        </Placemark>
        <Placemark id="931">
            <name>Заброшенный дом (ru)</name>
            <description/>
            <Point id="930">
                <coordinates>65.0346561,56.6717584,0.0</coordinates>
            </Point>
        </Placemark>
        <Placemark id="933">
            <name>Подстанция (ru)</name>
            <description/>
            <Point id="932">
                <coordinates>65.5770514,57.1566856,0.0</coordinates>
            </Point>
        </Placemark>
        <Placemark id="935">
            <name>КПП на армейские склады, заброшено (ru)</name>
            <description/>
            <Point id="934">
                <coordinates>65.6704088,56.8448516,0.0</coordinates>
            </Point>
        </Placemark>
        <Placemark id="937">
            <name>Заброшенное КПП (возможно) (ru)</name>
            <description/>
            <Point id="936">
                <coordinates>65.6438066,57.1192819,0.0</coordinates>
            </Point>
        </Placemark>
        <Placemark id="939">
            <name>ул.  Котовского (ru), 41</name>
            <description/>
            <Point id="938">
                <coordinates>65.4636026,56.631714,0.0</coordinates>
            </Point>
        </Placemark>
        <Placemark id="941">
            <name>Рубка от судна (ru)</name>
            <description/>
            <Point id="940">
                <coordinates>65.6509752,57.1637964,0.0</coordinates>
            </Point>
        </Placemark>
        <Placemark id="943">
            <name>Сооружение (ru)</name>
            <description/>
            <Point id="942">
                <coordinates>65.5295754,57.1879258,0.0</coordinates>
            </Point>
        </Placemark>
        <Placemark id="945">
            <name>Недействующий фонтан (ru)</name>
            <description/>
            <Point id="944">
                <coordinates>65.5520402,57.156047,0.0</coordinates>
            </Point>
        </Placemark>
        <Placemark id="947">
            <name>3-я Элеваторная ул. (ru), 13</name>
            <description/>
            <Point id="946">
                <coordinates>65.6276646,57.1518847,0.0</coordinates>
            </Point>
        </Placemark>
        <Placemark id="949">
            <name>Заброшенная каморка для сжигания документов (ru)</name>
            <description/>
            <Point id="948">
                <coordinates>65.5702179,56.8547202,0.0</coordinates>
            </Point>
        </Placemark>
        <Placemark id="951">
            <name>Заброшенная автобусная остановка «Автобаза УВД» (ru)</name>
            <description/>
            <Point id="950">
                <coordinates>65.7650256,57.1026318,0.0</coordinates>
            </Point>
        </Placemark>
        <Placemark id="953">
            <name>КПП (ru)</name>
            <description/>
            <Point id="952">
                <coordinates>65.8534215,56.8924832,0.0</coordinates>
            </Point>
        </Placemark>
        <Placemark id="955">
            <name>Заброшенная гаражная сторожка (ru)</name>
            <description/>
            <Point id="954">
                <coordinates>65.5861027,57.1555065,0.0</coordinates>
            </Point>
        </Placemark>
    </Document>
</kml>
