<?xml version="1.0" encoding="UTF-8"?>
<kml xmlns="http://www.opengis.net/kml/2.2" xmlns:gx="http://www.google.com/kml/ext/2.2">
    <Document id="667">
        <Placemark id="669">
            <name>Заброшенный водопровод (ru)</name>
            <description/>
            <Point id="668">
                <coordinates>65.298683,57.1578123,0.0</coordinates>
            </Point>
        </Placemark>
        <Placemark id="671">
            <name>Расформированная войсковая часть 48856 (ru)</name>
            <description/>
            <Point id="670">
                <coordinates>65.7246377,57.0957036,0.0</coordinates>
            </Point>
        </Placemark>
        <Placemark id="673">
            <name>Заброшенный плодопитомник (ru)</name>
            <description/>
            <Point id="672">
                <coordinates>65.3724556,57.2073511,0.0</coordinates>
            </Point>
        </Placemark>
        <Placemark id="675">
            <name>Заброшенная стройка свинокомплекса (ru)</name>
            <description/>
            <Point id="674">
                <coordinates>65.3275608,57.0875097,0.0</coordinates>
            </Point>
        </Placemark>
        <Placemark id="677">
            <name>Заброшенные бывшие оптовые базы (ru)</name>
            <description/>
            <Point id="676">
                <coordinates>65.5656068,57.1483847,0.0</coordinates>
            </Point>
        </Placemark>
        <Placemark id="679">
            <name>Заброшенная база обслуживания железнодорожного полотна (ru)</name>
            <description/>
            <Point id="678">
                <coordinates>65.5183571,57.1450308,0.0</coordinates>
            </Point>
        </Placemark>
        <Placemark id="681">
            <name>Заброшенные фермы (ru)</name>
            <description/>
            <Point id="680">
                <coordinates>65.4631411,57.0827203,0.0</coordinates>
            </Point>
        </Placemark>
        <Placemark id="683">
            <name>Заброшенный стадион «Патриот» (ru)</name>
            <description/>
            <Point id="682">
                <coordinates>65.5998345,57.1481315,0.0</coordinates>
            </Point>
        </Placemark>
        <Placemark id="685">
            <name>Заброшенная территория с ангаром (ru)</name>
            <description/>
            <Point id="684">
                <coordinates>65.4889668,57.1332393,0.0</coordinates>
            </Point>
        </Placemark>
        <Placemark id="687">
            <name>Заброшенная автозаправочная станция (ru)</name>
            <description/>
            <Point id="686">
                <coordinates>65.683329,57.1480326,0.0</coordinates>
            </Point>
        </Placemark>
        <Placemark id="689">
            <name>Старая свалка утилизации отходов ТЭЦ-1 (ru)</name>
            <description/>
            <Point id="688">
                <coordinates>65.6138383,57.1455414,0.0</coordinates>
            </Point>
        </Placemark>
        <Placemark id="691">
            <name>Площадка под строительство храма святых Царственных страстотерпцев (ru)</name>
            <description/>
            <Point id="690">
                <coordinates>65.6861963,57.1742457,0.0</coordinates>
            </Point>
        </Placemark>
        <Placemark id="693">
            <name>Игровые площадки (ru)</name>
            <description/>
            <Point id="692">
                <coordinates>65.2587371,57.1420577,0.0</coordinates>
            </Point>
        </Placemark>
        <Placemark id="695">
            <name>Заброшенная база (ru)</name>
            <description/>
            <Point id="694">
                <coordinates>65.6437557,57.0843729,0.0</coordinates>
            </Point>
        </Placemark>
        <Placemark id="697">
            <name>Строящийся жилой дом для сотрудников полиции (ru)</name>
            <description/>
            <Point id="696">
                <coordinates>65.5775145,57.189199,0.0</coordinates>
            </Point>
        </Placemark>
        <Placemark id="699">
            <name>Заброшенные гаражи (ru)</name>
            <description/>
            <Point id="698">
                <coordinates>65.4813639,57.1517062,0.0</coordinates>
            </Point>
        </Placemark>
        <Placemark id="701">
            <name>Заброшенная строительная площадка (ru)</name>
            <description/>
            <Point id="700">
                <coordinates>65.5558067,57.1404612,0.0</coordinates>
            </Point>
        </Placemark>
        <Placemark id="703">
            <name>Неиспользуемая парковка (ru)</name>
            <description/>
            <Point id="702">
                <coordinates>65.5673328,57.1715331,0.0</coordinates>
            </Point>
        </Placemark>
        <Placemark id="705">
            <name>Заброшенный строевой плац (ru)</name>
            <description/>
            <Point id="704">
                <coordinates>65.7209042,57.0945498,0.0</coordinates>
            </Point>
        </Placemark>
        <Placemark id="707">
            <name>Заброшенный недостроенный автоцентр (ru)</name>
            <description/>
            <Point id="706">
                <coordinates>65.6006312,57.1709653,0.0</coordinates>
            </Point>
        </Placemark>
        <Placemark id="709">
            <name>Заброшенный склад элеватора (ru)</name>
            <description/>
            <Point id="708">
                <coordinates>65.6226011,57.1581472,0.0</coordinates>
            </Point>
        </Placemark>
        <Placemark id="711">
            <name>Заброшенный подземный паркинг (ru)</name>
            <description/>
            <Point id="710">
                <coordinates>65.5219673,57.1224467,0.0</coordinates>
            </Point>
        </Placemark>
        <Placemark id="713">
            <name>Заброшенная стройка многоэтажного гаражного комплекса (ru)</name>
            <description/>
            <Point id="712">
                <coordinates>65.4899658,57.1667161,0.0</coordinates>
            </Point>
        </Placemark>
        <Placemark id="715">
            <name>Заброшенное здание (ru)</name>
            <description/>
            <Point id="714">
                <coordinates>65.6376564,57.0859509,0.0</coordinates>
            </Point>
        </Placemark>
        <Placemark id="717">
            <name>Заброшенное здание (ru)</name>
            <description/>
            <Point id="716">
                <coordinates>65.6394556,57.0853419,0.0</coordinates>
            </Point>
        </Placemark>
        <Placemark id="719">
            <name>Пустующее торговое здание (ru)</name>
            <description/>
            <Point id="718">
                <coordinates>65.6019535,57.0909301,0.0</coordinates>
            </Point>
        </Placemark>
        <Placemark id="721">
            <name>Бывший передающий радиоцентр (ru)</name>
            <description/>
            <Point id="720">
                <coordinates>65.7571274,57.0910044,0.0</coordinates>
            </Point>
        </Placemark>
        <Placemark id="723">
            <name>Moskovsky trakt, 130б</name>
            <description/>
            <Point id="722">
                <coordinates>65.4888594,57.1332468,0.0</coordinates>
            </Point>
        </Placemark>
        <Placemark id="725">
            <name>Строительство 6-этажного паркинга (ru)</name>
            <description/>
            <Point id="724">
                <coordinates>65.6432137,57.1459082,0.0</coordinates>
            </Point>
        </Placemark>
        <Placemark id="727">
            <name>Бывшая конечная остановка «Аэропорт Плеханово» (ru)</name>
            <description/>
            <Point id="726">
                <coordinates>65.4798673,57.1506413,0.0</coordinates>
            </Point>
        </Placemark>
        <Placemark id="729">
            <name>Заброшенная стройплощадка многоэтажного паркинга (ru)</name>
            <description/>
            <Point id="728">
                <coordinates>65.5426043,57.1404075,0.0</coordinates>
            </Point>
        </Placemark>
        <Placemark id="731">
            <name>Заброшенная дача (ru)</name>
            <description/>
            <Point id="730">
                <coordinates>65.3617898,57.1735637,0.0</coordinates>
            </Point>
        </Placemark>
        <Placemark id="733">
            <name>Заброшенный лабораторный корпус Тюменского завода медоборудования (ru)</name>
            <description/>
            <Point id="732">
                <coordinates>65.6008427,57.1248584,0.0</coordinates>
            </Point>
        </Placemark>
        <Placemark id="735">
            <name>Бомбоубежище (ru)</name>
            <description/>
            <Point id="734">
                <coordinates>65.682928,57.1500157,0.0</coordinates>
            </Point>
        </Placemark>
        <Placemark id="737">
            <name>Заброшенная стройплощадка многоэтажного паркинга (ru)</name>
            <description/>
            <Point id="736">
                <coordinates>65.5445963,57.1395685,0.0</coordinates>
            </Point>
        </Placemark>
        <Placemark id="739">
            <name>Заброшенный ангар (ru)</name>
            <description/>
            <Point id="738">
                <coordinates>65.379663,57.1499915,0.0</coordinates>
            </Point>
        </Placemark>
        <Placemark id="741">
            <name>Заброшенный госпиталь (ru)</name>
            <description/>
            <Point id="740">
                <coordinates>65.7080808,57.0929456,0.0</coordinates>
            </Point>
        </Placemark>
        <Placemark id="743">
            <name>Заброшенные казармы (ru)</name>
            <description/>
            <Point id="742">
                <coordinates>65.7226778,57.0943314,0.0</coordinates>
            </Point>
        </Placemark>
        <Placemark id="745">
            <name>Заброшенное общественное здание (ru)</name>
            <description/>
            <Point id="744">
                <coordinates>65.5922198,57.1216699,0.0</coordinates>
            </Point>
        </Placemark>
        <Placemark id="747">
            <name>Заброшенное здание (ru)</name>
            <description/>
            <Point id="746">
                <coordinates>65.5889894,57.1778055,0.0</coordinates>
            </Point>
        </Placemark>
        <Placemark id="749">
            <name>ulitsa Lenina, 31</name>
            <description/>
            <Point id="748">
                <coordinates>65.5294279,57.1572734,0.0</coordinates>
            </Point>
        </Placemark>
        <Placemark id="751">
            <name>Заброшенный штаб войсковой части 48856 (ru)</name>
            <description/>
            <Point id="750">
                <coordinates>65.7212596,57.094063,0.0</coordinates>
            </Point>
        </Placemark>
        <Placemark id="753">
            <name>Заброшенная стройка (ru)</name>
            <description/>
            <Point id="752">
                <coordinates>65.6108571,57.1204082,0.0</coordinates>
            </Point>
        </Placemark>
        <Placemark id="755">
            <name>Заброшенный фундамент (ru)</name>
            <description/>
            <Point id="754">
                <coordinates>65.4770967,57.1449246,0.0</coordinates>
            </Point>
        </Placemark>
        <Placemark id="757">
            <name>Заброшенный фундамент (ru)</name>
            <description/>
            <Point id="756">
                <coordinates>65.4781467,57.1453945,0.0</coordinates>
            </Point>
        </Placemark>
        <Placemark id="759">
            <name>Приусадебный участок (ru)</name>
            <description/>
            <Point id="758">
                <coordinates>65.4928667,57.1295718,0.0</coordinates>
            </Point>
        </Placemark>
        <Placemark id="761">
            <name>Недостроенный культурно-спортивный центр (ru)</name>
            <description/>
            <Point id="760">
                <coordinates>65.5788083,57.1829467,0.0</coordinates>
            </Point>
        </Placemark>
        <Placemark id="763">
            <name>Недостроенное и заброшенное здание школы (ru)</name>
            <description/>
            <Point id="762">
                <coordinates>65.5281418,57.0873836,0.0</coordinates>
            </Point>
        </Placemark>
        <Placemark id="765">
            <name>Заброшенный машиностроительный завод (ru)</name>
            <description/>
            <Point id="764">
                <coordinates>65.5454164,57.1288413,0.0</coordinates>
            </Point>
        </Placemark>
        <Placemark id="767">
            <name>Студенческая ул. (ru), 12</name>
            <description/>
            <Point id="766">
                <coordinates>65.5760045,57.1857536,0.0</coordinates>
            </Point>
        </Placemark>
        <Placemark id="769">
            <name>Бывшие боксы военной кафедры при ТюмГНГУ (ru)</name>
            <description/>
            <Point id="768">
                <coordinates>65.5759429,57.1461446,0.0</coordinates>
            </Point>
        </Placemark>
        <Placemark id="771">
            <name>Заброшенный комбинат (ru)</name>
            <description/>
            <Point id="770">
                <coordinates>65.4804142,57.1685141,0.0</coordinates>
            </Point>
        </Placemark>
        <Placemark id="773">
            <name>Заброшенное здание (ru)</name>
            <description/>
            <Point id="772">
                <coordinates>65.7340093,57.1258434,0.0</coordinates>
            </Point>
        </Placemark>
        <Placemark id="775">
            <name>Заброшенная стройка (ru)</name>
            <description/>
            <Point id="774">
                <coordinates>65.4912453,57.1298113,0.0</coordinates>
            </Point>
        </Placemark>
        <Placemark id="777">
            <name>Заброшенный объект (ru)</name>
            <description/>
            <Point id="776">
                <coordinates>65.3685251,57.1720607,0.0</coordinates>
            </Point>
        </Placemark>
        <Placemark id="779">
            <name>Бывшая казарма в/ч 96544 (ru)</name>
            <description/>
            <Point id="778">
                <coordinates>65.7784562,57.0795251,0.0</coordinates>
            </Point>
        </Placemark>
        <Placemark id="781">
            <name>Недействующий автосалон (ru)</name>
            <description/>
            <Point id="780">
                <coordinates>65.5694384,57.1721002,0.0</coordinates>
            </Point>
        </Placemark>
        <Placemark id="783">
            <name>Заброшенный ангар (ru)</name>
            <description/>
            <Point id="782">
                <coordinates>65.6412666,57.0827699,0.0</coordinates>
            </Point>
        </Placemark>
        <Placemark id="785">
            <name>Заброшенная стройка (ru)</name>
            <description/>
            <Point id="784">
                <coordinates>65.4931375,57.1344853,0.0</coordinates>
            </Point>
        </Placemark>
        <Placemark id="787">
            <name>Студенческая ул. (ru), 10</name>
            <description/>
            <Point id="786">
                <coordinates>65.5757483,57.1856504,0.0</coordinates>
            </Point>
        </Placemark>
        <Placemark id="789">
            <name>Заброшенное здание (ru)</name>
            <description/>
            <Point id="788">
                <coordinates>65.6511249,57.0940731,0.0</coordinates>
            </Point>
        </Placemark>
        <Placemark id="791">
            <name>Гаражи (ru)</name>
            <description/>
            <Point id="790">
                <coordinates>65.6247885,57.1221016,0.0</coordinates>
            </Point>
        </Placemark>
        <Placemark id="793">
            <name>Каховская ул. (ru), 4</name>
            <description/>
            <Point id="792">
                <coordinates>65.5331293,57.1659439,0.0</coordinates>
            </Point>
        </Placemark>
        <Placemark id="795">
            <name>Заброшенный сквер (ru)</name>
            <description/>
            <Point id="794">
                <coordinates>65.618327,57.1572242,0.0</coordinates>
            </Point>
        </Placemark>
        <Placemark id="797">
            <name>Каховская ул. (ru), 8</name>
            <description/>
            <Point id="796">
                <coordinates>65.5336953,57.1658901,0.0</coordinates>
            </Point>
        </Placemark>
        <Placemark id="799">
            <name>Недостроенный десятиэтажный жилой дом (ru)</name>
            <description/>
            <Point id="798">
                <coordinates>65.5867482,57.1366055,0.0</coordinates>
            </Point>
        </Placemark>
        <Placemark id="801">
            <name>Заброшенная молочная кухня (ru)</name>
            <description/>
            <Point id="800">
                <coordinates>65.6405745,57.0999952,0.0</coordinates>
            </Point>
        </Placemark>
        <Placemark id="803">
            <name>Заброшенный ремонтный бок техники РЖД (ru)</name>
            <description/>
            <Point id="802">
                <coordinates>65.5260457,57.1453858,0.0</coordinates>
            </Point>
        </Placemark>
        <Placemark id="805">
            <name>Заброшенный детский сад № 69 «Снежинка» (ru)</name>
            <description/>
            <Point id="804">
                <coordinates>65.4844781,57.1580975,0.0</coordinates>
            </Point>
        </Placemark>
        <Placemark id="807">
            <name>Недостроенный центр лечебного массажа (ru)</name>
            <description/>
            <Point id="806">
                <coordinates>65.5618224,57.11436,0.0</coordinates>
            </Point>
        </Placemark>
        <Placemark id="809">
            <name>Заброшенное здание (ru)</name>
            <description/>
            <Point id="808">
                <coordinates>65.6425442,57.0826947,0.0</coordinates>
            </Point>
        </Placemark>
        <Placemark id="811">
            <name>Заброшенный пристрой (ru)</name>
            <description/>
            <Point id="810">
                <coordinates>65.557508,57.1564379,0.0</coordinates>
            </Point>
        </Placemark>
        <Placemark id="813">
            <name>Заброшенное здание (ru)</name>
            <description/>
            <Point id="812">
                <coordinates>65.6213378,57.0923493,0.0</coordinates>
            </Point>
        </Placemark>
        <Placemark id="815">
            <name>Заброшенное здание (ru)</name>
            <description/>
            <Point id="814">
                <coordinates>65.4634752,57.230748,0.0</coordinates>
            </Point>
        </Placemark>
        <Placemark id="817">
            <name>Бывшая АЗС «Газпромнефть» № 59 (ru)</name>
            <description/>
            <Point id="816">
                <coordinates>65.5915794,57.1558449,0.0</coordinates>
            </Point>
        </Placemark>
        <Placemark id="819">
            <name>Неиспользуемая бесплатная автостоянка (ru)</name>
            <description/>
            <Point id="818">
                <coordinates>65.6046598,57.1775307,0.0</coordinates>
            </Point>
        </Placemark>
        <Placemark id="821">
            <name>Руины электростанции ТЭЦ (ru)</name>
            <description/>
            <Point id="820">
                <coordinates>65.6102919,57.1488821,0.0</coordinates>
            </Point>
        </Placemark>
        <Placemark id="823">
            <name>Административное здание (ru)</name>
            <description/>
            <Point id="822">
                <coordinates>65.4576118,57.1989232,0.0</coordinates>
            </Point>
        </Placemark>
        <Placemark id="825">
            <name>Подземный переход (недействующий) (ru)</name>
            <description/>
            <Point id="824">
                <coordinates>65.6307027,57.1135369,0.0</coordinates>
            </Point>
        </Placemark>
        <Placemark id="827">
            <name>ул. Судостроителей (ru), 9</name>
            <description/>
            <Point id="826">
                <coordinates>65.6287649,57.1563503,0.0</coordinates>
            </Point>
        </Placemark>
        <Placemark id="829">
            <name>Заброшенная переливочная станция (ru)</name>
            <description/>
            <Point id="828">
                <coordinates>65.279222,57.0953234,0.0</coordinates>
            </Point>
        </Placemark>
        <Placemark id="831">
            <name>Заброшенный детский сад № 33 «Пчёлка» (ru)</name>
            <description/>
            <Point id="830">
                <coordinates>65.5205816,57.1683187,0.0</coordinates>
            </Point>
        </Placemark>
        <Placemark id="833">
            <name>Заброшенное бомбоубежище (ru)</name>
            <description/>
            <Point id="832">
                <coordinates>65.4721426,57.153986,0.0</coordinates>
            </Point>
        </Placemark>
        <Placemark id="835">
            <name>Здание бывшей молочной кухни (ru)</name>
            <description/>
            <Point id="834">
                <coordinates>65.4862376,57.1559078,0.0</coordinates>
            </Point>
        </Placemark>
        <Placemark id="837">
            <name>Заброшенное здание (ru)</name>
            <description/>
            <Point id="836">
                <coordinates>65.5316069,57.2148094,0.0</coordinates>
            </Point>
        </Placemark>
        <Placemark id="839">
            <name>Военная комендатура (ru)</name>
            <description/>
            <Point id="838">
                <coordinates>65.5225628,57.1613815,0.0</coordinates>
            </Point>
        </Placemark>
        <Placemark id="841">
            <name>Неиспользуемый съезд (ru)</name>
            <description/>
            <Point id="840">
                <coordinates>65.5643824,57.1319992,0.0</coordinates>
            </Point>
        </Placemark>
        <Placemark id="843">
            <name>Заброшеная стройка (ru)</name>
            <description/>
            <Point id="842">
                <coordinates>65.5031819,57.1420992,0.0</coordinates>
            </Point>
        </Placemark>
        <Placemark id="845">
            <name>Усадьба причта Знаменской церкви (ru)</name>
            <description/>
            <Point id="844">
                <coordinates>65.5341009,57.1604912,0.0</coordinates>
            </Point>
        </Placemark>
        <Placemark id="847">
            <name>Заброшенное здание (ru)</name>
            <description/>
            <Point id="846">
                <coordinates>65.6249949,57.0927173,0.0</coordinates>
            </Point>
        </Placemark>
        <Placemark id="849">
            <name>Долгострой (ru)</name>
            <description/>
            <Point id="848">
                <coordinates>65.5647834,57.1548182,0.0</coordinates>
            </Point>
        </Placemark>
        <Placemark id="851">
            <name>Здание бывшей гауптвахты (ru)</name>
            <description/>
            <Point id="850">
                <coordinates>65.5311348,57.1606541,0.0</coordinates>
            </Point>
        </Placemark>
        <Placemark id="853">
            <name>Амурская ул. (ru), 174</name>
            <description/>
            <Point id="852">
                <coordinates>65.4833463,57.1478998,0.0</coordinates>
            </Point>
        </Placemark>
        <Placemark id="855">
            <name>Заброшенное здание (ru)</name>
            <description/>
            <Point id="854">
                <coordinates>65.6025182,57.2104604,0.0</coordinates>
            </Point>
        </Placemark>
        <Placemark id="857">
            <name>Заброшенное здание (ru)</name>
            <description/>
            <Point id="856">
                <coordinates>65.775811,57.079465,0.0</coordinates>
            </Point>
        </Placemark>
        <Placemark id="859">
            <name>Заброшенное РММ (ru)</name>
            <description/>
            <Point id="858">
                <coordinates>65.643627,57.0845364,0.0</coordinates>
            </Point>
        </Placemark>
        <Placemark id="861">
            <name>Неиспользуемый съезд (ru)</name>
            <description/>
            <Point id="860">
                <coordinates>65.5621025,57.1328289,0.0</coordinates>
            </Point>
        </Placemark>
        <Placemark id="863">
            <name>Брошенный дом (ru)</name>
            <description/>
            <Point id="862">
                <coordinates>65.7757157,57.0823071,0.0</coordinates>
            </Point>
        </Placemark>
        <Placemark id="865">
            <name>Заброшенная вышка (ru)</name>
            <description/>
            <Point id="864">
                <coordinates>65.7938071,57.086945,0.0</coordinates>
            </Point>
        </Placemark>
        <Placemark id="867">
            <name>Заброшенный водозабор (ru)</name>
            <description/>
            <Point id="866">
                <coordinates>65.3289782,57.2202699,0.0</coordinates>
            </Point>
        </Placemark>
        <Placemark id="869">
            <name>АЗС «Стрела» (ru)</name>
            <description/>
            <Point id="868">
                <coordinates>65.5338569,57.1403111,0.0</coordinates>
            </Point>
        </Placemark>
        <Placemark id="871">
            <name>Заброшенный подземный переход (ru)</name>
            <description/>
            <Point id="870">
                <coordinates>65.5877029,57.1249976,0.0</coordinates>
            </Point>
        </Placemark>
        <Placemark id="873">
            <name>Разрушенный дом (ru)</name>
            <description/>
            <Point id="872">
                <coordinates>65.4291176,57.2058438,0.0</coordinates>
            </Point>
        </Placemark>
        <Placemark id="875">
            <name>Вход в подземное сооружение (ru)</name>
            <description/>
            <Point id="874">
                <coordinates>65.6691599,57.155079,0.0</coordinates>
            </Point>
        </Placemark>
        <Placemark id="877">
            <name>Заброшенная котельная (ru)</name>
            <description/>
            <Point id="876">
                <coordinates>65.4443214,57.1650527,0.0</coordinates>
            </Point>
        </Placemark>
        <Placemark id="879">
            <name>Заброшенная насосная станция (ru)</name>
            <description/>
            <Point id="878">
                <coordinates>65.6209207,57.1587254,0.0</coordinates>
            </Point>
        </Placemark>
        <Placemark id="881">
            <name>Станционная ул. (ru), 28а</name>
            <description/>
            <Point id="880">
                <coordinates>65.6477163,57.097279,0.0</coordinates>
            </Point>
        </Placemark>
        <Placemark id="883">
            <name>Старое здание (ru)</name>
            <description/>
            <Point id="882">
                <coordinates>65.5708285,57.1628893,0.0</coordinates>
            </Point>
        </Placemark>
        <Placemark id="885">
            <name>Заброшенный понтон ТВВИКУ (ru)</name>
            <description/>
            <Point id="884">
                <coordinates>65.4942623,57.155671,0.0</coordinates>
            </Point>
        </Placemark>
        <Placemark id="887">
            <name>Заброшенная водонапорная башня (ru)</name>
            <description/>
            <Point id="886">
                <coordinates>65.6418862,57.0823982,0.0</coordinates>
            </Point>
        </Placemark>
        <Placemark id="889">
            <name>Частный дом под снос (ru)</name>
            <description/>
            <Point id="888">
                <coordinates>65.5502026,57.1399831,0.0</coordinates>
            </Point>
        </Placemark>
        <Placemark id="891">
            <name>Заброшенный КПП (ru)</name>
            <description/>
            <Point id="890">
                <coordinates>65.708626,57.0928635,0.0</coordinates>
            </Point>
        </Placemark>
        <Placemark id="893">
            <name>Заброшенный магазин (ru)</name>
            <description/>
            <Point id="892">
                <coordinates>65.5619779,57.200645,0.0</coordinates>
            </Point>
        </Placemark>
        <Placemark id="895">
            <name>Заброшенное двухэтажное здание (ru)</name>
            <description/>
            <Point id="894">
                <coordinates>65.6440507,57.0847569,0.0</coordinates>
            </Point>
        </Placemark>
        <Placemark id="897">
            <name>Подстанция (ru)</name>
            <description/>
            <Point id="896">
                <coordinates>65.5770514,57.1566856,0.0</coordinates>
            </Point>
        </Placemark>
        <Placemark id="899">
            <name>Заброшенное КПП (возможно) (ru)</name>
            <description/>
            <Point id="898">
                <coordinates>65.6438066,57.1192819,0.0</coordinates>
            </Point>
        </Placemark>
        <Placemark id="901">
            <name>Рубка от судна (ru)</name>
            <description/>
            <Point id="900">
                <coordinates>65.6509752,57.1637964,0.0</coordinates>
            </Point>
        </Placemark>
        <Placemark id="903">
            <name>Сооружение (ru)</name>
            <description/>
            <Point id="902">
                <coordinates>65.5295754,57.1879258,0.0</coordinates>
            </Point>
        </Placemark>
        <Placemark id="905">
            <name>Недействующий фонтан (ru)</name>
            <description/>
            <Point id="904">
                <coordinates>65.5520402,57.156047,0.0</coordinates>
            </Point>
        </Placemark>
        <Placemark id="907">
            <name>3-я Элеваторная ул. (ru), 13</name>
            <description/>
            <Point id="906">
                <coordinates>65.6276646,57.1518847,0.0</coordinates>
            </Point>
        </Placemark>
        <Placemark id="909">
            <name>Заброшенная автобусная остановка «Автобаза УВД» (ru)</name>
            <description/>
            <Point id="908">
                <coordinates>65.7650256,57.1026318,0.0</coordinates>
            </Point>
        </Placemark>
        <Placemark id="911">
            <name>Заброшенная гаражная сторожка (ru)</name>
            <description/>
            <Point id="910">
                <coordinates>65.5861027,57.1555065,0.0</coordinates>
            </Point>
        </Placemark>
    </Document>
</kml>
