<?xml version="1.0" encoding="UTF-8"?>
<kml xmlns="http://www.opengis.net/kml/2.2" xmlns:gx="http://www.google.com/kml/ext/2.2">
    <Document id="1">
        <Placemark id="3">
            <name>Бомбоубежище завода УГМК (ru)</name>
            <description/>
            <Point id="2">
                <coordinates>65.6602406,57.1089301,0.0</coordinates>
            </Point>
        </Placemark>
        <Placemark id="5">
            <name>Бомбоубежище (ru)</name>
            <description/>
            <Point id="4">
                <coordinates>65.6700011,57.1553375,0.0</coordinates>
            </Point>
        </Placemark>
        <Placemark id="7">
            <name>Бомбоубежище (ru)</name>
            <description/>
            <Point id="6">
                <coordinates>65.5954384,57.120786,0.0</coordinates>
            </Point>
        </Placemark>
        <Placemark id="9">
            <name>Бомбоубежище (ru)</name>
            <description/>
            <Point id="8">
                <coordinates>65.5937271,57.1212214,0.0</coordinates>
            </Point>
        </Placemark>
        <Placemark id="11">
            <name>Бомбоубежище (ru)</name>
            <description/>
            <Point id="10">
                <coordinates>65.6360436,57.1663278,0.0</coordinates>
            </Point>
        </Placemark>
        <Placemark id="13">
            <name>Бомбоубежище (ru)</name>
            <description/>
            <Point id="12">
                <coordinates>65.6839406,57.1525502,0.0</coordinates>
            </Point>
        </Placemark>
        <Placemark id="15">
            <name>Бомбоубежище РЖД (ru)</name>
            <description/>
            <Point id="14">
                <coordinates>65.5197062,57.1483381,0.0</coordinates>
            </Point>
        </Placemark>
        <Placemark id="17">
            <name>Бомбоубежище (ru)</name>
            <description/>
            <Point id="16">
                <coordinates>65.682928,57.1500157,0.0</coordinates>
            </Point>
        </Placemark>
        <Placemark id="19">
            <name>Бомбоубежище (ru)</name>
            <description/>
            <Point id="18">
                <coordinates>65.6168008,57.2053014,0.0</coordinates>
            </Point>
        </Placemark>
        <Placemark id="21">
            <name>Бомбоубежище (ru)</name>
            <description/>
            <Point id="20">
                <coordinates>65.6087717,57.1201992,0.0</coordinates>
            </Point>
        </Placemark>
        <Placemark id="23">
            <name>Бомбоубежище (ru)</name>
            <description/>
            <Point id="22">
                <coordinates>65.6694764,57.1115805,0.0</coordinates>
            </Point>
        </Placemark>
        <Placemark id="25">
            <name>Бомбоубежище (ru)</name>
            <description/>
            <Point id="24">
                <coordinates>65.6106196,57.1922431,0.0</coordinates>
            </Point>
        </Placemark>
        <Placemark id="27">
            <name>Бомбоубежище (ru)</name>
            <description/>
            <Point id="26">
                <coordinates>65.6240012,57.1145687,0.0</coordinates>
            </Point>
        </Placemark>
        <Placemark id="29">
            <name>Бомбоубежище (ru)</name>
            <description/>
            <Point id="28">
                <coordinates>65.6046336,57.1212561,0.0</coordinates>
            </Point>
        </Placemark>
        <Placemark id="31">
            <name>Бомбоубежище (ru)</name>
            <description/>
            <Point id="30">
                <coordinates>65.6735886,57.1538587,0.0</coordinates>
            </Point>
        </Placemark>
        <Placemark id="33">
            <name>Убежище ГО (ru)</name>
            <description/>
            <Point id="32">
                <coordinates>65.6462662,57.0974725,0.0</coordinates>
            </Point>
        </Placemark>
        <Placemark id="35">
            <name>Бомбоубежище (ru)</name>
            <description/>
            <Point id="34">
                <coordinates>65.5767058,57.1234083,0.0</coordinates>
            </Point>
        </Placemark>
        <Placemark id="37">
            <name>Бомбоубежище (ru)</name>
            <description/>
            <Point id="36">
                <coordinates>65.6238284,57.1164764,0.0</coordinates>
            </Point>
        </Placemark>
        <Placemark id="39">
            <name>Бомбоубежище (ru)</name>
            <description/>
            <Point id="38">
                <coordinates>65.5903422,57.1223826,0.0</coordinates>
            </Point>
        </Placemark>
        <Placemark id="41">
            <name>Бомбоубежище (ru)</name>
            <description/>
            <Point id="40">
                <coordinates>65.4925153,57.1721308,0.0</coordinates>
            </Point>
        </Placemark>
        <Placemark id="43">
            <name>Убежище гражданской обороны (ru)</name>
            <description/>
            <Point id="42">
                <coordinates>65.5401069,57.1572169,0.0</coordinates>
            </Point>
        </Placemark>
        <Placemark id="45">
            <name>Бомбоубежище (ru)</name>
            <description/>
            <Point id="44">
                <coordinates>65.5588262,57.1508719,0.0</coordinates>
            </Point>
        </Placemark>
        <Placemark id="47">
            <name>Бомбоубежище (ru)</name>
            <description/>
            <Point id="46">
                <coordinates>65.4754846,57.1505991,0.0</coordinates>
            </Point>
        </Placemark>
        <Placemark id="49">
            <name>Убежище гражданской обороны (ru)</name>
            <description/>
            <Point id="48">
                <coordinates>65.6268042,57.1157724,0.0</coordinates>
            </Point>
        </Placemark>
        <Placemark id="51">
            <name>Бомбоубежище ПРУ-250 (ru)</name>
            <description/>
            <Point id="50">
                <coordinates>65.6042038,57.1263006,0.0</coordinates>
            </Point>
        </Placemark>
        <Placemark id="53">
            <name>Убежище гражданской обороны № 110/10030 (ru)</name>
            <description/>
            <Point id="52">
                <coordinates>65.6599924,57.0918547,0.0</coordinates>
            </Point>
        </Placemark>
        <Placemark id="55">
            <name>Бомбоубежище склада (ru)</name>
            <description/>
            <Point id="54">
                <coordinates>65.4436416,57.1528345,0.0</coordinates>
            </Point>
        </Placemark>
        <Placemark id="57">
            <name>Бомбоубежище (ru)</name>
            <description/>
            <Point id="56">
                <coordinates>65.5716761,57.1560049,0.0</coordinates>
            </Point>
        </Placemark>
        <Placemark id="59">
            <name>Бомбоубежище (ru)</name>
            <description/>
            <Point id="58">
                <coordinates>65.5856779,57.1559416,0.0</coordinates>
            </Point>
        </Placemark>
        <Placemark id="61">
            <name>Рижская ул. (ru), 73</name>
            <description/>
            <Point id="60">
                <coordinates>65.5904066,57.1301767,0.0</coordinates>
            </Point>
        </Placemark>
        <Placemark id="63">
            <name>Бомбоубежище (ru)</name>
            <description/>
            <Point id="62">
                <coordinates>65.6070081,57.1502951,0.0</coordinates>
            </Point>
        </Placemark>
        <Placemark id="65">
            <name>Бомбоубежище (ru)</name>
            <description/>
            <Point id="64">
                <coordinates>65.5850877,57.1304183,0.0</coordinates>
            </Point>
        </Placemark>
        <Placemark id="67">
            <name>Бомбоубежище (ru)</name>
            <description/>
            <Point id="66">
                <coordinates>65.651447,57.1103815,0.0</coordinates>
            </Point>
        </Placemark>
        <Placemark id="69">
            <name>Бомбоубежище (ru)</name>
            <description/>
            <Point id="68">
                <coordinates>65.595454,57.1328652,0.0</coordinates>
            </Point>
        </Placemark>
        <Placemark id="71">
            <name>Бомбоубежище (ru)</name>
            <description/>
            <Point id="70">
                <coordinates>65.56867,57.1446306,0.0</coordinates>
            </Point>
        </Placemark>
        <Placemark id="73">
            <name>Бомбоубежище (ru)</name>
            <description/>
            <Point id="72">
                <coordinates>65.5200898,57.1468824,0.0</coordinates>
            </Point>
        </Placemark>
        <Placemark id="75">
            <name>ЗСНБ (ru)</name>
            <description/>
            <Point id="74">
                <coordinates>65.6278583,57.177541,0.0</coordinates>
            </Point>
        </Placemark>
        <Placemark id="77">
            <name>Бомбоубежище (ru)</name>
            <description/>
            <Point id="76">
                <coordinates>65.5135854,57.149761,0.0</coordinates>
            </Point>
        </Placemark>
        <Placemark id="79">
            <name>ЗПУ ленинского района (ru)</name>
            <description/>
            <Point id="78">
                <coordinates>65.5982427,57.1405283,0.0</coordinates>
            </Point>
        </Placemark>
        <Placemark id="81">
            <name>Бомбоубежище (ru)</name>
            <description/>
            <Point id="80">
                <coordinates>65.5691809,57.1394819,0.0</coordinates>
            </Point>
        </Placemark>
        <Placemark id="83">
            <name>Заброшенное бомбоубежище (ru)</name>
            <description/>
            <Point id="82">
                <coordinates>65.4721426,57.153986,0.0</coordinates>
            </Point>
        </Placemark>
        <Placemark id="85">
            <name>Бомбоубежище (ru)</name>
            <description/>
            <Point id="84">
                <coordinates>65.4984819,57.1512611,0.0</coordinates>
            </Point>
        </Placemark>
        <Placemark id="87">
            <name>Бомбоубежище РЖД (ru)</name>
            <description/>
            <Point id="86">
                <coordinates>65.6125589,57.1120907,0.0</coordinates>
            </Point>
        </Placemark>
        <Placemark id="89">
            <name>Запасной пункт управления Заречного района (ru)</name>
            <description/>
            <Point id="88">
                <coordinates>65.5521549,57.1741412,0.0</coordinates>
            </Point>
        </Placemark>
        <Placemark id="91">
            <name>Бомбоубежище (ru)</name>
            <description/>
            <Point id="90">
                <coordinates>65.4713526,57.1563427,0.0</coordinates>
            </Point>
        </Placemark>
        <Placemark id="93">
            <name>Убежище гражданской обороны (ru)</name>
            <description/>
            <Point id="92">
                <coordinates>65.7452371,57.1141217,0.0</coordinates>
            </Point>
        </Placemark>
        <Placemark id="95">
            <name>Бомбоубежище (ru)</name>
            <description/>
            <Point id="94">
                <coordinates>65.5178403,57.1428969,0.0</coordinates>
            </Point>
        </Placemark>
        <Placemark id="97">
            <name>Бомбоубежище (ru)</name>
            <description/>
            <Point id="96">
                <coordinates>65.4714077,57.1542319,0.0</coordinates>
            </Point>
        </Placemark>
        <Placemark id="99">
            <name>Бомбоубежище № 87 Железнодорожной больницы (ru)</name>
            <description/>
            <Point id="98">
                <coordinates>65.4952793,57.1373206,0.0</coordinates>
            </Point>
        </Placemark>
        <Placemark id="101">
            <name>Бомбоубежище (ru)</name>
            <description/>
            <Point id="100">
                <coordinates>65.5675206,57.1510363,0.0</coordinates>
            </Point>
        </Placemark>
    </Document>
</kml>
