<?xml version="1.0" encoding="UTF-8"?>
<kml xmlns="http://www.opengis.net/kml/2.2" xmlns:gx="http://www.google.com/kml/ext/2.2">
    <Document id="417">
        <Placemark id="419">
            <name>Бывшая платная стоянка (ru)</name>
            <description/>
            <Point id="418">
                <coordinates>94.4187595,51.6978203,0.0</coordinates>
            </Point>
        </Placemark>
        <Placemark id="421">
            <name>Бай-Хаакская ул. (ru), 2</name>
            <description/>
            <Point id="420">
                <coordinates>94.4336699,51.7024385,0.0</coordinates>
            </Point>
        </Placemark>
        <Placemark id="423">
            <name>Бывший автовокзал Кызыла (ru)</name>
            <description/>
            <Point id="422">
                <coordinates>94.4081783,51.704667,0.0</coordinates>
            </Point>
        </Placemark>
        <Placemark id="425">
            <name>башня (ru)</name>
            <description/>
            <Point id="424">
                <coordinates>94.4275385,51.7056596,0.0</coordinates>
            </Point>
        </Placemark>
    </Document>
</kml>
