<?xml version="1.0" encoding="UTF-8"?>
<kml xmlns="http://www.opengis.net/kml/2.2" xmlns:gx="http://www.google.com/kml/ext/2.2">
    <Document id="1437">
        <Placemark id="1439">
            <name>Заброшенная база отдыха (ru)</name>
            <description/>
            <Point id="1438">
                <coordinates>83.6454521,53.0021271,0.0</coordinates>
            </Point>
        </Placemark>
        <Placemark id="1441">
            <name>Руины (ru)</name>
            <description/>
            <Point id="1440">
                <coordinates>83.5781961,52.9814227,0.0</coordinates>
            </Point>
        </Placemark>
        <Placemark id="1443">
            <name>Туалетная будка (ru)</name>
            <description/>
            <Point id="1442">
                <coordinates>83.6119576,53.0753283,0.0</coordinates>
            </Point>
        </Placemark>
    </Document>
</kml>
