<?xml version="1.0" encoding="UTF-8"?>
<kml xmlns="http://www.opengis.net/kml/2.2" xmlns:gx="http://www.google.com/kml/ext/2.2">
    <Document id="65">
        <Placemark id="67">
            <name>Бывшее озеро Крюково (ru)</name>
            <description/>
            <Point id="66">
                <coordinates>103.6069428,52.6836816,0.0</coordinates>
            </Point>
        </Placemark>
        <Placemark id="69">
            <name>Долгострой (ru)</name>
            <description/>
            <Point id="68">
                <coordinates>103.8458847,52.5205932,0.0</coordinates>
            </Point>
        </Placemark>
        <Placemark id="71">
            <name>Бывший склад обменного фонда баллонов (ru)</name>
            <description/>
            <Point id="70">
                <coordinates>103.8607146,52.5456293,0.0</coordinates>
            </Point>
        </Placemark>
        <Placemark id="73">
            <name>Свалка с фундаментами (ru)</name>
            <description/>
            <Point id="72">
                <coordinates>103.8652878,52.6018159,0.0</coordinates>
            </Point>
        </Placemark>
        <Placemark id="75">
            <name>Заброшенный хоккейный корт (ru)</name>
            <description/>
            <Point id="74">
                <coordinates>103.8727013,52.5406584,0.0</coordinates>
            </Point>
        </Placemark>
        <Placemark id="77">
            <name>Долгострой (административное здание) &quot;Краснуха&quot; (ru)</name>
            <description/>
            <Point id="76">
                <coordinates>103.8613108,52.5257298,0.0</coordinates>
            </Point>
        </Placemark>
        <Placemark id="79">
            <name>Полуразобранный цех (ru)</name>
            <description/>
            <Point id="78">
                <coordinates>103.8559182,52.4882943,0.0</coordinates>
            </Point>
        </Placemark>
        <Placemark id="81">
            <name>Заброшенный объект (ru)</name>
            <description/>
            <Point id="80">
                <coordinates>103.8639976,52.5215431,0.0</coordinates>
            </Point>
        </Placemark>
        <Placemark id="83">
            <name>Недостроенное здание (ru)</name>
            <description/>
            <Point id="82">
                <coordinates>103.8703062,52.5301462,0.0</coordinates>
            </Point>
        </Placemark>
        <Placemark id="85">
            <name>Заброшенный магазин (ru)</name>
            <description/>
            <Point id="84">
                <coordinates>103.8501776,52.4972265,0.0</coordinates>
            </Point>
        </Placemark>
        <Placemark id="87">
            <name>Руины кинотеатра &quot;Летний&quot; (ru)</name>
            <description/>
            <Point id="86">
                <coordinates>103.8720387,52.5415943,0.0</coordinates>
            </Point>
        </Placemark>
        <Placemark id="89">
            <name>Заброшенное здание (ru)</name>
            <description/>
            <Point id="88">
                <coordinates>103.8246076,52.5066644,0.0</coordinates>
            </Point>
        </Placemark>
        <Placemark id="91">
            <name>Заброшенный автодром (ru)</name>
            <description/>
            <Point id="90">
                <coordinates>103.8706579,52.5396657,0.0</coordinates>
            </Point>
        </Placemark>
        <Placemark id="93">
            <name>Заброшенное бомбоубежище (ru)</name>
            <description/>
            <Point id="92">
                <coordinates>103.8364487,52.5054043,0.0</coordinates>
            </Point>
        </Placemark>
        <Placemark id="95">
            <name>Замок (ru)</name>
            <description/>
            <Point id="94">
                <coordinates>103.8301837,52.510044,0.0</coordinates>
            </Point>
        </Placemark>
        <Placemark id="97">
            <name>Заброшенная хижина &quot;Древний Рыбак&quot; (ru)</name>
            <description/>
            <Point id="96">
                <coordinates>103.8172253,52.5271251,0.0</coordinates>
            </Point>
        </Placemark>
        <Placemark id="99">
            <name>Заброшенное здание (ru)</name>
            <description/>
            <Point id="98">
                <coordinates>103.8678338,52.5398182,0.0</coordinates>
            </Point>
        </Placemark>
        <Placemark id="101">
            <name>Заброшенное здание &quot;Пустышка&quot; (ru)</name>
            <description/>
            <Point id="100">
                <coordinates>103.8736078,52.5444953,0.0</coordinates>
            </Point>
        </Placemark>
        <Placemark id="103">
            <name>Заброшенная водонапорная башня (ru)</name>
            <description/>
            <Point id="102">
                <coordinates>103.8671091,52.5322608,0.0</coordinates>
            </Point>
        </Placemark>
    </Document>
</kml>
