<?xml version="1.0" encoding="UTF-8"?>
<kml xmlns="http://www.opengis.net/kml/2.2" xmlns:gx="http://www.google.com/kml/ext/2.2">
    <Document id="289">
        <Placemark id="291">
            <name>Заброшенное СНТ «Омь» (ru)</name>
            <description/>
            <Point id="290">
                <coordinates>73.8902127,54.993982,0.0</coordinates>
            </Point>
        </Placemark>
        <Placemark id="293">
            <name>Заброшенное СТ «Энергия 3» (ru)</name>
            <description/>
            <Point id="292">
                <coordinates>74.029709,55.0901927,0.0</coordinates>
            </Point>
        </Placemark>
        <Placemark id="295">
            <name>Заброшенное СТ «Роща» (ru)</name>
            <description/>
            <Point id="294">
                <coordinates>74.0321284,55.072396,0.0</coordinates>
            </Point>
        </Placemark>
        <Placemark id="297">
            <name>Заброшенное СНТ «Орион» (ru)</name>
            <description/>
            <Point id="296">
                <coordinates>73.8917791,55.0193685,0.0</coordinates>
            </Point>
        </Placemark>
        <Placemark id="299">
            <name>СНТ «Виола» (ru)</name>
            <description/>
            <Point id="298">
                <coordinates>73.8281034,55.0427531,0.0</coordinates>
            </Point>
        </Placemark>
        <Placemark id="301">
            <name>Заброшенное СТ «Энергия» 3а (ru)</name>
            <description/>
            <Point id="300">
                <coordinates>74.0521859,55.0898627,0.0</coordinates>
            </Point>
        </Placemark>
        <Placemark id="303">
            <name>Бывшее СНТ «Надежда-95» (ru)</name>
            <description/>
            <Point id="302">
                <coordinates>73.6217142,54.9872859,0.0</coordinates>
            </Point>
        </Placemark>
        <Placemark id="305">
            <name>Заброшенное СТ «Вишнёвый сад» (ru)</name>
            <description/>
            <Point id="304">
                <coordinates>74.0280567,55.0809957,0.0</coordinates>
            </Point>
        </Placemark>
        <Placemark id="307">
            <name>Заброшенное СТ «Лесная поляна» (ru)</name>
            <description/>
            <Point id="306">
                <coordinates>74.0253745,55.0777713,0.0</coordinates>
            </Point>
        </Placemark>
        <Placemark id="309">
            <name>Заброшенное тепличное хозяйство (ru)</name>
            <description/>
            <Point id="308">
                <coordinates>73.5979807,55.0300873,0.0</coordinates>
            </Point>
        </Placemark>
        <Placemark id="311">
            <name>Заросшие водохранилища (ru)</name>
            <description/>
            <Point id="310">
                <coordinates>73.6021541,54.9964734,0.0</coordinates>
            </Point>
        </Placemark>
        <Placemark id="313">
            <name>Недостроенный коттеджный поселок (ru)</name>
            <description/>
            <Point id="312">
                <coordinates>73.5833814,55.0843749,0.0</coordinates>
            </Point>
        </Placemark>
        <Placemark id="315">
            <name>1-й дивизион (стрельбовый канал) ЗРК С-200 (ru)</name>
            <description/>
            <Point id="314">
                <coordinates>73.6186421,55.1023045,0.0</coordinates>
            </Point>
        </Placemark>
        <Placemark id="317">
            <name>Заброшенная МТФ (ru)</name>
            <description/>
            <Point id="316">
                <coordinates>73.7681132,55.093338,0.0</coordinates>
            </Point>
        </Placemark>
        <Placemark id="319">
            <name>2-й дивизион (стрельбовый канал) ЗРК С-200 (ru)</name>
            <description/>
            <Point id="318">
                <coordinates>73.6181991,55.0990151,0.0</coordinates>
            </Point>
        </Placemark>
        <Placemark id="321">
            <name>Заброшенная ферма (ru)</name>
            <description/>
            <Point id="320">
                <coordinates>74.0359693,55.0296638,0.0</coordinates>
            </Point>
        </Placemark>
        <Placemark id="323">
            <name>Заброшенная ферма (ru)</name>
            <description/>
            <Point id="322">
                <coordinates>73.9699011,55.0970392,0.0</coordinates>
            </Point>
        </Placemark>
        <Placemark id="325">
            <name>Заброшенное кладбище (ru)</name>
            <description/>
            <Point id="324">
                <coordinates>74.0160632,55.0370292,0.0</coordinates>
            </Point>
        </Placemark>
        <Placemark id="327">
            <name>ДОСы (ru)</name>
            <description/>
            <Point id="326">
                <coordinates>73.708007,54.9906189,0.0</coordinates>
            </Point>
        </Placemark>
        <Placemark id="329">
            <name>Заброшенный производственный корпус (ru)</name>
            <description/>
            <Point id="328">
                <coordinates>73.6026464,54.999019,0.0</coordinates>
            </Point>
        </Placemark>
        <Placemark id="331">
            <name>Недостроенный цех (ru)</name>
            <description/>
            <Point id="330">
                <coordinates>73.6012388,55.0027943,0.0</coordinates>
            </Point>
        </Placemark>
        <Placemark id="333">
            <name>Стрельбище группы дивизионов С-200 (ru)</name>
            <description/>
            <Point id="332">
                <coordinates>73.616561,55.1065197,0.0</coordinates>
            </Point>
        </Placemark>
        <Placemark id="335">
            <name>Бывшая казарма (в/ч 28061) (ru)</name>
            <description/>
            <Point id="334">
                <coordinates>73.7044546,54.991267,0.0</coordinates>
            </Point>
        </Placemark>
        <Placemark id="337">
            <name>Недостроенная котельная (ru)</name>
            <description/>
            <Point id="336">
                <coordinates>73.8044486,54.991966,0.0</coordinates>
            </Point>
        </Placemark>
        <Placemark id="339">
            <name>Место пусковой установки № 1 (ru)</name>
            <description/>
            <Point id="338">
                <coordinates>73.6178675,55.1035486,0.0</coordinates>
            </Point>
        </Placemark>
        <Placemark id="341">
            <name>Место пусковой установки №4 (ru)</name>
            <description/>
            <Point id="340">
                <coordinates>73.6165071,55.1021209,0.0</coordinates>
            </Point>
        </Placemark>
        <Placemark id="343">
            <name>Место пусковой установки № 5 (ru)</name>
            <description/>
            <Point id="342">
                <coordinates>73.6175693,55.1014004,0.0</coordinates>
            </Point>
        </Placemark>
        <Placemark id="345">
            <name>Место пусковой установки № 6 (ru)</name>
            <description/>
            <Point id="344">
                <coordinates>73.6189296,55.1011977,0.0</coordinates>
            </Point>
        </Placemark>
        <Placemark id="347">
            <name>Место пусковой установки №1 (ru)</name>
            <description/>
            <Point id="346">
                <coordinates>73.6167043,55.0998079,0.0</coordinates>
            </Point>
        </Placemark>
        <Placemark id="349">
            <name>Место пусковой установки № 2 (ru)</name>
            <description/>
            <Point id="348">
                <coordinates>73.6193688,55.1033402,0.0</coordinates>
            </Point>
        </Placemark>
        <Placemark id="351">
            <name>Место пусковой установки № 3. (ru)</name>
            <description/>
            <Point id="350">
                <coordinates>73.6204053,55.1027026,0.0</coordinates>
            </Point>
        </Placemark>
        <Placemark id="353">
            <name>Место пусковой установки №6 (ru)</name>
            <description/>
            <Point id="352">
                <coordinates>73.6194945,55.0981292,0.0</coordinates>
            </Point>
        </Placemark>
        <Placemark id="355">
            <name>Место пусковой установки №3 (ru)</name>
            <description/>
            <Point id="354">
                <coordinates>73.6197166,55.0999575,0.0</coordinates>
            </Point>
        </Placemark>
        <Placemark id="357">
            <name>Место пусковой установки №4 (ru)</name>
            <description/>
            <Point id="356">
                <coordinates>73.6166178,55.0982165,0.0</coordinates>
            </Point>
        </Placemark>
        <Placemark id="359">
            <name>Заброшенный корпус (ru)</name>
            <description/>
            <Point id="358">
                <coordinates>73.5911094,54.9990996,0.0</coordinates>
            </Point>
        </Placemark>
        <Placemark id="361">
            <name>Заброшенный ангар (ru)</name>
            <description/>
            <Point id="360">
                <coordinates>73.6007942,55.0003216,0.0</coordinates>
            </Point>
        </Placemark>
        <Placemark id="363">
            <name>Сооружение 62 (ru)</name>
            <description/>
            <Point id="362">
                <coordinates>73.6144082,55.1059548,0.0</coordinates>
            </Point>
        </Placemark>
        <Placemark id="365">
            <name>Заброшенная насосная (ru)</name>
            <description/>
            <Point id="364">
                <coordinates>73.8886887,55.0484051,0.0</coordinates>
            </Point>
        </Placemark>
        <Placemark id="367">
            <name>Заброшенное здание (ru)</name>
            <description/>
            <Point id="366">
                <coordinates>73.5901047,54.9991552,0.0</coordinates>
            </Point>
        </Placemark>
        <Placemark id="369">
            <name>Заброшенное здание (ru)</name>
            <description/>
            <Point id="368">
                <coordinates>73.8795326,55.0475484,0.0</coordinates>
            </Point>
        </Placemark>
        <Placemark id="371">
            <name>Сооружение (ru)</name>
            <description/>
            <Point id="370">
                <coordinates>73.6184135,55.0990083,0.0</coordinates>
            </Point>
        </Placemark>
        <Placemark id="373">
            <name>Заброшенный бункер (ru)</name>
            <description/>
            <Point id="372">
                <coordinates>73.7060589,54.9878095,0.0</coordinates>
            </Point>
        </Placemark>
        <Placemark id="375">
            <name>Заброшенная трансформаторная подстанция (ru)</name>
            <description/>
            <Point id="374">
                <coordinates>73.5886009,55.0035391,0.0</coordinates>
            </Point>
        </Placemark>
        <Placemark id="377">
            <name>Заброшенная трансформаторная подстанция (ru)</name>
            <description/>
            <Point id="376">
                <coordinates>73.6029226,55.0001475,0.0</coordinates>
            </Point>
        </Placemark>
        <Placemark id="379">
            <name>Заброшенная трансформаторная подстанция (ru)</name>
            <description/>
            <Point id="378">
                <coordinates>73.5907283,55.0035089,0.0</coordinates>
            </Point>
        </Placemark>
        <Placemark id="381">
            <name>Заброшенная трансформаторная подстанция (ru)</name>
            <description/>
            <Point id="380">
                <coordinates>73.592867,55.0035418,0.0</coordinates>
            </Point>
        </Placemark>
        <Placemark id="383">
            <name>Дымовая труба (ru)</name>
            <description/>
            <Point id="382">
                <coordinates>73.8050083,54.9922559,0.0</coordinates>
            </Point>
        </Placemark>
        <Placemark id="385">
            <name>Заброшенная будка (ru)</name>
            <description/>
            <Point id="384">
                <coordinates>73.7236127,55.0389974,0.0</coordinates>
            </Point>
        </Placemark>
        <Placemark id="387">
            <name>Водонапорная башня (ru)</name>
            <description/>
            <Point id="386">
                <coordinates>73.8888916,55.048631,0.0</coordinates>
            </Point>
        </Placemark>
    </Document>
</kml>
