<?xml version="1.0" encoding="UTF-8"?>
<kml xmlns="http://www.opengis.net/kml/2.2" xmlns:gx="http://www.google.com/kml/ext/2.2">
    <Document id="121">
        <Placemark id="123">
            <name>Недействующая взлётно-посадочная полоса ВПП 07/25 (ru)</name>
            <description/>
            <Point id="122">
                <coordinates>113.6110813,56.1864134,0.0</coordinates>
            </Point>
        </Placemark>
        <Placemark id="125">
            <name>Заброшенная машина (ru)</name>
            <description/>
            <Point id="124">
                <coordinates>113.4663833,56.2191397,0.0</coordinates>
            </Point>
        </Placemark>
    </Document>
</kml>
