<?xml version="1.0" encoding="UTF-8"?>
<kml xmlns="http://www.opengis.net/kml/2.2" xmlns:gx="http://www.google.com/kml/ext/2.2">
    <Document id="337">
        <Placemark id="339">
            <name>Заброшенное бомбоубежище Администрации Города Комсомольска-на-Амуре (ru)</name>
            <description/>
            <Point id="338">
                <coordinates>137.0247982,50.5414787,0.0</coordinates>
            </Point>
        </Placemark>
        <Placemark id="341">
            <name>Убежище сернокислотного завода (ru)</name>
            <description/>
            <Point id="340">
                <coordinates>136.9817594,50.5856701,0.0</coordinates>
            </Point>
        </Placemark>
        <Placemark id="343">
            <name>Убежище ДОК-2 (ru)</name>
            <description/>
            <Point id="342">
                <coordinates>136.9886715,50.5847071,0.0</coordinates>
            </Point>
        </Placemark>
        <Placemark id="345">
            <name>Бомбоубежище (ru)</name>
            <description/>
            <Point id="344">
                <coordinates>137.0174529,50.5533055,0.0</coordinates>
            </Point>
        </Placemark>
        <Placemark id="347">
            <name>Бомбоубежище (ru)</name>
            <description/>
            <Point id="346">
                <coordinates>137.0096343,50.5519932,0.0</coordinates>
            </Point>
        </Placemark>
        <Placemark id="349">
            <name>Бомбоубежище (ru)</name>
            <description/>
            <Point id="348">
                <coordinates>136.9965631,50.5766279,0.0</coordinates>
            </Point>
        </Placemark>
    </Document>
</kml>
