<?xml version="1.0" encoding="UTF-8"?>
<kml xmlns="http://www.opengis.net/kml/2.2" xmlns:gx="http://www.google.com/kml/ext/2.2">
    <Document id="189">
        <Placemark id="191">
            <name>СНТ «Опалиха» (ru)</name>
            <description/>
            <Point id="190">
                <coordinates>83.3066868,54.8385273,0.0</coordinates>
            </Point>
        </Placemark>
        <Placemark id="193">
            <name>Брошенное СНТ (ru)</name>
            <description/>
            <Point id="192">
                <coordinates>83.2278836,54.8081733,0.0</coordinates>
            </Point>
        </Placemark>
        <Placemark id="195">
            <name>Заброшенный дом отдыха «Речкуновка» (ru)</name>
            <description/>
            <Point id="194">
                <coordinates>83.0974423,54.7908689,0.0</coordinates>
            </Point>
        </Placemark>
        <Placemark id="197">
            <name>Бывший пионерский лагерь им. Гагарина (ru)</name>
            <description/>
            <Point id="196">
                <coordinates>83.2114845,54.7700684,0.0</coordinates>
            </Point>
        </Placemark>
        <Placemark id="199">
            <name>брошенное СНТ (ru)</name>
            <description/>
            <Point id="198">
                <coordinates>83.2245039,54.8059411,0.0</coordinates>
            </Point>
        </Placemark>
        <Placemark id="201">
            <name>Заброшенный ДОЛ (ru)</name>
            <description/>
            <Point id="200">
                <coordinates>83.1113415,54.7861643,0.0</coordinates>
            </Point>
        </Placemark>
        <Placemark id="203">
            <name>Бывший пионерский лагерь им. Гастелло (ru)</name>
            <description/>
            <Point id="202">
                <coordinates>83.1179987,54.7829957,0.0</coordinates>
            </Point>
        </Placemark>
        <Placemark id="205">
            <name>Заброшенный ДОЛ «Факел» (ru)</name>
            <description/>
            <Point id="204">
                <coordinates>83.2097357,54.7733283,0.0</coordinates>
            </Point>
        </Placemark>
        <Placemark id="207">
            <name>Заброшенный ДОЛ (ru)</name>
            <description/>
            <Point id="206">
                <coordinates>83.2436387,54.7501988,0.0</coordinates>
            </Point>
        </Placemark>
        <Placemark id="209">
            <name>Заброшенные сады (ru)</name>
            <description/>
            <Point id="208">
                <coordinates>83.2506662,54.8533657,0.0</coordinates>
            </Point>
        </Placemark>
        <Placemark id="211">
            <name>Заброшенный склад ВВ (ru)</name>
            <description/>
            <Point id="210">
                <coordinates>83.34957,54.5752675,0.0</coordinates>
            </Point>
        </Placemark>
        <Placemark id="213">
            <name>Заброшенный карьер (ru)</name>
            <description/>
            <Point id="212">
                <coordinates>83.3361669,54.5827542,0.0</coordinates>
            </Point>
        </Placemark>
        <Placemark id="215">
            <name>Заброшенное стрельбище (ru)</name>
            <description/>
            <Point id="214">
                <coordinates>83.2600432,54.5563409,0.0</coordinates>
            </Point>
        </Placemark>
        <Placemark id="217">
            <name>Бобровый Лог (ru)</name>
            <description/>
            <Point id="216">
                <coordinates>83.2704931,54.7261628,0.0</coordinates>
            </Point>
        </Placemark>
        <Placemark id="219">
            <name>Заброшенный карьер (ru)</name>
            <description/>
            <Point id="218">
                <coordinates>83.3120633,54.7857383,0.0</coordinates>
            </Point>
        </Placemark>
        <Placemark id="221">
            <name>It is a fantastic place! The exploitation had been stopped in the beginning of 80-th</name>
            <description/>
            <Point id="220">
                <coordinates>83.3452891,54.6024804,0.0</coordinates>
            </Point>
        </Placemark>
        <Placemark id="223">
            <name>Руины детского лагеря труда и отдыха (ru)</name>
            <description/>
            <Point id="222">
                <coordinates>83.2685178,54.6956432,0.0</coordinates>
            </Point>
        </Placemark>
        <Placemark id="225">
            <name>Карьер (ru)</name>
            <description/>
            <Point id="224">
                <coordinates>83.0446511,54.7803286,0.0</coordinates>
            </Point>
        </Placemark>
        <Placemark id="227">
            <name>Старое здание кирзавода (ru)</name>
            <description/>
            <Point id="226">
                <coordinates>83.0986105,54.7141907,0.0</coordinates>
            </Point>
        </Placemark>
        <Placemark id="229">
            <name>&quot;Чернобыль&quot; (ru)</name>
            <description/>
            <Point id="228">
                <coordinates>83.0970105,54.8540405,0.0</coordinates>
            </Point>
        </Placemark>
        <Placemark id="231">
            <name>Заброшенное сооружение (ru)</name>
            <description/>
            <Point id="230">
                <coordinates>83.232175,54.8373058,0.0</coordinates>
            </Point>
        </Placemark>
        <Placemark id="233">
            <name>Недостроенный корпус завода (ru)</name>
            <description/>
            <Point id="232">
                <coordinates>83.3008462,54.6175684,0.0</coordinates>
            </Point>
        </Placemark>
        <Placemark id="235">
            <name>Бывший санаторий &quot;Речкуновский&quot; (ru)</name>
            <description/>
            <Point id="234">
                <coordinates>83.0981585,54.7927217,0.0</coordinates>
            </Point>
        </Placemark>
        <Placemark id="237">
            <name>Заброшенный цех химзавода (ru)</name>
            <description/>
            <Point id="236">
                <coordinates>83.1381274,54.7382947,0.0</coordinates>
            </Point>
        </Placemark>
        <Placemark id="239">
            <name>Заброшенная пескобаза старого завода ЖБИ (ru)</name>
            <description/>
            <Point id="238">
                <coordinates>83.0211656,54.8600364,0.0</coordinates>
            </Point>
        </Placemark>
        <Placemark id="241">
            <name>Недостроенная автостоянка с детским спортивным комплексом на кровле (ru)</name>
            <description/>
            <Point id="240">
                <coordinates>82.9769214,54.8537516,0.0</coordinates>
            </Point>
        </Placemark>
        <Placemark id="243">
            <name>Корпус с баром и кинозалом (ru)</name>
            <description/>
            <Point id="242">
                <coordinates>83.096216,54.7888766,0.0</coordinates>
            </Point>
        </Placemark>
        <Placemark id="245">
            <name>Бывшее водохранилище (ru)</name>
            <description/>
            <Point id="244">
                <coordinates>83.3222698,54.7041993,0.0</coordinates>
            </Point>
        </Placemark>
        <Placemark id="247">
            <name>столовая №3</name>
            <description/>
            <Point id="246">
                <coordinates>83.0506193,54.845839,0.0</coordinates>
            </Point>
        </Placemark>
        <Placemark id="249">
            <name>Заброшенное стрельбище в/ч (ru)</name>
            <description/>
            <Point id="248">
                <coordinates>83.0901078,54.7491503,0.0</coordinates>
            </Point>
        </Placemark>
        <Placemark id="251">
            <name>Старый мост (ru)</name>
            <description/>
            <Point id="250">
                <coordinates>83.0373983,54.8486638,0.0</coordinates>
            </Point>
        </Placemark>
        <Placemark id="253">
            <name>Частично сгоревший корпус санатория (ru)</name>
            <description/>
            <Point id="252">
                <coordinates>83.0958478,54.7895639,0.0</coordinates>
            </Point>
        </Placemark>
        <Placemark id="255">
            <name>Полуразрушенный ангар (ru)</name>
            <description/>
            <Point id="254">
                <coordinates>83.3179239,54.6341351,0.0</coordinates>
            </Point>
        </Placemark>
        <Placemark id="257">
            <name>Заброшенный склад (ru)</name>
            <description/>
            <Point id="256">
                <coordinates>83.3305742,54.5548768,0.0</coordinates>
            </Point>
        </Placemark>
        <Placemark id="259">
            <name>Заброшенная хоккейная коробка (ru)</name>
            <description/>
            <Point id="258">
                <coordinates>83.0503547,54.8498567,0.0</coordinates>
            </Point>
        </Placemark>
        <Placemark id="261">
            <name>Пустующее здание (ru)</name>
            <description/>
            <Point id="260">
                <coordinates>83.07967,54.8398645,0.0</coordinates>
            </Point>
        </Placemark>
        <Placemark id="263">
            <name>Бывший хирургический корпус (ru)</name>
            <description/>
            <Point id="262">
                <coordinates>83.3026012,54.6357629,0.0</coordinates>
            </Point>
        </Placemark>
        <Placemark id="265">
            <name>Недействующий фонтан (ru)</name>
            <description/>
            <Point id="264">
                <coordinates>83.1209485,54.7471659,0.0</coordinates>
            </Point>
        </Placemark>
        <Placemark id="267">
            <name>Заброшенный корпус (ru)</name>
            <description/>
            <Point id="266">
                <coordinates>83.3298829,54.5564514,0.0</coordinates>
            </Point>
        </Placemark>
        <Placemark id="269">
            <name>Заброшенный цех (ru)</name>
            <description/>
            <Point id="268">
                <coordinates>83.3161349,54.6346526,0.0</coordinates>
            </Point>
        </Placemark>
        <Placemark id="271">
            <name>Заброшенный кирпичный дом (ru)</name>
            <description/>
            <Point id="270">
                <coordinates>83.1102257,54.7854553,0.0</coordinates>
            </Point>
        </Placemark>
        <Placemark id="273">
            <name>Недостроенный жилой дом (ru)</name>
            <description/>
            <Point id="272">
                <coordinates>83.0941928,54.7857043,0.0</coordinates>
            </Point>
        </Placemark>
        <Placemark id="275">
            <name>Заброшенный участок (ru)</name>
            <description/>
            <Point id="274">
                <coordinates>83.2690527,54.83288,0.0</coordinates>
            </Point>
        </Placemark>
        <Placemark id="277">
            <name>Заброшенная платформа (ru)</name>
            <description/>
            <Point id="276">
                <coordinates>83.0610166,54.7561392,0.0</coordinates>
            </Point>
        </Placemark>
        <Placemark id="279">
            <name>Заброшенный участок (ru)</name>
            <description/>
            <Point id="278">
                <coordinates>83.2827248,54.8383535,0.0</coordinates>
            </Point>
        </Placemark>
        <Placemark id="281">
            <name>Заброшенный склад (ru)</name>
            <description/>
            <Point id="280">
                <coordinates>83.3183475,54.6346869,0.0</coordinates>
            </Point>
        </Placemark>
        <Placemark id="283">
            <name>Расселённый жилой дом (ru)</name>
            <description/>
            <Point id="282">
                <coordinates>83.3059308,54.6444781,0.0</coordinates>
            </Point>
        </Placemark>
        <Placemark id="285">
            <name>Остаток большого Шлюзовского пляжа (ru)</name>
            <description/>
            <Point id="284">
                <coordinates>83.0513499,54.843562,0.0</coordinates>
            </Point>
        </Placemark>
        <Placemark id="287">
            <name>Недостроенный коттедж (ru)</name>
            <description/>
            <Point id="286">
                <coordinates>83.1894659,54.7728275,0.0</coordinates>
            </Point>
        </Placemark>
        <Placemark id="289">
            <name>Заброшенное здание (ru)</name>
            <description/>
            <Point id="288">
                <coordinates>83.0987246,54.7134046,0.0</coordinates>
            </Point>
        </Placemark>
        <Placemark id="291">
            <name>Корпус детского летнего лагеря (ru)</name>
            <description/>
            <Point id="290">
                <coordinates>83.008521,54.7030439,0.0</coordinates>
            </Point>
        </Placemark>
        <Placemark id="293">
            <name>Бывшее управление теплосетями Советского района (ru)</name>
            <description/>
            <Point id="292">
                <coordinates>83.0994404,54.8610883,0.0</coordinates>
            </Point>
        </Placemark>
        <Placemark id="295">
            <name>Недостроенное летнее кафе (ru)</name>
            <description/>
            <Point id="294">
                <coordinates>82.976855,54.8508732,0.0</coordinates>
            </Point>
        </Placemark>
        <Placemark id="297">
            <name>Заброшенный центр управления полетами (ru)</name>
            <description/>
            <Point id="296">
                <coordinates>83.1026525,54.7276908,0.0</coordinates>
            </Point>
        </Placemark>
        <Placemark id="299">
            <name>Недостроенный ЦТП больницы (ru)</name>
            <description/>
            <Point id="298">
                <coordinates>83.2698387,54.6250612,0.0</coordinates>
            </Point>
        </Placemark>
        <Placemark id="301">
            <name>Заброшенный бар (ru)</name>
            <description/>
            <Point id="300">
                <coordinates>83.0956527,54.7708372,0.0</coordinates>
            </Point>
        </Placemark>
        <Placemark id="303">
            <name>Тепличный каркас (ru)</name>
            <description/>
            <Point id="302">
                <coordinates>83.1635225,54.7552032,0.0</coordinates>
            </Point>
        </Placemark>
        <Placemark id="305">
            <name>Охладительный бассейн (ru)</name>
            <description/>
            <Point id="304">
                <coordinates>83.1024957,54.8404607,0.0</coordinates>
            </Point>
        </Placemark>
        <Placemark id="307">
            <name>Недействующий старый храм Сретения Господня (ru)</name>
            <description/>
            <Point id="306">
                <coordinates>83.0850377,54.7623294,0.0</coordinates>
            </Point>
        </Placemark>
        <Placemark id="309">
            <name>Заброшенное здание возле кирзавода (ru)</name>
            <description/>
            <Point id="308">
                <coordinates>83.087875,54.7280137,0.0</coordinates>
            </Point>
        </Placemark>
        <Placemark id="311">
            <name>Заброшенная баржа (ru)</name>
            <description/>
            <Point id="310">
                <coordinates>83.067293,54.7762253,0.0</coordinates>
            </Point>
        </Placemark>
        <Placemark id="313">
            <name>Недостроенное здание (ru)</name>
            <description/>
            <Point id="312">
                <coordinates>83.0278766,54.8517583,0.0</coordinates>
            </Point>
        </Placemark>
        <Placemark id="315">
            <name>Заброшенное здание (ru)</name>
            <description/>
            <Point id="314">
                <coordinates>83.2998176,54.6432479,0.0</coordinates>
            </Point>
        </Placemark>
        <Placemark id="317">
            <name>Подземный бункер (ru)</name>
            <description/>
            <Point id="316">
                <coordinates>83.1208995,54.8403299,0.0</coordinates>
            </Point>
        </Placemark>
        <Placemark id="319">
            <name>Подземный бункер (ru)</name>
            <description/>
            <Point id="318">
                <coordinates>83.1212164,54.8405003,0.0</coordinates>
            </Point>
        </Placemark>
        <Placemark id="321">
            <name>Затонувший дебаркадер (ru)</name>
            <description/>
            <Point id="320">
                <coordinates>83.0472901,54.8364577,0.0</coordinates>
            </Point>
        </Placemark>
        <Placemark id="323">
            <name>Заброшенная школьная теплица (ru)</name>
            <description/>
            <Point id="322">
                <coordinates>83.0883898,54.8617019,0.0</coordinates>
            </Point>
        </Placemark>
        <Placemark id="325">
            <name>Заброшенное здание (ru)</name>
            <description/>
            <Point id="324">
                <coordinates>83.266876,54.6254602,0.0</coordinates>
            </Point>
        </Placemark>
        <Placemark id="327">
            <name>Заброшенные сараи (ru)</name>
            <description/>
            <Point id="326">
                <coordinates>83.3062604,54.6442323,0.0</coordinates>
            </Point>
        </Placemark>
        <Placemark id="329">
            <name>ул. Шевченко (ru), 57</name>
            <description/>
            <Point id="328">
                <coordinates>83.1002858,54.8046801,0.0</coordinates>
            </Point>
        </Placemark>
        <Placemark id="331">
            <name>Заброшенное здание (ru)</name>
            <description/>
            <Point id="330">
                <coordinates>83.3158518,54.634959,0.0</coordinates>
            </Point>
        </Placemark>
        <Placemark id="333">
            <name>Заброшенный дом (ru)</name>
            <description/>
            <Point id="332">
                <coordinates>83.2160093,54.8068547,0.0</coordinates>
            </Point>
        </Placemark>
        <Placemark id="335">
            <name>Заброшенный частный дом (ru)</name>
            <description/>
            <Point id="334">
                <coordinates>83.0699037,54.7574298,0.0</coordinates>
            </Point>
        </Placemark>
        <Placemark id="337">
            <name>Заброшенный дом (ru)</name>
            <description/>
            <Point id="336">
                <coordinates>83.2215615,54.8045661,0.0</coordinates>
            </Point>
        </Placemark>
        <Placemark id="339">
            <name>Бывшее КПП Химзавода (ru)</name>
            <description/>
            <Point id="338">
                <coordinates>83.1308776,54.7399985,0.0</coordinates>
            </Point>
        </Placemark>
        <Placemark id="341">
            <name>Бассейн (ru)</name>
            <description/>
            <Point id="340">
                <coordinates>83.1012697,54.8261281,0.0</coordinates>
            </Point>
        </Placemark>
        <Placemark id="343">
            <name>Заброшенный дом (ru)</name>
            <description/>
            <Point id="342">
                <coordinates>83.2725901,54.8476733,0.0</coordinates>
            </Point>
        </Placemark>
        <Placemark id="345">
            <name>Недействующий переездной пост (ru)</name>
            <description/>
            <Point id="344">
                <coordinates>83.0366447,54.8448593,0.0</coordinates>
            </Point>
        </Placemark>
        <Placemark id="347">
            <name>Старая лыжная база (ru)</name>
            <description/>
            <Point id="346">
                <coordinates>83.0902379,54.845474,0.0</coordinates>
            </Point>
        </Placemark>
        <Placemark id="349">
            <name>Лодочная заправочная станция (ru)</name>
            <description/>
            <Point id="348">
                <coordinates>83.1548416,54.7627438,0.0</coordinates>
            </Point>
        </Placemark>
        <Placemark id="351">
            <name>Заброшенный дачный домик (ru)</name>
            <description/>
            <Point id="350">
                <coordinates>83.305686,54.8289217,0.0</coordinates>
            </Point>
        </Placemark>
        <Placemark id="353">
            <name>Руины дачного домика (ru)</name>
            <description/>
            <Point id="352">
                <coordinates>83.2826114,54.8373257,0.0</coordinates>
            </Point>
        </Placemark>
        <Placemark id="355">
            <name>Заброшенное здание (ru)</name>
            <description/>
            <Point id="354">
                <coordinates>83.2709779,54.6248275,0.0</coordinates>
            </Point>
        </Placemark>
        <Placemark id="357">
            <name>Заброшенный дачный дом (ru)</name>
            <description/>
            <Point id="356">
                <coordinates>83.2979735,54.8298433,0.0</coordinates>
            </Point>
        </Placemark>
        <Placemark id="359">
            <name>Недостроенный дачный домик (ru)</name>
            <description/>
            <Point id="358">
                <coordinates>83.2776476,54.8399445,0.0</coordinates>
            </Point>
        </Placemark>
        <Placemark id="361">
            <name>Недостроенный дачный дом (ru)</name>
            <description/>
            <Point id="360">
                <coordinates>83.273323,54.8408437,0.0</coordinates>
            </Point>
        </Placemark>
        <Placemark id="363">
            <name>Недостроенный дачный домик (ru)</name>
            <description/>
            <Point id="362">
                <coordinates>83.2777566,54.8407044,0.0</coordinates>
            </Point>
        </Placemark>
        <Placemark id="365">
            <name>Заброшенный дачный домик (ru)</name>
            <description/>
            <Point id="364">
                <coordinates>83.114044,54.7252926,0.0</coordinates>
            </Point>
        </Placemark>
        <Placemark id="367">
            <name>Заброшенный дачный домик (ru)</name>
            <description/>
            <Point id="366">
                <coordinates>83.1172268,54.7170947,0.0</coordinates>
            </Point>
        </Placemark>
        <Placemark id="369">
            <name>Заброшенный дачный домик (ru)</name>
            <description/>
            <Point id="368">
                <coordinates>83.1514189,54.8198665,0.0</coordinates>
            </Point>
        </Placemark>
        <Placemark id="371">
            <name>Недостроенный дачный домик (ru)</name>
            <description/>
            <Point id="370">
                <coordinates>83.1126167,54.7288116,0.0</coordinates>
            </Point>
        </Placemark>
        <Placemark id="373">
            <name>Заброшенный дачный домик (ru)</name>
            <description/>
            <Point id="372">
                <coordinates>83.3187489,54.8298619,0.0</coordinates>
            </Point>
        </Placemark>
        <Placemark id="375">
            <name>Заброшенный дачный домик (ru)</name>
            <description/>
            <Point id="374">
                <coordinates>83.3052759,54.8287868,0.0</coordinates>
            </Point>
        </Placemark>
        <Placemark id="377">
            <name>Заброшенный дачный домик (ru)</name>
            <description/>
            <Point id="376">
                <coordinates>83.3113419,54.8273208,0.0</coordinates>
            </Point>
        </Placemark>
        <Placemark id="379">
            <name>Заброшенный дачный домик (ru)</name>
            <description/>
            <Point id="378">
                <coordinates>83.3185918,54.8315589,0.0</coordinates>
            </Point>
        </Placemark>
        <Placemark id="381">
            <name>Заброшенное здание (ru)</name>
            <description/>
            <Point id="380">
                <coordinates>83.1841222,54.7343168,0.0</coordinates>
            </Point>
        </Placemark>
        <Placemark id="383">
            <name>Water tower</name>
            <description/>
            <Point id="382">
                <coordinates>83.0584109,54.735032,0.0</coordinates>
            </Point>
        </Placemark>
        <Placemark id="385">
            <name>Water tower</name>
            <description/>
            <Point id="384">
                <coordinates>83.0925634,54.7478136,0.0</coordinates>
            </Point>
        </Placemark>
        <Placemark id="387">
            <name>Заброшенный дачный домик (ru)</name>
            <description/>
            <Point id="386">
                <coordinates>83.3185638,54.8332831,0.0</coordinates>
            </Point>
        </Placemark>
        <Placemark id="389">
            <name>Заброшенный дачный домик (ru)</name>
            <description/>
            <Point id="388">
                <coordinates>83.2804602,54.8392959,0.0</coordinates>
            </Point>
        </Placemark>
        <Placemark id="391">
            <name>Заброшенная будка (ru)</name>
            <description/>
            <Point id="390">
                <coordinates>83.112159,54.8611805,0.0</coordinates>
            </Point>
        </Placemark>
        <Placemark id="393">
            <name>Заброшенный подъёмный кран (ru)</name>
            <description/>
            <Point id="392">
                <coordinates>83.1044902,54.8581465,0.0</coordinates>
            </Point>
        </Placemark>
        <Placemark id="395">
            <name>Старый КПП (ru)</name>
            <description/>
            <Point id="394">
                <coordinates>83.1153303,54.8382374,0.0</coordinates>
            </Point>
        </Placemark>
        <Placemark id="397">
            <name>Заброшенный сарай (ru)</name>
            <description/>
            <Point id="396">
                <coordinates>83.3091198,54.6434232,0.0</coordinates>
            </Point>
        </Placemark>
        <Placemark id="399">
            <name>Заброшенный кран МКТ-40 (ru)</name>
            <description/>
            <Point id="398">
                <coordinates>83.1150777,54.8605516,0.0</coordinates>
            </Point>
        </Placemark>
        <Placemark id="401">
            <name>Заброшенный киоск (ru)</name>
            <description/>
            <Point id="400">
                <coordinates>83.0903003,54.7105356,0.0</coordinates>
            </Point>
        </Placemark>
        <Placemark id="403">
            <name>Заброшенный дачный домик (ru)</name>
            <description/>
            <Point id="402">
                <coordinates>83.3441869,54.5451187,0.0</coordinates>
            </Point>
        </Placemark>
        <Placemark id="405">
            <name>Заброшенная прожекторная вышка (ru)</name>
            <description/>
            <Point id="404">
                <coordinates>83.0956854,54.8602023,0.0</coordinates>
            </Point>
        </Placemark>
        <Placemark id="407">
            <name>Заброшенная вышка освещения (ru)</name>
            <description/>
            <Point id="406">
                <coordinates>83.0628626,54.8487592,0.0</coordinates>
            </Point>
        </Placemark>
        <Placemark id="409">
            <name>Заброшенная вышка освещения (ru)</name>
            <description/>
            <Point id="408">
                <coordinates>83.1093875,54.8573376,0.0</coordinates>
            </Point>
        </Placemark>
        <Placemark id="411">
            <name>Заброшенная прожекторная вышка (ru)</name>
            <description/>
            <Point id="410">
                <coordinates>83.1149873,54.8453721,0.0</coordinates>
            </Point>
        </Placemark>
        <Placemark id="413">
            <name>Заброшенная вышка освещения (ru)</name>
            <description/>
            <Point id="412">
                <coordinates>83.3179223,54.6345504,0.0</coordinates>
            </Point>
        </Placemark>
    </Document>
</kml>
