<?xml version="1.0" encoding="UTF-8"?>
<kml xmlns="http://www.opengis.net/kml/2.2" xmlns:gx="http://www.google.com/kml/ext/2.2">
    <Document id="69">
        <Placemark id="71">
            <name>Клоповский рудник бурого железняка (ru)</name>
            <description/>
            <Point id="70">
                <coordinates>60.4932545,56.9128424,0.0</coordinates>
            </Point>
        </Placemark>
        <Placemark id="73">
            <name>Разрезы (ru)</name>
            <description/>
            <Point id="72">
                <coordinates>60.6349182,56.924334,0.0</coordinates>
            </Point>
        </Placemark>
        <Placemark id="75">
            <name>Недействующий (заброшенный) Екатеринбургский электровозоремонтный завод (ru)</name>
            <description/>
            <Point id="74">
                <coordinates>60.6571309,56.8847153,0.0</coordinates>
            </Point>
        </Placemark>
        <Placemark id="77">
            <name>Гаражный комплекс (ru)</name>
            <description/>
            <Point id="76">
                <coordinates>60.572007,56.9153705,0.0</coordinates>
            </Point>
        </Placemark>
        <Placemark id="79">
            <name>Заброшенная территория Шувакишского кирпичного завода (ru)</name>
            <description/>
            <Point id="78">
                <coordinates>60.5735734,56.9182576,0.0</coordinates>
            </Point>
        </Placemark>
        <Placemark id="81">
            <name>Недостроенные коттеджи (ru)</name>
            <description/>
            <Point id="80">
                <coordinates>60.6625018,56.7619874,0.0</coordinates>
            </Point>
        </Placemark>
        <Placemark id="83">
            <name>Заброшенные сады (ru)</name>
            <description/>
            <Point id="82">
                <coordinates>60.4904409,56.7965734,0.0</coordinates>
            </Point>
        </Placemark>
        <Placemark id="85">
            <name>Заброшенная территория (ru)</name>
            <description/>
            <Point id="84">
                <coordinates>60.5258273,56.8621909,0.0</coordinates>
            </Point>
        </Placemark>
        <Placemark id="87">
            <name>Заброшенное подземное сооружение (ru)</name>
            <description/>
            <Point id="86">
                <coordinates>60.6968611,56.8302873,0.0</coordinates>
            </Point>
        </Placemark>
        <Placemark id="89">
            <name>Бывшее МУП «Хлебозавод № 6 „Всеслав“» (ru)</name>
            <description/>
            <Point id="88">
                <coordinates>60.6079351,56.790124,0.0</coordinates>
            </Point>
        </Placemark>
        <Placemark id="91">
            <name>Неиспользуемый стадион (ru)</name>
            <description/>
            <Point id="90">
                <coordinates>60.6666246,56.7711132,0.0</coordinates>
            </Point>
        </Placemark>
        <Placemark id="93">
            <name>Серпентинитовое месторождение (ru)</name>
            <description/>
            <Point id="92">
                <coordinates>60.6746363,56.9131257,0.0</coordinates>
            </Point>
        </Placemark>
        <Placemark id="95">
            <name>Неиспользуемый плац (ru)</name>
            <description/>
            <Point id="94">
                <coordinates>60.6648922,56.7708382,0.0</coordinates>
            </Point>
        </Placemark>
        <Placemark id="97">
            <name>Огороженный пустырь (ru)</name>
            <description/>
            <Point id="96">
                <coordinates>60.6068032,56.8190629,0.0</coordinates>
            </Point>
        </Placemark>
        <Placemark id="99">
            <name>Недостроенная водно-спасательная станция (ru)</name>
            <description/>
            <Point id="98">
                <coordinates>60.5171155,56.8600854,0.0</coordinates>
            </Point>
        </Placemark>
        <Placemark id="101">
            <name>Склад моделей (ru)</name>
            <description/>
            <Point id="100">
                <coordinates>60.6086379,56.881281,0.0</coordinates>
            </Point>
        </Placemark>
        <Placemark id="103">
            <name>Заброшенный (недействующий) литейный цех (ru)</name>
            <description/>
            <Point id="102">
                <coordinates>60.6315924,56.8763803,0.0</coordinates>
            </Point>
        </Placemark>
        <Placemark id="105">
            <name>Бывший сутуночный цех бывшего Верх-Исетского завода (ru)</name>
            <description/>
            <Point id="104">
                <coordinates>60.5576859,56.840829,0.0</coordinates>
            </Point>
        </Placemark>
        <Placemark id="107">
            <name>Бывший городок боевой работы (ru)</name>
            <description/>
            <Point id="106">
                <coordinates>60.66446,56.7678147,0.0</coordinates>
            </Point>
        </Placemark>
        <Placemark id="109">
            <name>Заброшенное бомбоубежище (ru)</name>
            <description/>
            <Point id="108">
                <coordinates>60.5788116,56.7763217,0.0</coordinates>
            </Point>
        </Placemark>
        <Placemark id="111">
            <name>Заброшенный стадион (ru)</name>
            <description/>
            <Point id="110">
                <coordinates>60.6537661,56.7806412,0.0</coordinates>
            </Point>
        </Placemark>
        <Placemark id="113">
            <name>Заброшенное здание (ru)</name>
            <description/>
            <Point id="112">
                <coordinates>60.5799897,56.7765764,0.0</coordinates>
            </Point>
        </Placemark>
        <Placemark id="115">
            <name>Железобетонный резервуар (ru)</name>
            <description/>
            <Point id="114">
                <coordinates>60.5957941,56.7919051,0.0</coordinates>
            </Point>
        </Placemark>
        <Placemark id="117">
            <name>Заброшенная АГНКС (ru)</name>
            <description/>
            <Point id="116">
                <coordinates>60.6604608,56.8915262,0.0</coordinates>
            </Point>
        </Placemark>
        <Placemark id="119">
            <name>Заброшенный конвейерный цех № 41-1 (ru)</name>
            <description/>
            <Point id="118">
                <coordinates>60.6018619,56.8822077,0.0</coordinates>
            </Point>
        </Placemark>
        <Placemark id="121">
            <name>Заброшенный цех № 28 (ru)</name>
            <description/>
            <Point id="120">
                <coordinates>60.6496193,56.8776287,0.0</coordinates>
            </Point>
        </Placemark>
        <Placemark id="123">
            <name>Заброшенное строение (ru)</name>
            <description/>
            <Point id="122">
                <coordinates>60.663921,56.8889328,0.0</coordinates>
            </Point>
        </Placemark>
        <Placemark id="125">
            <name>Заброшенный цех № 41-2 (ru)</name>
            <description/>
            <Point id="124">
                <coordinates>60.6028441,56.8819419,0.0</coordinates>
            </Point>
        </Placemark>
        <Placemark id="127">
            <name>Заброшенная стройплощадка (ru)</name>
            <description/>
            <Point id="126">
                <coordinates>60.5673908,56.7756421,0.0</coordinates>
            </Point>
        </Placemark>
        <Placemark id="129">
            <name>Долгострой (ru)</name>
            <description/>
            <Point id="128">
                <coordinates>60.6018612,56.8350571,0.0</coordinates>
            </Point>
        </Placemark>
        <Placemark id="131">
            <name>Заброшенный цех (ru)</name>
            <description/>
            <Point id="130">
                <coordinates>60.6589091,56.8836418,0.0</coordinates>
            </Point>
        </Placemark>
        <Placemark id="133">
            <name>Территория бывшего питомника хаски (ru)</name>
            <description/>
            <Point id="132">
                <coordinates>60.5558492,56.779352,0.0</coordinates>
            </Point>
        </Placemark>
        <Placemark id="135">
            <name>Купоросный цех ООО «ВИЗ-Сталь» (ru)</name>
            <description/>
            <Point id="134">
                <coordinates>60.5477303,56.8450144,0.0</coordinates>
            </Point>
        </Placemark>
        <Placemark id="137">
            <name>Недействующее трамвайное кольцо «Южная» (ru)</name>
            <description/>
            <Point id="136">
                <coordinates>60.6125968,56.800499,0.0</coordinates>
            </Point>
        </Placemark>
        <Placemark id="139">
            <name>Заброшенное здание (ru)</name>
            <description/>
            <Point id="138">
                <coordinates>60.6507477,56.8878482,0.0</coordinates>
            </Point>
        </Placemark>
        <Placemark id="141">
            <name>Заброшенный цех (ru)</name>
            <description/>
            <Point id="140">
                <coordinates>60.5785458,56.8734052,0.0</coordinates>
            </Point>
        </Placemark>
        <Placemark id="143">
            <name>Огороженная территория долгостроя (ru)</name>
            <description/>
            <Point id="142">
                <coordinates>60.5995948,56.8569671,0.0</coordinates>
            </Point>
        </Placemark>
        <Placemark id="145">
            <name>Недействующая котельная (ru)</name>
            <description/>
            <Point id="144">
                <coordinates>60.6400357,56.8800557,0.0</coordinates>
            </Point>
        </Placemark>
        <Placemark id="147">
            <name>Здание бывшего ДК им. Якова Свердлова (ru)</name>
            <description/>
            <Point id="146">
                <coordinates>60.5956777,56.8400451,0.0</coordinates>
            </Point>
        </Placemark>
        <Placemark id="149">
            <name>Старый дунитовый карьер (ru)</name>
            <description/>
            <Point id="148">
                <coordinates>60.6409477,56.7736727,0.0</coordinates>
            </Point>
        </Placemark>
        <Placemark id="151">
            <name>Заброшенный спортивный городок (ru)</name>
            <description/>
            <Point id="150">
                <coordinates>60.6642796,56.7717839,0.0</coordinates>
            </Point>
        </Placemark>
        <Placemark id="153">
            <name>Заброшенная учебная полоса препятствий (ru)</name>
            <description/>
            <Point id="152">
                <coordinates>60.6647096,56.7720742,0.0</coordinates>
            </Point>
        </Placemark>
        <Placemark id="155">
            <name>Асфальтированная площадка (ru)</name>
            <description/>
            <Point id="154">
                <coordinates>60.7047816,56.7640309,0.0</coordinates>
            </Point>
        </Placemark>
        <Placemark id="157">
            <name>Снесённая детская городская больница № 10 (Педагогическая ул., 23) (ru)</name>
            <description/>
            <Point id="156">
                <coordinates>60.6587523,56.8359813,0.0</coordinates>
            </Point>
        </Placemark>
        <Placemark id="159">
            <name>Заброшенная детская городская больница № 15 (ru)</name>
            <description/>
            <Point id="158">
                <coordinates>60.5895361,56.8925079,0.0</coordinates>
            </Point>
        </Placemark>
        <Placemark id="161">
            <name>Бывшая Тавдинская пристань Обь-Иртышского речного пароходства (ru)</name>
            <description/>
            <Point id="160">
                <coordinates>60.6871784,56.8490894,0.0</coordinates>
            </Point>
        </Placemark>
        <Placemark id="163">
            <name>Старинная каменоломня (ru)</name>
            <description/>
            <Point id="162">
                <coordinates>60.5255216,56.8079256,0.0</coordinates>
            </Point>
        </Placemark>
        <Placemark id="165">
            <name>Шарташский золотой прииск (ru)</name>
            <description/>
            <Point id="164">
                <coordinates>60.6874679,56.8612759,0.0</coordinates>
            </Point>
        </Placemark>
        <Placemark id="167">
            <name>Расселенное общежитие (ru)</name>
            <description/>
            <Point id="166">
                <coordinates>60.5896748,56.7738543,0.0</coordinates>
            </Point>
        </Placemark>
        <Placemark id="169">
            <name>Заброшенные боксы для техники и кафедра химии порохов и ВВ (ru)</name>
            <description/>
            <Point id="168">
                <coordinates>60.6656321,56.7679103,0.0</coordinates>
            </Point>
        </Placemark>
        <Placemark id="171">
            <name>Заброшенный теннисный корт (ru)</name>
            <description/>
            <Point id="170">
                <coordinates>60.6017118,56.8461918,0.0</coordinates>
            </Point>
        </Placemark>
        <Placemark id="173">
            <name>Заброшенное здание мясокомбината (ru)</name>
            <description/>
            <Point id="172">
                <coordinates>60.5154061,56.8237047,0.0</coordinates>
            </Point>
        </Placemark>
        <Placemark id="175">
            <name>Площадка размещения орудий (ru)</name>
            <description/>
            <Point id="174">
                <coordinates>60.6634331,56.7703189,0.0</coordinates>
            </Point>
        </Placemark>
        <Placemark id="177">
            <name>Здание АО «Союз-хлеб» — объект культурного наследия (ru)</name>
            <description/>
            <Point id="176">
                <coordinates>60.598255,56.8347586,0.0</coordinates>
            </Point>
        </Placemark>
        <Placemark id="179">
            <name>Заброшенное здание (ru)</name>
            <description/>
            <Point id="178">
                <coordinates>60.5832411,56.783096,0.0</coordinates>
            </Point>
        </Placemark>
        <Placemark id="181">
            <name>Здание (ru)</name>
            <description/>
            <Point id="180">
                <coordinates>60.5803657,56.781726,0.0</coordinates>
            </Point>
        </Placemark>
        <Placemark id="183">
            <name>Здание (ru)</name>
            <description/>
            <Point id="182">
                <coordinates>60.5807119,56.7813461,0.0</coordinates>
            </Point>
        </Placemark>
        <Placemark id="185">
            <name>Недостроенный бизнес-центр «Свердловск» (ru)</name>
            <description/>
            <Point id="184">
                <coordinates>60.5988397,56.8568579,0.0</coordinates>
            </Point>
        </Placemark>
        <Placemark id="187">
            <name>Заброшенное здание (ru)</name>
            <description/>
            <Point id="186">
                <coordinates>60.6422271,56.8343007,0.0</coordinates>
            </Point>
        </Placemark>
        <Placemark id="189">
            <name>Закрытый филиал ЕТХМ (ru)</name>
            <description/>
            <Point id="188">
                <coordinates>60.7036899,56.752433,0.0</coordinates>
            </Point>
        </Placemark>
        <Placemark id="191">
            <name>Заброшенная железнодорожная платформа (ru)</name>
            <description/>
            <Point id="190">
                <coordinates>60.574327,56.7766436,0.0</coordinates>
            </Point>
        </Placemark>
        <Placemark id="193">
            <name>ulitsa Ilyicha, 2</name>
            <description/>
            <Point id="192">
                <coordinates>60.5949736,56.8866792,0.0</coordinates>
            </Point>
        </Placemark>
        <Placemark id="195">
            <name>Заброшенная диетическая столовая (ru)</name>
            <description/>
            <Point id="194">
                <coordinates>60.5822342,56.8802155,0.0</coordinates>
            </Point>
        </Placemark>
        <Placemark id="197">
            <name>Заброшенное здание (ru)</name>
            <description/>
            <Point id="196">
                <coordinates>60.6358408,56.8809219,0.0</coordinates>
            </Point>
        </Placemark>
        <Placemark id="199">
            <name>Старый карьер (ru)</name>
            <description/>
            <Point id="198">
                <coordinates>60.7112752,56.8481138,0.0</coordinates>
            </Point>
        </Placemark>
        <Placemark id="201">
            <name>Склон бывшего трамплина (ru)</name>
            <description/>
            <Point id="200">
                <coordinates>60.6415002,56.7727424,0.0</coordinates>
            </Point>
        </Placemark>
        <Placemark id="203">
            <name>Заброшенный цех (ru)</name>
            <description/>
            <Point id="202">
                <coordinates>60.5725488,56.8698235,0.0</coordinates>
            </Point>
        </Placemark>
        <Placemark id="205">
            <name>Заброшенный цех № 48 (ru)</name>
            <description/>
            <Point id="204">
                <coordinates>60.6391882,56.8791632,0.0</coordinates>
            </Point>
        </Placemark>
        <Placemark id="207">
            <name>Заброшеное здание (ru)</name>
            <description/>
            <Point id="206">
                <coordinates>60.6102569,56.8736982,0.0</coordinates>
            </Point>
        </Placemark>
        <Placemark id="209">
            <name>Заброшенное здание столовой (ru)</name>
            <description/>
            <Point id="208">
                <coordinates>60.6312197,56.7802728,0.0</coordinates>
            </Point>
        </Placemark>
        <Placemark id="211">
            <name>Заброшенное бомбоубежище (ru)</name>
            <description/>
            <Point id="210">
                <coordinates>60.6987882,56.8404501,0.0</coordinates>
            </Point>
        </Placemark>
        <Placemark id="213">
            <name>Заброшенная детская площадка (ru)</name>
            <description/>
            <Point id="212">
                <coordinates>60.5472514,56.7691274,0.0</coordinates>
            </Point>
        </Placemark>
        <Placemark id="215">
            <name>Недействующий РСУ 37 (ru)</name>
            <description/>
            <Point id="214">
                <coordinates>60.6408957,56.8803538,0.0</coordinates>
            </Point>
        </Placemark>
        <Placemark id="217">
            <name>Котельная (ru)</name>
            <description/>
            <Point id="216">
                <coordinates>60.6593692,56.8488943,0.0</coordinates>
            </Point>
        </Placemark>
        <Placemark id="219">
            <name>Недействующая углеподача (ru)</name>
            <description/>
            <Point id="218">
                <coordinates>60.6409397,56.87994,0.0</coordinates>
            </Point>
        </Placemark>
        <Placemark id="221">
            <name>ulitsa Pekhotintsev, 4а корпус 1</name>
            <description/>
            <Point id="220">
                <coordinates>60.5475921,56.8714005,0.0</coordinates>
            </Point>
        </Placemark>
        <Placemark id="223">
            <name>Заброшенная АЗС ООО &quot;Автотрек&quot; (ru)</name>
            <description/>
            <Point id="222">
                <coordinates>60.6723536,56.8241661,0.0</coordinates>
            </Point>
        </Placemark>
        <Placemark id="225">
            <name>Брошенные теплицы (ru)</name>
            <description/>
            <Point id="224">
                <coordinates>60.6884322,56.8299262,0.0</coordinates>
            </Point>
        </Placemark>
        <Placemark id="227">
            <name>Заброшенное здание (ru)</name>
            <description/>
            <Point id="226">
                <coordinates>60.5849043,56.9000322,0.0</coordinates>
            </Point>
        </Placemark>
        <Placemark id="229">
            <name>Заброшенные бытовые помещения (ru)</name>
            <description/>
            <Point id="228">
                <coordinates>60.651993,56.8777548,0.0</coordinates>
            </Point>
        </Placemark>
        <Placemark id="231">
            <name>Заброшенное здание (ru)</name>
            <description/>
            <Point id="230">
                <coordinates>60.5863977,56.7754901,0.0</coordinates>
            </Point>
        </Placemark>
        <Placemark id="233">
            <name>ulitsa Lyotchikov, 9</name>
            <description/>
            <Point id="232">
                <coordinates>60.576084,56.8622101,0.0</coordinates>
            </Point>
        </Placemark>
        <Placemark id="235">
            <name>ulitsa Lyotchikov, 9а</name>
            <description/>
            <Point id="234">
                <coordinates>60.5755636,56.8619212,0.0</coordinates>
            </Point>
        </Placemark>
        <Placemark id="237">
            <name>Недостроенный и заброшенный подземный переход (ru)</name>
            <description/>
            <Point id="236">
                <coordinates>60.5531188,56.8896964,0.0</coordinates>
            </Point>
        </Placemark>
        <Placemark id="239">
            <name>Фундамент (ru)</name>
            <description/>
            <Point id="238">
                <coordinates>60.566856,56.8444699,0.0</coordinates>
            </Point>
        </Placemark>
        <Placemark id="241">
            <name>Заброшенный детский сад (ru)</name>
            <description/>
            <Point id="240">
                <coordinates>60.6493351,56.8386401,0.0</coordinates>
            </Point>
        </Placemark>
        <Placemark id="243">
            <name>Бывшая баня (ru)</name>
            <description/>
            <Point id="242">
                <coordinates>60.6675767,56.767736,0.0</coordinates>
            </Point>
        </Placemark>
        <Placemark id="245">
            <name>Заброшенный дом (ru)</name>
            <description/>
            <Point id="244">
                <coordinates>60.5842111,56.8995481,0.0</coordinates>
            </Point>
        </Placemark>
        <Placemark id="247">
            <name>Сгоревшая Троицкая церковь общества старообрядцев (Австрийская церковь) (ru)</name>
            <description/>
            <Point id="246">
                <coordinates>60.6153406,56.8226592,0.0</coordinates>
            </Point>
        </Placemark>
        <Placemark id="249">
            <name>Бывшая пристань пос. Пески (Ресторан «Шарташ») (ru)</name>
            <description/>
            <Point id="248">
                <coordinates>60.7097625,56.8483485,0.0</coordinates>
            </Point>
        </Placemark>
        <Placemark id="251">
            <name>Клиническая лаборатория (ru)</name>
            <description/>
            <Point id="250">
                <coordinates>60.6154354,56.8229582,0.0</coordinates>
            </Point>
        </Placemark>
        <Placemark id="253">
            <name>Склад казарменного инвентаря (ru)</name>
            <description/>
            <Point id="252">
                <coordinates>60.6286677,56.8255037,0.0</coordinates>
            </Point>
        </Placemark>
        <Placemark id="255">
            <name>Заброшенный садовый участок (ru)</name>
            <description/>
            <Point id="254">
                <coordinates>60.5005206,56.8449359,0.0</coordinates>
            </Point>
        </Placemark>
        <Placemark id="257">
            <name>Заброшенный жилой дом (ru)</name>
            <description/>
            <Point id="256">
                <coordinates>60.5814015,56.8454845,0.0</coordinates>
            </Point>
        </Placemark>
        <Placemark id="259">
            <name>Убежище А-51 (ru)</name>
            <description/>
            <Point id="258">
                <coordinates>60.599344,56.8754845,0.0</coordinates>
            </Point>
        </Placemark>
        <Placemark id="261">
            <name>Заброшенный детский сад (ru)</name>
            <description/>
            <Point id="260">
                <coordinates>60.5853683,56.7828191,0.0</coordinates>
            </Point>
        </Placemark>
        <Placemark id="263">
            <name>Заброшенное летнее кафе (ru)</name>
            <description/>
            <Point id="262">
                <coordinates>60.6994487,56.7639912,0.0</coordinates>
            </Point>
        </Placemark>
        <Placemark id="265">
            <name>Бывшая детская площадка (ru)</name>
            <description/>
            <Point id="264">
                <coordinates>60.7055139,56.7642191,0.0</coordinates>
            </Point>
        </Placemark>
        <Placemark id="267">
            <name>Усадьба купца В.С. Ваганова (ru)</name>
            <description/>
            <Point id="266">
                <coordinates>60.5985822,56.8308457,0.0</coordinates>
            </Point>
        </Placemark>
        <Placemark id="269">
            <name>Спортивная площадка (ru)</name>
            <description/>
            <Point id="268">
                <coordinates>60.5456287,56.7673782,0.0</coordinates>
            </Point>
        </Placemark>
        <Placemark id="271">
            <name>Здание (ru)</name>
            <description/>
            <Point id="270">
                <coordinates>60.581017,56.7819708,0.0</coordinates>
            </Point>
        </Placemark>
        <Placemark id="273">
            <name>Особняк статского советника Ф. Л. Миллера (ru)</name>
            <description/>
            <Point id="272">
                <coordinates>60.5841145,56.8382543,0.0</coordinates>
            </Point>
        </Placemark>
        <Placemark id="275">
            <name>Заброшенный детский сад (ru)</name>
            <description/>
            <Point id="274">
                <coordinates>60.6489092,56.8055719,0.0</coordinates>
            </Point>
        </Placemark>
        <Placemark id="277">
            <name>Столовая завода (ru)</name>
            <description/>
            <Point id="276">
                <coordinates>60.7059001,56.7994448,0.0</coordinates>
            </Point>
        </Placemark>
        <Placemark id="279">
            <name>Полуразрушенные гаражи (ru)</name>
            <description/>
            <Point id="278">
                <coordinates>60.7054936,56.7512691,0.0</coordinates>
            </Point>
        </Placemark>
        <Placemark id="281">
            <name>Заброшенный гараж Уральской государственной медицинской академии (ru)</name>
            <description/>
            <Point id="280">
                <coordinates>60.5638349,56.8334929,0.0</coordinates>
            </Point>
        </Placemark>
        <Placemark id="283">
            <name>Особняк в стиле позднего классицизма (ru)</name>
            <description/>
            <Point id="282">
                <coordinates>60.608206,56.8306444,0.0</coordinates>
            </Point>
        </Placemark>
        <Placemark id="285">
            <name>Расселённый дом (ru)</name>
            <description/>
            <Point id="284">
                <coordinates>60.5480521,56.8226006,0.0</coordinates>
            </Point>
        </Placemark>
        <Placemark id="287">
            <name>Samolyotnaya ulitsa, 8</name>
            <description/>
            <Point id="286">
                <coordinates>60.6406519,56.7905555,0.0</coordinates>
            </Point>
        </Placemark>
        <Placemark id="289">
            <name>Бывшая контора Нижнеисетского завода (ru)</name>
            <description/>
            <Point id="288">
                <coordinates>60.6935066,56.7495367,0.0</coordinates>
            </Point>
        </Placemark>
        <Placemark id="291">
            <name>Маслохозяйство (ru)</name>
            <description/>
            <Point id="290">
                <coordinates>60.5920216,56.7754253,0.0</coordinates>
            </Point>
        </Placemark>
        <Placemark id="293">
            <name>Заброшенное здание (ru)</name>
            <description/>
            <Point id="292">
                <coordinates>60.6612843,56.8423342,0.0</coordinates>
            </Point>
        </Placemark>
        <Placemark id="295">
            <name>Опора путепровода (ru)</name>
            <description/>
            <Point id="294">
                <coordinates>60.7043793,56.8165237,0.0</coordinates>
            </Point>
        </Placemark>
        <Placemark id="297">
            <name>Заброшенный павильон «Цветы» (ru)</name>
            <description/>
            <Point id="296">
                <coordinates>60.6041318,56.8347461,0.0</coordinates>
            </Point>
        </Placemark>
        <Placemark id="299">
            <name>Старинная каменоломня (ru)</name>
            <description/>
            <Point id="298">
                <coordinates>60.6825646,56.8495289,0.0</coordinates>
            </Point>
        </Placemark>
        <Placemark id="301">
            <name>Опора путепровода (ru)</name>
            <description/>
            <Point id="300">
                <coordinates>60.7041269,56.8162687,0.0</coordinates>
            </Point>
        </Placemark>
        <Placemark id="303">
            <name>Заброшенное здание (ru)</name>
            <description/>
            <Point id="302">
                <coordinates>60.6405776,56.8802313,0.0</coordinates>
            </Point>
        </Placemark>
        <Placemark id="305">
            <name>Заброшенная лыжная база ЦПКиО (ru)</name>
            <description/>
            <Point id="304">
                <coordinates>60.65272,56.8131997,0.0</coordinates>
            </Point>
        </Placemark>
        <Placemark id="307">
            <name>Бывший продуктовый магазин «Чкаловский» (ru)</name>
            <description/>
            <Point id="306">
                <coordinates>60.6173913,56.8040056,0.0</coordinates>
            </Point>
        </Placemark>
        <Placemark id="309">
            <name>Старые градирни (ru)</name>
            <description/>
            <Point id="308">
                <coordinates>60.5979372,56.8761572,0.0</coordinates>
            </Point>
        </Placemark>
        <Placemark id="311">
            <name>Заброшенный недострой (ru)</name>
            <description/>
            <Point id="310">
                <coordinates>60.6813821,56.748158,0.0</coordinates>
            </Point>
        </Placemark>
        <Placemark id="313">
            <name>Заброшенный дом (ru)</name>
            <description/>
            <Point id="312">
                <coordinates>60.6473329,56.7857294,0.0</coordinates>
            </Point>
        </Placemark>
        <Placemark id="315">
            <name>Заброшенный дом (ru)</name>
            <description/>
            <Point id="314">
                <coordinates>60.6477207,56.7858898,0.0</coordinates>
            </Point>
        </Placemark>
        <Placemark id="317">
            <name>Заброшенное здание бани на Зелёном острове (ru)</name>
            <description/>
            <Point id="316">
                <coordinates>60.4964748,56.8462061,0.0</coordinates>
            </Point>
        </Placemark>
        <Placemark id="319">
            <name>Заброшенная баскетбольная площадка (ru)</name>
            <description/>
            <Point id="318">
                <coordinates>60.5548406,56.8370267,0.0</coordinates>
            </Point>
        </Placemark>
        <Placemark id="321">
            <name>Разрушенный ленточный конвейер топливоподачи (ru)</name>
            <description/>
            <Point id="320">
                <coordinates>60.500978,56.847298,0.0</coordinates>
            </Point>
        </Placemark>
        <Placemark id="323">
            <name>Остатки старого строительства (ru)</name>
            <description/>
            <Point id="322">
                <coordinates>60.6980895,56.7658803,0.0</coordinates>
            </Point>
        </Placemark>
        <Placemark id="325">
            <name>Заброшенный углекислотный цех (ru)</name>
            <description/>
            <Point id="324">
                <coordinates>60.6390671,56.880112,0.0</coordinates>
            </Point>
        </Placemark>
        <Placemark id="327">
            <name>Заброшенные гаражи (ru)</name>
            <description/>
            <Point id="326">
                <coordinates>60.6390675,56.8787778,0.0</coordinates>
            </Point>
        </Placemark>
        <Placemark id="329">
            <name>Неработающий фонтан (ru)</name>
            <description/>
            <Point id="328">
                <coordinates>60.602218,56.8374268,0.0</coordinates>
            </Point>
        </Placemark>
        <Placemark id="331">
            <name>Подземные овощехранилища (ru)</name>
            <description/>
            <Point id="330">
                <coordinates>60.5851014,56.8551215,0.0</coordinates>
            </Point>
        </Placemark>
        <Placemark id="333">
            <name>Флигель западный усадьбы Рязанова (ru)</name>
            <description/>
            <Point id="332">
                <coordinates>60.6107097,56.8278369,0.0</coordinates>
            </Point>
        </Placemark>
        <Placemark id="335">
            <name>Шарташское месторождение яшмы (ru)</name>
            <description/>
            <Point id="334">
                <coordinates>60.6739228,56.8535743,0.0</coordinates>
            </Point>
        </Placemark>
        <Placemark id="337">
            <name>Недостроенное здание (ru)</name>
            <description/>
            <Point id="336">
                <coordinates>60.6728083,56.7565364,0.0</coordinates>
            </Point>
        </Placemark>
        <Placemark id="339">
            <name>Руины недостроенной понтонной переправы (ru)</name>
            <description/>
            <Point id="338">
                <coordinates>60.6893626,56.861031,0.0</coordinates>
            </Point>
        </Placemark>
        <Placemark id="341">
            <name>Полуразрушенное здание земской школы (ru)</name>
            <description/>
            <Point id="340">
                <coordinates>60.6141512,56.8447558,0.0</coordinates>
            </Point>
        </Placemark>
        <Placemark id="343">
            <name>Заброшенная теплица школы № 121 (ru)</name>
            <description/>
            <Point id="342">
                <coordinates>60.5499337,56.829516,0.0</coordinates>
            </Point>
        </Placemark>
        <Placemark id="345">
            <name>Заброшенная прачечная (ru)</name>
            <description/>
            <Point id="344">
                <coordinates>60.6450983,56.8818771,0.0</coordinates>
            </Point>
        </Placemark>
        <Placemark id="347">
            <name>Неработающий фонтан (ru)</name>
            <description/>
            <Point id="346">
                <coordinates>60.5946352,56.8433887,0.0</coordinates>
            </Point>
        </Placemark>
        <Placemark id="349">
            <name>Закрытый подземный переход  (ru)</name>
            <description/>
            <Point id="348">
                <coordinates>60.6102018,56.8446374,0.0</coordinates>
            </Point>
        </Placemark>
        <Placemark id="351">
            <name>Заброшенный флигель усадьбы Рязанова (ru)</name>
            <description/>
            <Point id="350">
                <coordinates>60.6102123,56.8270506,0.0</coordinates>
            </Point>
        </Placemark>
        <Placemark id="353">
            <name>Заброшенное здание (ru)</name>
            <description/>
            <Point id="352">
                <coordinates>60.6625657,56.8422789,0.0</coordinates>
            </Point>
        </Placemark>
        <Placemark id="355">
            <name>Заброшенное бомбоубежище (ru)</name>
            <description/>
            <Point id="354">
                <coordinates>60.6566293,56.8482048,0.0</coordinates>
            </Point>
        </Placemark>
        <Placemark id="357">
            <name>Заброшенный особняк (ru)</name>
            <description/>
            <Point id="356">
                <coordinates>60.6325804,56.8267122,0.0</coordinates>
            </Point>
        </Placemark>
        <Placemark id="359">
            <name>Veterinarnaya ulitsa, 12</name>
            <description/>
            <Point id="358">
                <coordinates>60.5629487,56.8239648,0.0</coordinates>
            </Point>
        </Placemark>
        <Placemark id="361">
            <name>Разваленный дом (ru)</name>
            <description/>
            <Point id="360">
                <coordinates>60.6505017,56.8993578,0.0</coordinates>
            </Point>
        </Placemark>
        <Placemark id="363">
            <name>Неработающий фонтан (ru)</name>
            <description/>
            <Point id="362">
                <coordinates>60.5905796,56.7794983,0.0</coordinates>
            </Point>
        </Placemark>
        <Placemark id="365">
            <name>Недостроенный объект (ru)</name>
            <description/>
            <Point id="364">
                <coordinates>60.5866622,56.7683688,0.0</coordinates>
            </Point>
        </Placemark>
        <Placemark id="367">
            <name>Заброшенная насосная станция (ru)</name>
            <description/>
            <Point id="366">
                <coordinates>60.6801857,56.816723,0.0</coordinates>
            </Point>
        </Placemark>
        <Placemark id="369">
            <name>Сгоревший частный дом (ru)</name>
            <description/>
            <Point id="368">
                <coordinates>60.6113671,56.8286851,0.0</coordinates>
            </Point>
        </Placemark>
        <Placemark id="371">
            <name>Заброшенная комментаторская будка (ru)</name>
            <description/>
            <Point id="370">
                <coordinates>60.6454016,56.7723098,0.0</coordinates>
            </Point>
        </Placemark>
        <Placemark id="373">
            <name>Недостроенный особняк (ru)</name>
            <description/>
            <Point id="372">
                <coordinates>60.6765793,56.8156822,0.0</coordinates>
            </Point>
        </Placemark>
        <Placemark id="375">
            <name>Недостроенное здание (ru)</name>
            <description/>
            <Point id="374">
                <coordinates>60.5861846,56.7682832,0.0</coordinates>
            </Point>
        </Placemark>
        <Placemark id="377">
            <name>Башня Рейшера («Белая башня») (ru)</name>
            <description/>
            <Point id="376">
                <coordinates>60.5723249,56.8931557,0.0</coordinates>
            </Point>
        </Placemark>
        <Placemark id="379">
            <name>Магазин-пристрой (ru)</name>
            <description/>
            <Point id="378">
                <coordinates>60.6221557,56.8636908,0.0</coordinates>
            </Point>
        </Placemark>
        <Placemark id="381">
            <name>Погреб (ru)</name>
            <description/>
            <Point id="380">
                <coordinates>60.6584544,56.8479553,0.0</coordinates>
            </Point>
        </Placemark>
        <Placemark id="383">
            <name>Бывший учебный объект ГО (ru)</name>
            <description/>
            <Point id="382">
                <coordinates>60.6885221,56.8287781,0.0</coordinates>
            </Point>
        </Placemark>
        <Placemark id="385">
            <name>Заброшенный фонтан (ru)</name>
            <description/>
            <Point id="384">
                <coordinates>60.5951297,56.8413043,0.0</coordinates>
            </Point>
        </Placemark>
        <Placemark id="387">
            <name>Недействующая трансформаторная подстанция (ru)</name>
            <description/>
            <Point id="386">
                <coordinates>60.6404109,56.8803647,0.0</coordinates>
            </Point>
        </Placemark>
        <Placemark id="389">
            <name>Руины котельной, лыжной базы ЦПКиО (ru)</name>
            <description/>
            <Point id="388">
                <coordinates>60.6531221,56.8131981,0.0</coordinates>
            </Point>
        </Placemark>
        <Placemark id="391">
            <name>Заброшенный дом (ru)</name>
            <description/>
            <Point id="390">
                <coordinates>60.5280611,56.8324246,0.0</coordinates>
            </Point>
        </Placemark>
        <Placemark id="393">
            <name>Moskovsky trakt, 9-й км, 29а</name>
            <description/>
            <Point id="392">
                <coordinates>60.4925599,56.8213654,0.0</coordinates>
            </Point>
        </Placemark>
        <Placemark id="395">
            <name>Заброшенный Дом ребёнка (ru)</name>
            <description/>
            <Point id="394">
                <coordinates>60.689823,56.8628698,0.0</coordinates>
            </Point>
        </Placemark>
        <Placemark id="397">
            <name>ulitsa Kirova, 61</name>
            <description/>
            <Point id="396">
                <coordinates>60.5576758,56.8395763,0.0</coordinates>
            </Point>
        </Placemark>
        <Placemark id="399">
            <name>Недействующая автобусная остановка «Станция Шарташ» (ru)</name>
            <description/>
            <Point id="398">
                <coordinates>60.6465628,56.828997,0.0</coordinates>
            </Point>
        </Placemark>
        <Placemark id="401">
            <name>Парашютная вышка (ru)</name>
            <description/>
            <Point id="400">
                <coordinates>60.5613679,56.798704,0.0</coordinates>
            </Point>
        </Placemark>
        <Placemark id="403">
            <name>ulitsa Tankistov, 16</name>
            <description/>
            <Point id="402">
                <coordinates>60.5273402,56.8352176,0.0</coordinates>
            </Point>
        </Placemark>
        <Placemark id="405">
            <name>Заброшенная насосная станция (ru)</name>
            <description/>
            <Point id="404">
                <coordinates>60.6501692,56.8768739,0.0</coordinates>
            </Point>
        </Placemark>
        <Placemark id="407">
            <name>Затопленные остатки насосной станции (ru)</name>
            <description/>
            <Point id="406">
                <coordinates>60.6963205,56.7612398,0.0</coordinates>
            </Point>
        </Placemark>
        <Placemark id="409">
            <name>Хозяйственный корпус (ru)</name>
            <description/>
            <Point id="408">
                <coordinates>60.6156604,56.8347039,0.0</coordinates>
            </Point>
        </Placemark>
        <Placemark id="411">
            <name>Недействующая автобусная остановка «Комсомольская» (ru)</name>
            <description/>
            <Point id="410">
                <coordinates>60.657202,56.8241568,0.0</coordinates>
            </Point>
        </Placemark>
        <Placemark id="413">
            <name>Заброшенный фундамент (ru)</name>
            <description/>
            <Point id="412">
                <coordinates>60.5075214,56.827018,0.0</coordinates>
            </Point>
        </Placemark>
        <Placemark id="415">
            <name>Паровоз Эм 726-14 (ru)</name>
            <description/>
            <Point id="414">
                <coordinates>60.5184055,56.8659485,0.0</coordinates>
            </Point>
        </Placemark>
        <Placemark id="417">
            <name>Развалины (ru)</name>
            <description/>
            <Point id="416">
                <coordinates>60.6113697,56.7664675,0.0</coordinates>
            </Point>
        </Placemark>
        <Placemark id="419">
            <name>Родник (ru)</name>
            <description/>
            <Point id="418">
                <coordinates>60.6605385,56.8050445,0.0</coordinates>
            </Point>
        </Placemark>
        <Placemark id="421">
            <name>ulitsa Tankistov, 18</name>
            <description/>
            <Point id="420">
                <coordinates>60.5271309,56.8350451,0.0</coordinates>
            </Point>
        </Placemark>
        <Placemark id="423">
            <name>Заброшенное одноэтажное здание  (ru)</name>
            <description/>
            <Point id="422">
                <coordinates>60.661465,56.8430365,0.0</coordinates>
            </Point>
        </Placemark>
        <Placemark id="425">
            <name>Мачта освещения (ru)</name>
            <description/>
            <Point id="424">
                <coordinates>60.6465053,56.7724888,0.0</coordinates>
            </Point>
        </Placemark>
        <Placemark id="427">
            <name>Заброшенное здание (ru)</name>
            <description/>
            <Point id="426">
                <coordinates>60.640532,56.8796183,0.0</coordinates>
            </Point>
        </Placemark>
        <Placemark id="429">
            <name>Брошенный козловой кран (ru)</name>
            <description/>
            <Point id="428">
                <coordinates>60.6388757,56.8789478,0.0</coordinates>
            </Point>
        </Placemark>
        <Placemark id="431">
            <name>Заброшенное убежище гражданской обороны (ru)</name>
            <description/>
            <Point id="430">
                <coordinates>60.603598,56.8549953,0.0</coordinates>
            </Point>
        </Placemark>
        <Placemark id="433">
            <name>Заброшенный фонтан «Дельфин» (ru)</name>
            <description/>
            <Point id="432">
                <coordinates>60.5939272,56.8502583,0.0</coordinates>
            </Point>
        </Placemark>
        <Placemark id="435">
            <name>Заброшенный дом (ru)</name>
            <description/>
            <Point id="434">
                <coordinates>60.5330356,56.8324104,0.0</coordinates>
            </Point>
        </Placemark>
        <Placemark id="437">
            <name>Странные платформы (поезд-генератор?) (ru)</name>
            <description/>
            <Point id="436">
                <coordinates>60.5187194,56.865888,0.0</coordinates>
            </Point>
        </Placemark>
        <Placemark id="439">
            <name>Опора старого пешеходного моста (ru)</name>
            <description/>
            <Point id="438">
                <coordinates>60.5148583,56.866457,0.0</coordinates>
            </Point>
        </Placemark>
        <Placemark id="441">
            <name>Вход в рудник (ru)</name>
            <description/>
            <Point id="440">
                <coordinates>60.6785064,56.9110749,0.0</coordinates>
            </Point>
        </Placemark>
        <Placemark id="443">
            <name>ulitsa Yegorova, 26</name>
            <description/>
            <Point id="442">
                <coordinates>60.5540907,56.8508601,0.0</coordinates>
            </Point>
        </Placemark>
        <Placemark id="445">
            <name>Артезианская скважина № 1 Уралмашзавода (ru)</name>
            <description/>
            <Point id="444">
                <coordinates>60.5566472,56.9068377,0.0</coordinates>
            </Point>
        </Placemark>
        <Placemark id="447">
            <name>ulitsa Yegorova, 26а</name>
            <description/>
            <Point id="446">
                <coordinates>60.5538083,56.8507701,0.0</coordinates>
            </Point>
        </Placemark>
        <Placemark id="449">
            <name>Пустующий павильон (ru)</name>
            <description/>
            <Point id="448">
                <coordinates>60.6053454,56.8575869,0.0</coordinates>
            </Point>
        </Placemark>
        <Placemark id="451">
            <name>Водонапорная башня (ru)</name>
            <description/>
            <Point id="450">
                <coordinates>60.5109732,56.8740047,0.0</coordinates>
            </Point>
        </Placemark>
        <Placemark id="453">
            <name>Закрытый северо-восточный вход в парк (ru)</name>
            <description/>
            <Point id="452">
                <coordinates>60.6145331,56.8483073,0.0</coordinates>
            </Point>
        </Placemark>
        <Placemark id="455">
            <name>Водонапорная башня «Звезда» (ru)</name>
            <description/>
            <Point id="454">
                <coordinates>60.5717897,56.8627313,0.0</coordinates>
            </Point>
        </Placemark>
        <Placemark id="457">
            <name>Гидротехническое сооружение (ru)</name>
            <description/>
            <Point id="456">
                <coordinates>60.6970327,56.8159618,0.0</coordinates>
            </Point>
        </Placemark>
        <Placemark id="459">
            <name>Недействующий фонтан (остатки) (ru)</name>
            <description/>
            <Point id="458">
                <coordinates>60.5800026,56.827156,0.0</coordinates>
            </Point>
        </Placemark>
        <Placemark id="461">
            <name>Малая архитектурная форма (ru)</name>
            <description/>
            <Point id="460">
                <coordinates>60.6385256,56.8416566,0.0</coordinates>
            </Point>
        </Placemark>
        <Placemark id="463">
            <name>Заброшенный фонтан (ru)</name>
            <description/>
            <Point id="462">
                <coordinates>60.5974485,56.8346867,0.0</coordinates>
            </Point>
        </Placemark>
        <Placemark id="465">
            <name>Заброшенный фонтан (ru)</name>
            <description/>
            <Point id="464">
                <coordinates>60.6302081,56.8418414,0.0</coordinates>
            </Point>
        </Placemark>
        <Placemark id="467">
            <name>Заброшенная будка смотрителя (ru)</name>
            <description/>
            <Point id="466">
                <coordinates>60.6283432,56.7694275,0.0</coordinates>
            </Point>
        </Placemark>
        <Placemark id="469">
            <name>Недействующая автобусная остановка «Площадь Коммунаров» (ru)</name>
            <description/>
            <Point id="468">
                <coordinates>60.5818473,56.8353965,0.0</coordinates>
            </Point>
        </Placemark>
        <Placemark id="471">
            <name>Заброшенное водонапорное сооружение (ru)</name>
            <description/>
            <Point id="470">
                <coordinates>60.5644123,56.8006939,0.0</coordinates>
            </Point>
        </Placemark>
        <Placemark id="473">
            <name>Артезианская скважина № 2 Уралмашзавода (ru)</name>
            <description/>
            <Point id="472">
                <coordinates>60.5525448,56.9019072,0.0</coordinates>
            </Point>
        </Placemark>
        <Placemark id="475">
            <name>Заброшенная водонапорная башня (ru)</name>
            <description/>
            <Point id="474">
                <coordinates>60.653758,56.8658461,0.0</coordinates>
            </Point>
        </Placemark>
        <Placemark id="477">
            <name>Заброшенное строение (ru)</name>
            <description/>
            <Point id="476">
                <coordinates>60.6518684,56.8758208,0.0</coordinates>
            </Point>
        </Placemark>
        <Placemark id="479">
            <name>Дымовая труба (ru)</name>
            <description/>
            <Point id="478">
                <coordinates>60.6028088,56.8204037,0.0</coordinates>
            </Point>
        </Placemark>
        <Placemark id="481">
            <name>Скважина СНТ «Связист» (ru)</name>
            <description/>
            <Point id="480">
                <coordinates>60.5137408,56.8007102,0.0</coordinates>
            </Point>
        </Placemark>
        <Placemark id="483">
            <name>Дымовая труба котельной (ru)</name>
            <description/>
            <Point id="482">
                <coordinates>60.6597461,56.8489249,0.0</coordinates>
            </Point>
        </Placemark>
        <Placemark id="485">
            <name>Заброшенная ржавая труба (ru)</name>
            <description/>
            <Point id="484">
                <coordinates>60.6661163,56.9178073,0.0</coordinates>
            </Point>
        </Placemark>
    </Document>
</kml>
