<?xml version="1.0" encoding="UTF-8"?>
<kml xmlns="http://www.opengis.net/kml/2.2" xmlns:gx="http://www.google.com/kml/ext/2.2">
    <Document id="87">
        <Placemark id="89">
            <name>Карьер (ru)</name>
            <description/>
            <Point id="88">
                <coordinates>49.0141939,55.8241169,0.0</coordinates>
            </Point>
        </Placemark>
        <Placemark id="91">
            <name>Заброшенная база академической гребли (ru)</name>
            <description/>
            <Point id="90">
                <coordinates>49.1703481,55.8249374,0.0</coordinates>
            </Point>
        </Placemark>
        <Placemark id="93">
            <name>Бывший автопарк в/ч 71587 (ru)</name>
            <description/>
            <Point id="92">
                <coordinates>49.1962114,55.8037351,0.0</coordinates>
            </Point>
        </Placemark>
        <Placemark id="95">
            <name>Заброшенный городской пляж (ru)</name>
            <description/>
            <Point id="94">
                <coordinates>49.1543902,55.8031382,0.0</coordinates>
            </Point>
        </Placemark>
        <Placemark id="97">
            <name>Резервное хранилище техники в/ч 71587 (до 1990-х гг.) (ru)</name>
            <description/>
            <Point id="96">
                <coordinates>49.1975685,55.8025804,0.0</coordinates>
            </Point>
        </Placemark>
        <Placemark id="99">
            <name>Заброшенные цеха (ru)</name>
            <description/>
            <Point id="98">
                <coordinates>49.0367187,55.8288446,0.0</coordinates>
            </Point>
        </Placemark>
        <Placemark id="101">
            <name>Адмиралтейское кладбище (ru)</name>
            <description/>
            <Point id="100">
                <coordinates>49.0618635,55.7911019,0.0</coordinates>
            </Point>
        </Placemark>
        <Placemark id="103">
            <name>Старый Водозабор</name>
            <description/>
            <Point id="102">
                <coordinates>49.0170947,55.7915385,0.0</coordinates>
            </Point>
        </Placemark>
        <Placemark id="105">
            <name>Заброшенный цех (ru)</name>
            <description/>
            <Point id="104">
                <coordinates>49.0395589,55.8352871,0.0</coordinates>
            </Point>
        </Placemark>
        <Placemark id="107">
            <name>Бывшая территория лаборатории (ru)</name>
            <description/>
            <Point id="106">
                <coordinates>49.1701818,55.7968046,0.0</coordinates>
            </Point>
        </Placemark>
        <Placemark id="109">
            <name>Заброшенный корпус (ru)</name>
            <description/>
            <Point id="108">
                <coordinates>49.0427434,55.8317853,0.0</coordinates>
            </Point>
        </Placemark>
        <Placemark id="111">
            <name>ulitsa Gladilova, 55 корпус 1</name>
            <description/>
            <Point id="110">
                <coordinates>49.0667169,55.8107488,0.0</coordinates>
            </Point>
        </Placemark>
        <Placemark id="113">
            <name>ул. Богатырёва (ru), 6</name>
            <description/>
            <Point id="112">
                <coordinates>49.0529464,55.8160309,0.0</coordinates>
            </Point>
        </Placemark>
        <Placemark id="115">
            <name>Заброшенная подземная галерея (ru)</name>
            <description/>
            <Point id="114">
                <coordinates>49.1104934,55.7930472,0.0</coordinates>
            </Point>
        </Placemark>
        <Placemark id="117">
            <name>Заброшенный цех (ru)</name>
            <description/>
            <Point id="116">
                <coordinates>49.040748,55.8341549,0.0</coordinates>
            </Point>
        </Placemark>
        <Placemark id="119">
            <name>Торговый центр (ru)</name>
            <description/>
            <Point id="118">
                <coordinates>49.1025137,55.7860513,0.0</coordinates>
            </Point>
        </Placemark>
        <Placemark id="121">
            <name>Бочарная и паркетная фабрика Г.Ф. Локке (ru)</name>
            <description/>
            <Point id="120">
                <coordinates>49.0553321,55.7979168,0.0</coordinates>
            </Point>
        </Placemark>
        <Placemark id="123">
            <name>Заброшенная поляна для проведения праздника «Сабантуй» (ru)</name>
            <description/>
            <Point id="122">
                <coordinates>49.1654973,55.834984,0.0</coordinates>
            </Point>
        </Placemark>
        <Placemark id="125">
            <name>Здание Артилерийского Училища (ru)</name>
            <description/>
            <Point id="124">
                <coordinates>49.1869818,55.7986741,0.0</coordinates>
            </Point>
        </Placemark>
        <Placemark id="127">
            <name>Производственный корпус (ru)</name>
            <description/>
            <Point id="126">
                <coordinates>49.056224,55.7986282,0.0</coordinates>
            </Point>
        </Placemark>
        <Placemark id="129">
            <name>Бомбоубежище (ru)</name>
            <description/>
            <Point id="128">
                <coordinates>49.0351581,55.8402488,0.0</coordinates>
            </Point>
        </Placemark>
        <Placemark id="131">
            <name>ulitsa Gladilova, 54</name>
            <description/>
            <Point id="130">
                <coordinates>49.0666204,55.8120876,0.0</coordinates>
            </Point>
        </Placemark>
        <Placemark id="133">
            <name>Александровский пассаж (ru)</name>
            <description/>
            <Point id="132">
                <coordinates>49.1156594,55.7942521,0.0</coordinates>
            </Point>
        </Placemark>
        <Placemark id="135">
            <name>ulitsa Rakhmatullina, 6</name>
            <description/>
            <Point id="134">
                <coordinates>49.1153816,55.7925096,0.0</coordinates>
            </Point>
        </Placemark>
        <Placemark id="137">
            <name>Руины снесённых домов (ru)</name>
            <description/>
            <Point id="136">
                <coordinates>49.0822094,55.8365482,0.0</coordinates>
            </Point>
        </Placemark>
        <Placemark id="139">
            <name>Недостроенное административно-торговое здание (ru)</name>
            <description/>
            <Point id="138">
                <coordinates>49.1084769,55.7833766,0.0</coordinates>
            </Point>
        </Placemark>
        <Placemark id="141">
            <name>Заброшенный цех (ru)</name>
            <description/>
            <Point id="140">
                <coordinates>49.0245392,55.841184,0.0</coordinates>
            </Point>
        </Placemark>
        <Placemark id="143">
            <name>ulitsa Gladilova, 55 корпус 2</name>
            <description/>
            <Point id="142">
                <coordinates>49.0660524,55.8116086,0.0</coordinates>
            </Point>
        </Placemark>
        <Placemark id="145">
            <name>Сгоревшее бомбоубежище (ru)</name>
            <description/>
            <Point id="144">
                <coordinates>49.0290373,55.8402367,0.0</coordinates>
            </Point>
        </Placemark>
        <Placemark id="147">
            <name>ulitsa Gagarina, 95</name>
            <description/>
            <Point id="146">
                <coordinates>49.0791644,55.8363107,0.0</coordinates>
            </Point>
        </Placemark>
        <Placemark id="149">
            <name>Долгострой (ru)</name>
            <description/>
            <Point id="148">
                <coordinates>49.1319002,55.7878237,0.0</coordinates>
            </Point>
        </Placemark>
        <Placemark id="151">
            <name>ulitsa Rustema Yakhina, 6/26</name>
            <description/>
            <Point id="150">
                <coordinates>49.1018552,55.7905243,0.0</coordinates>
            </Point>
        </Placemark>
        <Placemark id="153">
            <name>Peterburgskaya ulitsa, 19</name>
            <description/>
            <Point id="152">
                <coordinates>49.1279557,55.784878,0.0</coordinates>
            </Point>
        </Placemark>
        <Placemark id="155">
            <name>Заброшенная спортивная площадка (ru)</name>
            <description/>
            <Point id="154">
                <coordinates>49.1574574,55.8321526,0.0</coordinates>
            </Point>
        </Placemark>
        <Placemark id="157">
            <name>Остатки ирригационного канала (ru)</name>
            <description/>
            <Point id="156">
                <coordinates>49.1415532,55.8125506,0.0</coordinates>
            </Point>
        </Placemark>
        <Placemark id="159">
            <name>ул. Саид-Галеева (ru), 27</name>
            <description/>
            <Point id="158">
                <coordinates>49.1012738,55.7903122,0.0</coordinates>
            </Point>
        </Placemark>
        <Placemark id="161">
            <name>ул. Димитрова (ru), 15*</name>
            <description/>
            <Point id="160">
                <coordinates>49.0540302,55.8173963,0.0</coordinates>
            </Point>
        </Placemark>
        <Placemark id="163">
            <name>ulitsa Chekhova, 2 корпус 2</name>
            <description/>
            <Point id="162">
                <coordinates>49.1475542,55.7922408,0.0</coordinates>
            </Point>
        </Placemark>
        <Placemark id="165">
            <name>Заброшенный цех (ru)</name>
            <description/>
            <Point id="164">
                <coordinates>49.0689754,55.8098129,0.0</coordinates>
            </Point>
        </Placemark>
        <Placemark id="167">
            <name>ulitsa Mushtari, 22</name>
            <description/>
            <Point id="166">
                <coordinates>49.135238,55.7926848,0.0</coordinates>
            </Point>
        </Placemark>
        <Placemark id="169">
            <name>ул. Димитрова (ru), 6</name>
            <description/>
            <Point id="168">
                <coordinates>49.0556985,55.8164804,0.0</coordinates>
            </Point>
        </Placemark>
        <Placemark id="171">
            <name>Музыкальная ул. (ru), 5</name>
            <description/>
            <Point id="170">
                <coordinates>49.0536654,55.8182073,0.0</coordinates>
            </Point>
        </Placemark>
        <Placemark id="173">
            <name>ulitsa Uritskogo, 4</name>
            <description/>
            <Point id="172">
                <coordinates>49.0565048,55.8022248,0.0</coordinates>
            </Point>
        </Placemark>
        <Placemark id="175">
            <name>Заброшенная стройка (ru)</name>
            <description/>
            <Point id="174">
                <coordinates>49.073606,55.8415513,0.0</coordinates>
            </Point>
        </Placemark>
        <Placemark id="177">
            <name>Заброшенное здание (ru)</name>
            <description/>
            <Point id="176">
                <coordinates>49.0959291,55.7945782,0.0</coordinates>
            </Point>
        </Placemark>
        <Placemark id="179">
            <name>Бывш. Профучилище № 137 (ru)</name>
            <description/>
            <Point id="178">
                <coordinates>49.0535768,55.8165723,0.0</coordinates>
            </Point>
        </Placemark>
        <Placemark id="181">
            <name>Бомбоубежище завода сантехприбор (ru)</name>
            <description/>
            <Point id="180">
                <coordinates>49.0575706,55.798935,0.0</coordinates>
            </Point>
        </Placemark>
        <Placemark id="183">
            <name>Admiralteyskaya ulitsa, 3</name>
            <description/>
            <Point id="182">
                <coordinates>49.0559395,55.8022867,0.0</coordinates>
            </Point>
        </Placemark>
        <Placemark id="185">
            <name>Заброшенная стройка (ru)</name>
            <description/>
            <Point id="184">
                <coordinates>49.0865653,55.8457952,0.0</coordinates>
            </Point>
        </Placemark>
        <Placemark id="187">
            <name>ул. 1 Мая (ru), 16</name>
            <description/>
            <Point id="186">
                <coordinates>49.0622782,55.8133123,0.0</coordinates>
            </Point>
        </Placemark>
        <Placemark id="189">
            <name>Недостроенная воскресная школа при монастыре (ru)</name>
            <description/>
            <Point id="188">
                <coordinates>49.0592014,55.8081685,0.0</coordinates>
            </Point>
        </Placemark>
        <Placemark id="191">
            <name>Заброшенное здание (ru)</name>
            <description/>
            <Point id="190">
                <coordinates>49.120101,55.793354,0.0</coordinates>
            </Point>
        </Placemark>
        <Placemark id="193">
            <name>Полевая ул. (ru), 30</name>
            <description/>
            <Point id="192">
                <coordinates>49.0576564,55.8201737,0.0</coordinates>
            </Point>
        </Placemark>
        <Placemark id="195">
            <name>Заброшенное противорадиационное укрытие (ru)</name>
            <description/>
            <Point id="194">
                <coordinates>49.0902211,55.8464939,0.0</coordinates>
            </Point>
        </Placemark>
        <Placemark id="197">
            <name>Строительство (ru)</name>
            <description/>
            <Point id="196">
                <coordinates>49.1197724,55.8198067,0.0</coordinates>
            </Point>
        </Placemark>
        <Placemark id="199">
            <name>Городская усадьба, XIX век (ru)</name>
            <description/>
            <Point id="198">
                <coordinates>49.1431394,55.8023106,0.0</coordinates>
            </Point>
        </Placemark>
        <Placemark id="201">
            <name>Недостроенное здание (ru)</name>
            <description/>
            <Point id="200">
                <coordinates>49.1357191,55.7862777,0.0</coordinates>
            </Point>
        </Placemark>
        <Placemark id="203">
            <name>Затопленное бомбоубежище (ru)</name>
            <description/>
            <Point id="202">
                <coordinates>49.1116145,55.8469562,0.0</coordinates>
            </Point>
        </Placemark>
        <Placemark id="205">
            <name>Дом Н. М. Вениаминова (ru)</name>
            <description/>
            <Point id="204">
                <coordinates>49.1159865,55.8011354,0.0</coordinates>
            </Point>
        </Placemark>
        <Placemark id="207">
            <name>Заброшенное ЗС ГО (ru)</name>
            <description/>
            <Point id="206">
                <coordinates>49.1700463,55.7966334,0.0</coordinates>
            </Point>
        </Placemark>
        <Placemark id="209">
            <name>Старая ул. (ru), 6</name>
            <description/>
            <Point id="208">
                <coordinates>49.1331606,55.7827355,0.0</coordinates>
            </Point>
        </Placemark>
        <Placemark id="211">
            <name>Бывшая котельная (ru)</name>
            <description/>
            <Point id="210">
                <coordinates>49.1804361,55.8035343,0.0</coordinates>
            </Point>
        </Placemark>
        <Placemark id="213">
            <name>ул. Тази Гиззата (ru), 10</name>
            <description/>
            <Point id="212">
                <coordinates>49.1071941,55.7886838,0.0</coordinates>
            </Point>
        </Placemark>
        <Placemark id="215">
            <name>ulitsa Yapeyeva, 9б</name>
            <description/>
            <Point id="214">
                <coordinates>49.1150244,55.7989797,0.0</coordinates>
            </Point>
        </Placemark>
        <Placemark id="217">
            <name>Malo-Moskovskaya ulitsa, 19</name>
            <description/>
            <Point id="216">
                <coordinates>49.0536941,55.7999128,0.0</coordinates>
            </Point>
        </Placemark>
        <Placemark id="219">
            <name>Заброшенный пирс (ru)</name>
            <description/>
            <Point id="218">
                <coordinates>49.0346699,55.7976392,0.0</coordinates>
            </Point>
        </Placemark>
        <Placemark id="221">
            <name>Заброшенное убежище ГО (ru)</name>
            <description/>
            <Point id="220">
                <coordinates>49.0539034,55.8334447,0.0</coordinates>
            </Point>
        </Placemark>
        <Placemark id="223">
            <name>Заброшенное здание (ru)</name>
            <description/>
            <Point id="222">
                <coordinates>49.1206803,55.7934015,0.0</coordinates>
            </Point>
        </Placemark>
        <Placemark id="225">
            <name>Podluzhnaya ulitsa, 49 корпус 2</name>
            <description/>
            <Point id="224">
                <coordinates>49.1428509,55.8020465,0.0</coordinates>
            </Point>
        </Placemark>
        <Placemark id="227">
            <name>Ново-Азинская ул. (ru), 19</name>
            <description/>
            <Point id="226">
                <coordinates>49.195522,55.8091813,0.0</coordinates>
            </Point>
        </Placemark>
        <Placemark id="229">
            <name>Ново-Азинская ул. (ru), 23</name>
            <description/>
            <Point id="228">
                <coordinates>49.1953584,55.8095309,0.0</coordinates>
            </Point>
        </Placemark>
        <Placemark id="231">
            <name>Ново-Азинская ул. (ru), 25</name>
            <description/>
            <Point id="230">
                <coordinates>49.1952484,55.8098219,0.0</coordinates>
            </Point>
        </Placemark>
        <Placemark id="233">
            <name>ulitsa Rakhmatullina, 4</name>
            <description/>
            <Point id="232">
                <coordinates>49.1144582,55.7925199,0.0</coordinates>
            </Point>
        </Placemark>
        <Placemark id="235">
            <name>ulitsa Gabdully Tukaya, 16а</name>
            <description/>
            <Point id="234">
                <coordinates>49.1089718,55.7828879,0.0</coordinates>
            </Point>
        </Placemark>
        <Placemark id="237">
            <name>ulitsa Gladilova, 46</name>
            <description/>
            <Point id="236">
                <coordinates>49.0675241,55.8108226,0.0</coordinates>
            </Point>
        </Placemark>
        <Placemark id="239">
            <name>ulitsa Gorkogo, 17а</name>
            <description/>
            <Point id="238">
                <coordinates>49.1317128,55.7940703,0.0</coordinates>
            </Point>
        </Placemark>
        <Placemark id="241">
            <name>Дом Пискунова (ru)</name>
            <description/>
            <Point id="240">
                <coordinates>49.1146627,55.7928937,0.0</coordinates>
            </Point>
        </Placemark>
        <Placemark id="243">
            <name>Пустующее нежилое здание (ru)</name>
            <description/>
            <Point id="242">
                <coordinates>49.1289272,55.7946534,0.0</coordinates>
            </Point>
        </Placemark>
        <Placemark id="245">
            <name>Вышка (ru)</name>
            <description/>
            <Point id="244">
                <coordinates>49.0683102,55.8415936,0.0</coordinates>
            </Point>
        </Placemark>
        <Placemark id="247">
            <name>Заброшенное здание (ru)</name>
            <description/>
            <Point id="246">
                <coordinates>49.115645,55.7920485,0.0</coordinates>
            </Point>
        </Placemark>
        <Placemark id="249">
            <name>Неработающий фонтан (ru)</name>
            <description/>
            <Point id="248">
                <coordinates>49.0788646,55.8327877,0.0</coordinates>
            </Point>
        </Placemark>
        <Placemark id="251">
            <name>Старый дебаркадер (ru)</name>
            <description/>
            <Point id="250">
                <coordinates>49.0872774,55.7819987,0.0</coordinates>
            </Point>
        </Placemark>
        <Placemark id="253">
            <name>ulitsa Mushtari, 24</name>
            <description/>
            <Point id="252">
                <coordinates>49.1351543,55.7929293,0.0</coordinates>
            </Point>
        </Placemark>
        <Placemark id="255">
            <name>Заброшенное здание (ru)</name>
            <description/>
            <Point id="254">
                <coordinates>49.0522475,55.798141,0.0</coordinates>
            </Point>
        </Placemark>
        <Placemark id="257">
            <name>Неиспользуемое здание (ru)</name>
            <description/>
            <Point id="256">
                <coordinates>49.1289007,55.7944385,0.0</coordinates>
            </Point>
        </Placemark>
        <Placemark id="259">
            <name>Заброшенное убежище МУП «Водоканал» (ru)</name>
            <description/>
            <Point id="258">
                <coordinates>49.0723388,55.8039055,0.0</coordinates>
            </Point>
        </Placemark>
        <Placemark id="261">
            <name>ulitsa Teletsentra, 8/10</name>
            <description/>
            <Point id="260">
                <coordinates>49.0359267,55.8236532,0.0</coordinates>
            </Point>
        </Placemark>
        <Placemark id="263">
            <name>Заброшенный резервуар водозабора (ru)</name>
            <description/>
            <Point id="262">
                <coordinates>49.1667284,55.8095158,0.0</coordinates>
            </Point>
        </Placemark>
        <Placemark id="265">
            <name>ulitsa Ismaila Gasprinskogo, 15</name>
            <description/>
            <Point id="264">
                <coordinates>49.111705,55.7770494,0.0</coordinates>
            </Point>
        </Placemark>
        <Placemark id="267">
            <name>Заброшенный павильон (ru)</name>
            <description/>
            <Point id="266">
                <coordinates>49.0997616,55.7922945,0.0</coordinates>
            </Point>
        </Placemark>
        <Placemark id="269">
            <name>Плавательное транспортное средство (ru)</name>
            <description/>
            <Point id="268">
                <coordinates>49.0451815,55.7985204,0.0</coordinates>
            </Point>
        </Placemark>
        <Placemark id="271">
            <name>Недострой (ru)</name>
            <description/>
            <Point id="270">
                <coordinates>49.084339,55.8114146,0.0</coordinates>
            </Point>
        </Placemark>
        <Placemark id="273">
            <name>ulitsa Goncharova, 18</name>
            <description/>
            <Point id="272">
                <coordinates>49.0764863,55.8112093,0.0</coordinates>
            </Point>
        </Placemark>
        <Placemark id="275">
            <name>Остановка «Театр Тинчурина» с бистро (ru)</name>
            <description/>
            <Point id="274">
                <coordinates>49.1281931,55.7942617,0.0</coordinates>
            </Point>
        </Placemark>
        <Placemark id="277">
            <name>Заброшенный ресторан «Старая мельница» (ru)</name>
            <description/>
            <Point id="276">
                <coordinates>49.1469008,55.7872308,0.0</coordinates>
            </Point>
        </Placemark>
        <Placemark id="279">
            <name>Фундамент недостроенного здания (ru)</name>
            <description/>
            <Point id="278">
                <coordinates>49.1599622,55.8309715,0.0</coordinates>
            </Point>
        </Placemark>
        <Placemark id="281">
            <name>Заброшенная проходная (ru)</name>
            <description/>
            <Point id="280">
                <coordinates>49.0519518,55.7990139,0.0</coordinates>
            </Point>
        </Placemark>
        <Placemark id="283">
            <name>Недостроенное здание (ru)</name>
            <description/>
            <Point id="282">
                <coordinates>49.1746664,55.803489,0.0</coordinates>
            </Point>
        </Placemark>
        <Placemark id="285">
            <name>Заброшенная проходная (ru)</name>
            <description/>
            <Point id="284">
                <coordinates>49.0656923,55.8120812,0.0</coordinates>
            </Point>
        </Placemark>
        <Placemark id="287">
            <name>Заброшенный пищеблок (ru)</name>
            <description/>
            <Point id="286">
                <coordinates>49.170799,55.794103,0.0</coordinates>
            </Point>
        </Placemark>
        <Placemark id="289">
            <name>Вышка охраны (ru)</name>
            <description/>
            <Point id="288">
                <coordinates>49.0550445,55.8049852,0.0</coordinates>
            </Point>
        </Placemark>
        <Placemark id="291">
            <name>Широкая ул. (ru), 18</name>
            <description/>
            <Point id="290">
                <coordinates>49.0687572,55.8015099,0.0</coordinates>
            </Point>
        </Placemark>
        <Placemark id="293">
            <name>ulitsa Shchepkina, 15</name>
            <description/>
            <Point id="292">
                <coordinates>49.1357057,55.7856236,0.0</coordinates>
            </Point>
        </Placemark>
        <Placemark id="295">
            <name>Ovrazhnaya ulitsa, 28</name>
            <description/>
            <Point id="294">
                <coordinates>49.1385407,55.7855896,0.0</coordinates>
            </Point>
        </Placemark>
        <Placemark id="297">
            <name>Заброшенное здание (ru)</name>
            <description/>
            <Point id="296">
                <coordinates>49.1415956,55.7865673,0.0</coordinates>
            </Point>
        </Placemark>
        <Placemark id="299">
            <name>Низенькая ул. (ru), 13</name>
            <description/>
            <Point id="298">
                <coordinates>49.1382965,55.7846563,0.0</coordinates>
            </Point>
        </Placemark>
        <Placemark id="301">
            <name>ulitsa Shchepkina, 44</name>
            <description/>
            <Point id="300">
                <coordinates>49.1363203,55.7862218,0.0</coordinates>
            </Point>
        </Placemark>
        <Placemark id="303">
            <name>ulitsa Shchepkina, 5</name>
            <description/>
            <Point id="302">
                <coordinates>49.1339552,55.7835056,0.0</coordinates>
            </Point>
        </Placemark>
        <Placemark id="305">
            <name>Заброшенная часовня (ru)</name>
            <description/>
            <Point id="304">
                <coordinates>49.1596811,55.7939534,0.0</coordinates>
            </Point>
        </Placemark>
        <Placemark id="307">
            <name>2-я Поперечно-северная ул. (ru), 24</name>
            <description/>
            <Point id="306">
                <coordinates>49.1170231,55.8314403,0.0</coordinates>
            </Point>
        </Placemark>
        <Placemark id="309">
            <name>Неработающий фонтан (ru)</name>
            <description/>
            <Point id="308">
                <coordinates>49.0791365,55.8320377,0.0</coordinates>
            </Point>
        </Placemark>
        <Placemark id="311">
            <name>Вентшахта бомбоубежища дома № 11 (ru)</name>
            <description/>
            <Point id="310">
                <coordinates>49.1905263,55.8026701,0.0</coordinates>
            </Point>
        </Placemark>
    </Document>
</kml>
