<?xml version="1.0" encoding="UTF-8"?>
<kml xmlns="http://www.opengis.net/kml/2.2" xmlns:gx="http://www.google.com/kml/ext/2.2">
    <Document id="743">
        <Placemark id="745">
            <name>Заброшенная взлётно-посадочная полоса ИВПП 05/23 (ru)</name>
            <description/>
            <Point id="744">
                <coordinates>132.6582599,48.4609267,0.0</coordinates>
            </Point>
        </Placemark>
        <Placemark id="747">
            <name>Заброшенная ферма (ru)</name>
            <description/>
            <Point id="746">
                <coordinates>132.7035676,48.4099717,0.0</coordinates>
            </Point>
        </Placemark>
        <Placemark id="749">
            <name>Заброшенная взлётно-посадочная полоса ИВПП 10/28 (ru)</name>
            <description/>
            <Point id="748">
                <coordinates>132.7828109,48.4002176,0.0</coordinates>
            </Point>
        </Placemark>
        <Placemark id="751">
            <name>Заросший травой плац (ru)</name>
            <description/>
            <Point id="750">
                <coordinates>132.6788347,48.4535099,0.0</coordinates>
            </Point>
        </Placemark>
        <Placemark id="753">
            <name>Заброшенный дом культуры (ru)</name>
            <description/>
            <Point id="752">
                <coordinates>132.680029,48.4531999,0.0</coordinates>
            </Point>
        </Placemark>
        <Placemark id="755">
            <name>ДОС (ru), 1</name>
            <description/>
            <Point id="754">
                <coordinates>132.6824236,48.4525215,0.0</coordinates>
            </Point>
        </Placemark>
        <Placemark id="757">
            <name>ДОС (ru), 4</name>
            <description/>
            <Point id="756">
                <coordinates>132.6844908,48.4519119,0.0</coordinates>
            </Point>
        </Placemark>
        <Placemark id="759">
            <name>ДОС (ru), 6</name>
            <description/>
            <Point id="758">
                <coordinates>132.6836841,48.4508014,0.0</coordinates>
            </Point>
        </Placemark>
        <Placemark id="761">
            <name>ДОС (ru), 2</name>
            <description/>
            <Point id="760">
                <coordinates>132.6834234,48.452532,0.0</coordinates>
            </Point>
        </Placemark>
        <Placemark id="763">
            <name>ДОС (ru), 3</name>
            <description/>
            <Point id="762">
                <coordinates>132.6829297,48.4518893,0.0</coordinates>
            </Point>
        </Placemark>
        <Placemark id="765">
            <name>ДОС (ru), 5</name>
            <description/>
            <Point id="764">
                <coordinates>132.6839993,48.4512455,0.0</coordinates>
            </Point>
        </Placemark>
        <Placemark id="767">
            <name>Заброшенное здание бывшей котельной (ru)</name>
            <description/>
            <Point id="766">
                <coordinates>132.6779155,48.4516107,0.0</coordinates>
            </Point>
        </Placemark>
        <Placemark id="769">
            <name>Заброшенная (неиспользуемая) автобусная остановка (ru)</name>
            <description/>
            <Point id="768">
                <coordinates>132.6823855,48.4532957,0.0</coordinates>
            </Point>
        </Placemark>
        <Placemark id="771">
            <name>Заброшенное здание бывшей котельной (ru)</name>
            <description/>
            <Point id="770">
                <coordinates>132.6768781,48.4519685,0.0</coordinates>
            </Point>
        </Placemark>
        <Placemark id="773">
            <name>Брошенное общежитие № 1 (ru)</name>
            <description/>
            <Point id="772">
                <coordinates>132.4787692,48.1214775,0.0</coordinates>
            </Point>
        </Placemark>
        <Placemark id="775">
            <name>Центральная ул. (ru), 4</name>
            <description/>
            <Point id="774">
                <coordinates>132.6981791,48.4063634,0.0</coordinates>
            </Point>
        </Placemark>
        <Placemark id="777">
            <name>Заброшенная водонапорная башня (ru)</name>
            <description/>
            <Point id="776">
                <coordinates>132.7044063,48.4381891,0.0</coordinates>
            </Point>
        </Placemark>
    </Document>
</kml>
