<?xml version="1.0" encoding="UTF-8"?>
<kml xmlns="http://www.opengis.net/kml/2.2" xmlns:gx="http://www.google.com/kml/ext/2.2">
    <Document id="37">
        <Placemark id="39">
            <name>Заброшенная часть ПВО (ru)</name>
            <description/>
            <Point id="38">
                <coordinates>56.0373946,57.9291527,0.0</coordinates>
            </Point>
        </Placemark>
        <Placemark id="41">
            <name>Бывший пионерский лагерь «Рассвет» (ru)</name>
            <description/>
            <Point id="40">
                <coordinates>55.8049678,57.9622428,0.0</coordinates>
            </Point>
        </Placemark>
        <Placemark id="43">
            <name>Брошенные сады (ru)</name>
            <description/>
            <Point id="42">
                <coordinates>56.1087333,57.9277007,0.0</coordinates>
            </Point>
        </Placemark>
        <Placemark id="45">
            <name>заброшенное антенное поле (ru)</name>
            <description/>
            <Point id="44">
                <coordinates>56.219369,57.8683142,0.0</coordinates>
            </Point>
        </Placemark>
        <Placemark id="47">
            <name>Территория 3 бригады (ru)</name>
            <description/>
            <Point id="46">
                <coordinates>56.119328,57.9428413,0.0</coordinates>
            </Point>
        </Placemark>
        <Placemark id="49">
            <name>Брошенные корпуса ГИПХа (ru)</name>
            <description/>
            <Point id="48">
                <coordinates>55.8499421,58.0435345,0.0</coordinates>
            </Point>
        </Placemark>
        <Placemark id="51">
            <name>Территория 4 бригады (ru)</name>
            <description/>
            <Point id="50">
                <coordinates>56.1213236,57.9445696,0.0</coordinates>
            </Point>
        </Placemark>
        <Placemark id="53">
            <name>Заброшенные склады (ru)</name>
            <description/>
            <Point id="52">
                <coordinates>55.9261446,58.0165149,0.0</coordinates>
            </Point>
        </Placemark>
        <Placemark id="55">
            <name>Заброшенные сады (ru)</name>
            <description/>
            <Point id="54">
                <coordinates>56.0158377,58.0467303,0.0</coordinates>
            </Point>
        </Placemark>
        <Placemark id="57">
            <name>Территория 2 бригады (ru)</name>
            <description/>
            <Point id="56">
                <coordinates>56.1209642,57.9414547,0.0</coordinates>
            </Point>
        </Placemark>
        <Placemark id="59">
            <name>Территория 1 бригады (ru)</name>
            <description/>
            <Point id="58">
                <coordinates>56.1207603,57.9400139,0.0</coordinates>
            </Point>
        </Placemark>
        <Placemark id="61">
            <name>Брошенные дома (ru)</name>
            <description/>
            <Point id="60">
                <coordinates>55.9318041,58.0271494,0.0</coordinates>
            </Point>
        </Placemark>
        <Placemark id="63">
            <name>Бывшее стрельбище ВАТУ (ru)</name>
            <description/>
            <Point id="62">
                <coordinates>56.2133823,57.9417707,0.0</coordinates>
            </Point>
        </Placemark>
        <Placemark id="65">
            <name>Бывшая стоянка самолетов &quot;Кукурузников&quot; (ru)</name>
            <description/>
            <Point id="64">
                <coordinates>56.1960298,57.954405,0.0</coordinates>
            </Point>
        </Placemark>
        <Placemark id="67">
            <name>Территория 5 бригады (ru)</name>
            <description/>
            <Point id="66">
                <coordinates>56.1209856,57.9457212,0.0</coordinates>
            </Point>
        </Placemark>
        <Placemark id="69">
            <name>Строительная площадка(заморожена) (ru)</name>
            <description/>
            <Point id="68">
                <coordinates>56.2051211,58.0017095,0.0</coordinates>
            </Point>
        </Placemark>
        <Placemark id="71">
            <name>Недостроенный ЖК «Т-Сити» (ru)</name>
            <description/>
            <Point id="70">
                <coordinates>56.1148595,57.9902365,0.0</coordinates>
            </Point>
        </Placemark>
        <Placemark id="73">
            <name>Заброшенная стройка (ru)</name>
            <description/>
            <Point id="72">
                <coordinates>56.1878424,58.038262,0.0</coordinates>
            </Point>
        </Placemark>
        <Placemark id="75">
            <name>Perm Zoo</name>
            <description/>
            <Point id="74">
                <coordinates>56.2368719,58.0168597,0.0</coordinates>
            </Point>
        </Placemark>
        <Placemark id="77">
            <name>Заброшенная ферма (ru)</name>
            <description/>
            <Point id="76">
                <coordinates>56.0641228,57.9265627,0.0</coordinates>
            </Point>
        </Placemark>
        <Placemark id="79">
            <name>Территория грибного цеха (ru)</name>
            <description/>
            <Point id="78">
                <coordinates>56.1179387,57.9411955,0.0</coordinates>
            </Point>
        </Placemark>
        <Placemark id="81">
            <name>Заброшенный учебный полигон (ru)</name>
            <description/>
            <Point id="80">
                <coordinates>56.0915779,58.0526364,0.0</coordinates>
            </Point>
        </Placemark>
        <Placemark id="83">
            <name>ТЭЦ-17 (ru)</name>
            <description/>
            <Point id="82">
                <coordinates>55.9144985,57.9798877,0.0</coordinates>
            </Point>
        </Placemark>
        <Placemark id="85">
            <name>Заброшенный цех (ru)</name>
            <description/>
            <Point id="84">
                <coordinates>55.8503722,58.0437199,0.0</coordinates>
            </Point>
        </Placemark>
        <Placemark id="87">
            <name>Заброшенные разработки йодобромной рапы (ru)</name>
            <description/>
            <Point id="86">
                <coordinates>55.8525636,58.0310642,0.0</coordinates>
            </Point>
        </Placemark>
        <Placemark id="89">
            <name>Заброшенное здание (ru)</name>
            <description/>
            <Point id="88">
                <coordinates>56.166948,58.011295,0.0</coordinates>
            </Point>
        </Placemark>
        <Placemark id="91">
            <name>Производственный корпус (ru)</name>
            <description/>
            <Point id="90">
                <coordinates>56.1432158,57.941009,0.0</coordinates>
            </Point>
        </Placemark>
        <Placemark id="93">
            <name>Установка получения жирных спиртов. Кор 345 (ru)</name>
            <description/>
            <Point id="92">
                <coordinates>56.1813916,57.8715967,0.0</coordinates>
            </Point>
        </Placemark>
        <Placemark id="95">
            <name>Заброшенные сады (ru)</name>
            <description/>
            <Point id="94">
                <coordinates>56.0358563,58.0396406,0.0</coordinates>
            </Point>
        </Placemark>
        <Placemark id="97">
            <name>Бывший клуб Пермского ВАТУ (ru)</name>
            <description/>
            <Point id="96">
                <coordinates>56.2043326,57.9563204,0.0</coordinates>
            </Point>
        </Placemark>
        <Placemark id="99">
            <name>Недострой (ru)</name>
            <description/>
            <Point id="98">
                <coordinates>56.2057258,58.0019136,0.0</coordinates>
            </Point>
        </Placemark>
        <Placemark id="101">
            <name>Бывшая платформа (ru)</name>
            <description/>
            <Point id="100">
                <coordinates>56.0006565,58.0510158,0.0</coordinates>
            </Point>
        </Placemark>
        <Placemark id="103">
            <name>Пустующий автосалон (ru)</name>
            <description/>
            <Point id="102">
                <coordinates>56.0701297,57.9444273,0.0</coordinates>
            </Point>
        </Placemark>
        <Placemark id="105">
            <name>Бывшее здание заводоуправления (ru)</name>
            <description/>
            <Point id="104">
                <coordinates>55.9533556,58.0218649,0.0</coordinates>
            </Point>
        </Placemark>
        <Placemark id="107">
            <name>Бывшее разворотное кольцо троллейбуса № 1 (ru)</name>
            <description/>
            <Point id="106">
                <coordinates>56.2430681,57.9601754,0.0</coordinates>
            </Point>
        </Placemark>
        <Placemark id="109">
            <name>здание №41 (ru)</name>
            <description/>
            <Point id="108">
                <coordinates>55.8853685,57.9772263,0.0</coordinates>
            </Point>
        </Placemark>
        <Placemark id="111">
            <name>Затопленный котлован жилого дома (ru)</name>
            <description/>
            <Point id="110">
                <coordinates>56.1149695,57.9903493,0.0</coordinates>
            </Point>
        </Placemark>
        <Placemark id="113">
            <name>Затопленный котлован жилого дома (ru)</name>
            <description/>
            <Point id="112">
                <coordinates>56.1160027,57.9907509,0.0</coordinates>
            </Point>
        </Placemark>
        <Placemark id="115">
            <name>KIA motors</name>
            <description/>
            <Point id="114">
                <coordinates>56.1908385,58.037413,0.0</coordinates>
            </Point>
        </Placemark>
        <Placemark id="117">
            <name>Club of the Perm Military Institute</name>
            <description/>
            <Point id="116">
                <coordinates>56.2302223,58.0159754,0.0</coordinates>
            </Point>
        </Placemark>
        <Placemark id="119">
            <name>&quot;потерянный&quot; участок (ru)</name>
            <description/>
            <Point id="118">
                <coordinates>55.8269914,58.0307762,0.0</coordinates>
            </Point>
        </Placemark>
        <Placemark id="121">
            <name>Заброшенное здание (ru)</name>
            <description/>
            <Point id="120">
                <coordinates>55.9554049,58.0209991,0.0</coordinates>
            </Point>
        </Placemark>
        <Placemark id="123">
            <name>Пирс/причал бетонный (разрушенный) (ru)</name>
            <description/>
            <Point id="122">
                <coordinates>56.2150856,58.0229497,0.0</coordinates>
            </Point>
        </Placemark>
        <Placemark id="125">
            <name>зд. № 43 (ru)</name>
            <description/>
            <Point id="124">
                <coordinates>55.8827137,57.9777691,0.0</coordinates>
            </Point>
        </Placemark>
        <Placemark id="127">
            <name>Заброшенное здание (ru)</name>
            <description/>
            <Point id="126">
                <coordinates>56.145201,58.0054718,0.0</coordinates>
            </Point>
        </Placemark>
        <Placemark id="129">
            <name>Заброшенная школа (ru)</name>
            <description/>
            <Point id="128">
                <coordinates>56.1325648,57.9496898,0.0</coordinates>
            </Point>
        </Placemark>
        <Placemark id="131">
            <name>Заброшенная полоса препятствий (ru)</name>
            <description/>
            <Point id="130">
                <coordinates>56.0931953,58.0541635,0.0</coordinates>
            </Point>
        </Placemark>
        <Placemark id="133">
            <name>Щигровская ул. 10 (ru)</name>
            <description/>
            <Point id="132">
                <coordinates>55.9213856,57.9969858,0.0</coordinates>
            </Point>
        </Placemark>
        <Placemark id="135">
            <name>&quot;Крыша&quot; (ru)</name>
            <description/>
            <Point id="134">
                <coordinates>56.188041,58.0333137,0.0</coordinates>
            </Point>
        </Placemark>
        <Placemark id="137">
            <name>столовая №18 (ru)</name>
            <description/>
            <Point id="136">
                <coordinates>55.8883918,57.9829533,0.0</coordinates>
            </Point>
        </Placemark>
        <Placemark id="139">
            <name>здание №17б (ru)</name>
            <description/>
            <Point id="138">
                <coordinates>55.8863039,57.9788906,0.0</coordinates>
            </Point>
        </Placemark>
        <Placemark id="141">
            <name>Заброшенное здание (ru)</name>
            <description/>
            <Point id="140">
                <coordinates>55.9164264,58.0020904,0.0</coordinates>
            </Point>
        </Placemark>
        <Placemark id="143">
            <name>здание НииПМ (ru)</name>
            <description/>
            <Point id="142">
                <coordinates>55.8879316,57.9809626,0.0</coordinates>
            </Point>
        </Placemark>
        <Placemark id="145">
            <name>Заброшенное здание (ru)</name>
            <description/>
            <Point id="144">
                <coordinates>56.1705656,58.0118057,0.0</coordinates>
            </Point>
        </Placemark>
        <Placemark id="147">
            <name>ulitsa Romana Kashina, 65а</name>
            <description/>
            <Point id="146">
                <coordinates>55.9391842,57.8965125,0.0</coordinates>
            </Point>
        </Placemark>
        <Placemark id="149">
            <name>Участок старого Казанского тракта (ru)</name>
            <description/>
            <Point id="148">
                <coordinates>56.206422,57.9936997,0.0</coordinates>
            </Point>
        </Placemark>
        <Placemark id="151">
            <name>Руины (ru)</name>
            <description/>
            <Point id="150">
                <coordinates>55.9310235,57.9816809,0.0</coordinates>
            </Point>
        </Placemark>
        <Placemark id="153">
            <name>Заброшенная диспетчерская (ru)</name>
            <description/>
            <Point id="152">
                <coordinates>55.757659,58.0761923,0.0</coordinates>
            </Point>
        </Placemark>
        <Placemark id="155">
            <name>зд. №44Б (ru)</name>
            <description/>
            <Point id="154">
                <coordinates>55.883084,57.9747052,0.0</coordinates>
            </Point>
        </Placemark>
        <Placemark id="157">
            <name>Заброшенное здание (ru)</name>
            <description/>
            <Point id="156">
                <coordinates>55.7195555,57.9239591,0.0</coordinates>
            </Point>
        </Placemark>
        <Placemark id="159">
            <name>Заброшенный военкомат (ru)</name>
            <description/>
            <Point id="158">
                <coordinates>56.1748445,57.9725529,0.0</coordinates>
            </Point>
        </Placemark>
        <Placemark id="161">
            <name>Заброшенный жилой дом (ru)</name>
            <description/>
            <Point id="160">
                <coordinates>55.9422165,57.9990631,0.0</coordinates>
            </Point>
        </Placemark>
        <Placemark id="163">
            <name>Бывший противотуберкулезный диспансер (ru)</name>
            <description/>
            <Point id="162">
                <coordinates>56.2306236,57.9592534,0.0</coordinates>
            </Point>
        </Placemark>
        <Placemark id="165">
            <name>Недостроенный трансформатор (ru)</name>
            <description/>
            <Point id="164">
                <coordinates>56.211073,58.0517351,0.0</coordinates>
            </Point>
        </Placemark>
        <Placemark id="167">
            <name>Заброшенное здание (ru)</name>
            <description/>
            <Point id="166">
                <coordinates>56.1501037,57.996533,0.0</coordinates>
            </Point>
        </Placemark>
        <Placemark id="169">
            <name>ulitsa Mashinistov, 27</name>
            <description/>
            <Point id="168">
                <coordinates>56.1111151,58.0399296,0.0</coordinates>
            </Point>
        </Placemark>
        <Placemark id="171">
            <name>Заброшенный Дом быта. (ru)</name>
            <description/>
            <Point id="170">
                <coordinates>56.082748,58.0443824,0.0</coordinates>
            </Point>
        </Placemark>
        <Placemark id="173">
            <name>Закрытый ресторан &quot;Великая стена&quot; (ru)</name>
            <description/>
            <Point id="172">
                <coordinates>56.1165734,58.0030513,0.0</coordinates>
            </Point>
        </Placemark>
        <Placemark id="175">
            <name>Бывшая буровая установка (ru)</name>
            <description/>
            <Point id="174">
                <coordinates>55.8305062,58.0200872,0.0</coordinates>
            </Point>
        </Placemark>
        <Placemark id="177">
            <name>Неиспользуемая торговая площадь (ru)</name>
            <description/>
            <Point id="176">
                <coordinates>56.2345959,58.0148349,0.0</coordinates>
            </Point>
        </Placemark>
        <Placemark id="179">
            <name>зд. №44 (ru)</name>
            <description/>
            <Point id="178">
                <coordinates>55.8795668,57.9788608,0.0</coordinates>
            </Point>
        </Placemark>
        <Placemark id="181">
            <name>Одноэтажное деревянное здание (ru)</name>
            <description/>
            <Point id="180">
                <coordinates>56.0206817,58.0443022,0.0</coordinates>
            </Point>
        </Placemark>
        <Placemark id="183">
            <name>Заброшенное здание (ru)</name>
            <description/>
            <Point id="182">
                <coordinates>56.2181033,57.9536223,0.0</coordinates>
            </Point>
        </Placemark>
        <Placemark id="185">
            <name>Фундамент недостроенного пожарного депо (ru)</name>
            <description/>
            <Point id="184">
                <coordinates>55.8213598,57.8796263,0.0</coordinates>
            </Point>
        </Placemark>
        <Placemark id="187">
            <name>2х- этажное здание (ru)</name>
            <description/>
            <Point id="186">
                <coordinates>55.8960225,57.975713,0.0</coordinates>
            </Point>
        </Placemark>
        <Placemark id="189">
            <name>Фонтан (ru)</name>
            <description/>
            <Point id="188">
                <coordinates>56.2186704,58.0144357,0.0</coordinates>
            </Point>
        </Placemark>
        <Placemark id="191">
            <name>Магазин (ru)</name>
            <description/>
            <Point id="190">
                <coordinates>56.1122336,58.0040162,0.0</coordinates>
            </Point>
        </Placemark>
        <Placemark id="193">
            <name>Старые паровозы, требующие ремонта (ru)</name>
            <description/>
            <Point id="192">
                <coordinates>56.1640595,58.005378,0.0</coordinates>
            </Point>
        </Placemark>
        <Placemark id="195">
            <name>Здание (ru)</name>
            <description/>
            <Point id="194">
                <coordinates>56.2253303,58.0456096,0.0</coordinates>
            </Point>
        </Placemark>
        <Placemark id="197">
            <name>теплица (ru)</name>
            <description/>
            <Point id="196">
                <coordinates>55.8870634,57.9787203,0.0</coordinates>
            </Point>
        </Placemark>
        <Placemark id="199">
            <name>Восход-42 (ru)</name>
            <description/>
            <Point id="198">
                <coordinates>56.0366544,58.0258236,0.0</coordinates>
            </Point>
        </Placemark>
        <Placemark id="201">
            <name>Баня (ru)</name>
            <description/>
            <Point id="200">
                <coordinates>56.0777673,57.946433,0.0</coordinates>
            </Point>
        </Placemark>
        <Placemark id="203">
            <name>Неработающий фонтан (ru)</name>
            <description/>
            <Point id="202">
                <coordinates>55.9325387,57.9941279,0.0</coordinates>
            </Point>
        </Placemark>
        <Placemark id="205">
            <name>Здание бывшей трамвайной диспетчерской на трамвайном кольце ост Химкомплекс (ru)</name>
            <description/>
            <Point id="204">
                <coordinates>56.1827919,57.8754037,0.0</coordinates>
            </Point>
        </Placemark>
        <Placemark id="207">
            <name>МиГ-25ПУ (ru)</name>
            <description/>
            <Point id="206">
                <coordinates>56.1246536,57.9575755,0.0</coordinates>
            </Point>
        </Placemark>
        <Placemark id="209">
            <name>Бывший цех № 22 (ru)</name>
            <description/>
            <Point id="208">
                <coordinates>56.1926113,58.0133935,0.0</coordinates>
            </Point>
        </Placemark>
        <Placemark id="211">
            <name>Теплоход &quot;Восход-18&quot; (ru)</name>
            <description/>
            <Point id="210">
                <coordinates>56.0370392,58.0260722,0.0</coordinates>
            </Point>
        </Placemark>
        <Placemark id="213">
            <name>Заброшенное здание (ru)</name>
            <description/>
            <Point id="212">
                <coordinates>56.0538768,57.931207,0.0</coordinates>
            </Point>
        </Placemark>
        <Placemark id="215">
            <name>Одноэтажное деревянное здание (ru)</name>
            <description/>
            <Point id="214">
                <coordinates>56.019963,58.0405053,0.0</coordinates>
            </Point>
        </Placemark>
        <Placemark id="217">
            <name>Большой подземный бункер (ru)</name>
            <description/>
            <Point id="216">
                <coordinates>56.0209956,58.039554,0.0</coordinates>
            </Point>
        </Placemark>
        <Placemark id="219">
            <name>Заброшенное здание (ru)</name>
            <description/>
            <Point id="218">
                <coordinates>55.738335,58.0732417,0.0</coordinates>
            </Point>
        </Placemark>
        <Placemark id="221">
            <name>Заброшенное здание (ru)</name>
            <description/>
            <Point id="220">
                <coordinates>56.2174971,57.9535881,0.0</coordinates>
            </Point>
        </Placemark>
        <Placemark id="223">
            <name>Бывшая диспетчерская АМА «Бахаревка» (ru)</name>
            <description/>
            <Point id="222">
                <coordinates>56.1995651,57.9528697,0.0</coordinates>
            </Point>
        </Placemark>
        <Placemark id="225">
            <name>ulitsa Bortsov Revolyutsii, 152/1</name>
            <description/>
            <Point id="224">
                <coordinates>56.2180763,58.0278688,0.0</coordinates>
            </Point>
        </Placemark>
        <Placemark id="227">
            <name>МиГ-29 (ru)</name>
            <description/>
            <Point id="226">
                <coordinates>56.1254742,57.957143,0.0</coordinates>
            </Point>
        </Placemark>
        <Placemark id="229">
            <name>Ан-2Т (ru)</name>
            <description/>
            <Point id="228">
                <coordinates>56.2467008,57.8995783,0.0</coordinates>
            </Point>
        </Placemark>
        <Placemark id="231">
            <name>Малый подземный бункер (ru)</name>
            <description/>
            <Point id="230">
                <coordinates>56.0204458,58.0394334,0.0</coordinates>
            </Point>
        </Placemark>
        <Placemark id="233">
            <name>Ан-2Т (ru)</name>
            <description/>
            <Point id="232">
                <coordinates>56.246352,57.8995774,0.0</coordinates>
            </Point>
        </Placemark>
        <Placemark id="235">
            <name>Antonov An-2</name>
            <description/>
            <Point id="234">
                <coordinates>56.2461462,57.8991698,0.0</coordinates>
            </Point>
        </Placemark>
        <Placemark id="237">
            <name>Бескрылый Су-27 (ru)</name>
            <description/>
            <Point id="236">
                <coordinates>56.1253403,57.9573379,0.0</coordinates>
            </Point>
        </Placemark>
        <Placemark id="239">
            <name>Неработающий фонтан (ru)</name>
            <description/>
            <Point id="238">
                <coordinates>56.1846358,57.97615,0.0</coordinates>
            </Point>
        </Placemark>
        <Placemark id="241">
            <name>Недействующая трамваная остановка «Петропавловская улица» (ru)</name>
            <description/>
            <Point id="240">
                <coordinates>56.2483518,58.0159423,0.0</coordinates>
            </Point>
        </Placemark>
        <Placemark id="243">
            <name>Заброшенный катер (ru)</name>
            <description/>
            <Point id="242">
                <coordinates>56.0536676,58.0307638,0.0</coordinates>
            </Point>
        </Placemark>
        <Placemark id="245">
            <name>Заброшенный переездный пост (ru)</name>
            <description/>
            <Point id="244">
                <coordinates>55.7871621,58.0709274,0.0</coordinates>
            </Point>
        </Placemark>
        <Placemark id="247">
            <name>Ми-8 (ru)</name>
            <description/>
            <Point id="246">
                <coordinates>56.1247269,57.9574547,0.0</coordinates>
            </Point>
        </Placemark>
        <Placemark id="249">
            <name>Заброшенное убежище гражданской обороны (ru)</name>
            <description/>
            <Point id="248">
                <coordinates>56.10839,58.0407154,0.0</coordinates>
            </Point>
        </Placemark>
        <Placemark id="251">
            <name>Ми-24А (ru)</name>
            <description/>
            <Point id="250">
                <coordinates>56.1247938,57.957642,0.0</coordinates>
            </Point>
        </Placemark>
        <Placemark id="253">
            <name>Ми-2 (ru)</name>
            <description/>
            <Point id="252">
                <coordinates>56.1246939,57.9576319,0.0</coordinates>
            </Point>
        </Placemark>
        <Placemark id="255">
            <name>Заброшенное бомбоубежище (ru)</name>
            <description/>
            <Point id="254">
                <coordinates>55.9576552,58.0040688,0.0</coordinates>
            </Point>
        </Placemark>
    </Document>
</kml>
