<?xml version="1.0" encoding="UTF-8"?>
<kml xmlns="http://www.opengis.net/kml/2.2" xmlns:gx="http://www.google.com/kml/ext/2.2">
    <Document id="151">
        <Placemark id="153">
            <name>Развалины ОРЛР (ru)</name>
            <description/>
            <Point id="152">
                <coordinates>103.4663434,52.9305308,0.0</coordinates>
            </Point>
        </Placemark>
        <Placemark id="155">
            <name>Золоотвал ТЭЦ (ru)</name>
            <description/>
            <Point id="154">
                <coordinates>103.634591,52.8024885,0.0</coordinates>
            </Point>
        </Placemark>
        <Placemark id="157">
            <name>Бывшее спецхранилище боеприпасов БО (ru)</name>
            <description/>
            <Point id="156">
                <coordinates>103.4790658,52.806463,0.0</coordinates>
            </Point>
        </Placemark>
        <Placemark id="159">
            <name>Новомальтинский завод стройматериалов (ru)</name>
            <description/>
            <Point id="158">
                <coordinates>103.5454236,52.8623676,0.0</coordinates>
            </Point>
        </Placemark>
        <Placemark id="161">
            <name>Неиспользуемые стоянки самолётов (ru)</name>
            <description/>
            <Point id="160">
                <coordinates>103.5670208,52.9315506,0.0</coordinates>
            </Point>
        </Placemark>
        <Placemark id="163">
            <name>Бывший деревообрабатывающий комбинат (ru)</name>
            <description/>
            <Point id="162">
                <coordinates>103.6700445,52.7750449,0.0</coordinates>
            </Point>
        </Placemark>
        <Placemark id="165">
            <name>Пионерлагерь Таежный (ru)</name>
            <description/>
            <Point id="164">
                <coordinates>103.5925273,52.8224684,0.0</coordinates>
            </Point>
        </Placemark>
        <Placemark id="167">
            <name>Развалины ОРЛР (ru)</name>
            <description/>
            <Point id="166">
                <coordinates>103.4678542,52.9282506,0.0</coordinates>
            </Point>
        </Placemark>
        <Placemark id="169">
            <name>Бывшая в/ч 12552 (ru)</name>
            <description/>
            <Point id="168">
                <coordinates>103.4471585,52.9216338,0.0</coordinates>
            </Point>
        </Placemark>
        <Placemark id="171">
            <name>Бывшая уткоферма (СХАО Белореченское) (ru)</name>
            <description/>
            <Point id="170">
                <coordinates>103.4974872,52.8219563,0.0</coordinates>
            </Point>
        </Placemark>
        <Placemark id="173">
            <name>Санаторий (ru)</name>
            <description/>
            <Point id="172">
                <coordinates>103.6466006,52.8822794,0.0</coordinates>
            </Point>
        </Placemark>
        <Placemark id="175">
            <name>Заброшенное хранилище биологических боеприпасов (ru)</name>
            <description/>
            <Point id="174">
                <coordinates>103.4759491,52.8066237,0.0</coordinates>
            </Point>
        </Placemark>
        <Placemark id="177">
            <name>Заброшенная позиция С-75, предположительно запасная (ru)</name>
            <description/>
            <Point id="176">
                <coordinates>103.4409866,52.92838,0.0</coordinates>
            </Point>
        </Placemark>
        <Placemark id="179">
            <name>Заброшенный кирпичный завод (ru)</name>
            <description/>
            <Point id="178">
                <coordinates>103.6437695,52.7466062,0.0</coordinates>
            </Point>
        </Placemark>
        <Placemark id="181">
            <name>Паром (ru)</name>
            <description/>
            <Point id="180">
                <coordinates>103.6557482,52.9021205,0.0</coordinates>
            </Point>
        </Placemark>
        <Placemark id="183">
            <name>Бывший Усольский пивоваренный завод (ru)</name>
            <description/>
            <Point id="182">
                <coordinates>103.657363,52.7580628,0.0</coordinates>
            </Point>
        </Placemark>
        <Placemark id="185">
            <name>Заброшенное убежище ГО (ru)</name>
            <description/>
            <Point id="184">
                <coordinates>103.5893328,52.7914057,0.0</coordinates>
            </Point>
        </Placemark>
        <Placemark id="187">
            <name>Бывшая железнодорожная станция (ru)</name>
            <description/>
            <Point id="186">
                <coordinates>103.4763299,52.8074263,0.0</coordinates>
            </Point>
        </Placemark>
        <Placemark id="189">
            <name>Бывший цех № 94, ООО «Усолье-Сибирский Силикон» (ru)</name>
            <description/>
            <Point id="188">
                <coordinates>103.6164217,52.7873408,0.0</coordinates>
            </Point>
        </Placemark>
        <Placemark id="191">
            <name>Заброшенный цех № 179 «Кристалл» (ru)</name>
            <description/>
            <Point id="190">
                <coordinates>103.6207562,52.7841175,0.0</coordinates>
            </Point>
        </Placemark>
        <Placemark id="193">
            <name>Бункер (ru)</name>
            <description/>
            <Point id="192">
                <coordinates>103.4752061,52.8081542,0.0</coordinates>
            </Point>
        </Placemark>
        <Placemark id="195">
            <name>Заброшенный двухэтажный подземный бункер (ru)</name>
            <description/>
            <Point id="194">
                <coordinates>103.4853744,52.804151,0.0</coordinates>
            </Point>
        </Placemark>
        <Placemark id="197">
            <name>Нерабочие отстойники (ru)</name>
            <description/>
            <Point id="196">
                <coordinates>103.6441638,52.7980358,0.0</coordinates>
            </Point>
        </Placemark>
        <Placemark id="199">
            <name>Бывшая градирня (ru)</name>
            <description/>
            <Point id="198">
                <coordinates>103.4730067,52.8085612,0.0</coordinates>
            </Point>
        </Placemark>
        <Placemark id="201">
            <name>Заброшенный бункер (ru)</name>
            <description/>
            <Point id="200">
                <coordinates>103.8564673,52.8103155,0.0</coordinates>
            </Point>
        </Placemark>
        <Placemark id="203">
            <name>Заброшенный детский сад № 24 (ru)</name>
            <description/>
            <Point id="202">
                <coordinates>103.6560896,52.736079,0.0</coordinates>
            </Point>
        </Placemark>
        <Placemark id="205">
            <name>Бывший детский сад (ru)</name>
            <description/>
            <Point id="204">
                <coordinates>103.489914,52.8123031,0.0</coordinates>
            </Point>
        </Placemark>
        <Placemark id="207">
            <name>Заброшенный дом культуры «Машиностроитель» (ru)</name>
            <description/>
            <Point id="206">
                <coordinates>103.6601525,52.7451067,0.0</coordinates>
            </Point>
        </Placemark>
        <Placemark id="209">
            <name>Заброшенный дом (ru)</name>
            <description/>
            <Point id="208">
                <coordinates>103.484272,52.8827407,0.0</coordinates>
            </Point>
        </Placemark>
        <Placemark id="211">
            <name>Заброшенный штаб ГО ООО «Усольехимпром» (ru)</name>
            <description/>
            <Point id="210">
                <coordinates>103.606478,52.771436,0.0</coordinates>
            </Point>
        </Placemark>
        <Placemark id="213">
            <name>Руины (ru)</name>
            <description/>
            <Point id="212">
                <coordinates>103.6045074,52.7945896,0.0</coordinates>
            </Point>
        </Placemark>
        <Placemark id="215">
            <name>Основной корпус (ru)</name>
            <description/>
            <Point id="214">
                <coordinates>103.6466355,52.8808478,0.0</coordinates>
            </Point>
        </Placemark>
        <Placemark id="217">
            <name>Бывшая станция нейтрализации (ru)</name>
            <description/>
            <Point id="216">
                <coordinates>103.6433605,52.7987162,0.0</coordinates>
            </Point>
        </Placemark>
        <Placemark id="219">
            <name>Бассейн (ru)</name>
            <description/>
            <Point id="218">
                <coordinates>103.5942908,52.8251396,0.0</coordinates>
            </Point>
        </Placemark>
        <Placemark id="221">
            <name>Здания недействующего водозабора (ru)</name>
            <description/>
            <Point id="220">
                <coordinates>103.6775895,52.7824027,0.0</coordinates>
            </Point>
        </Placemark>
        <Placemark id="223">
            <name>Корпус №1 (ru)</name>
            <description/>
            <Point id="222">
                <coordinates>103.6454781,52.8817623,0.0</coordinates>
            </Point>
        </Placemark>
        <Placemark id="225">
            <name>КПП (ru)</name>
            <description/>
            <Point id="224">
                <coordinates>103.4866739,52.8063229,0.0</coordinates>
            </Point>
        </Placemark>
        <Placemark id="227">
            <name>Каменная водопропускная труба в насыпи 1-го пути Транссиба (ru)</name>
            <description/>
            <Point id="226">
                <coordinates>103.4113896,52.9009815,0.0</coordinates>
            </Point>
        </Placemark>
        <Placemark id="229">
            <name>Столовая (ru)</name>
            <description/>
            <Point id="228">
                <coordinates>103.64661,52.8811303,0.0</coordinates>
            </Point>
        </Placemark>
        <Placemark id="231">
            <name>Заброшенное бомбоубежище (ru)</name>
            <description/>
            <Point id="230">
                <coordinates>103.6442376,52.7511206,0.0</coordinates>
            </Point>
        </Placemark>
        <Placemark id="233">
            <name>Заброшенный корабль. (ru)</name>
            <description/>
            <Point id="232">
                <coordinates>103.6650501,52.7406235,0.0</coordinates>
            </Point>
        </Placemark>
        <Placemark id="235">
            <name>Антенна № 2 (ru)</name>
            <description/>
            <Point id="234">
                <coordinates>103.4771962,52.806357,0.0</coordinates>
            </Point>
        </Placemark>
        <Placemark id="237">
            <name>Антенна № 3 (ru)</name>
            <description/>
            <Point id="236">
                <coordinates>103.4750773,52.8075406,0.0</coordinates>
            </Point>
        </Placemark>
        <Placemark id="239">
            <name>Склад № 2 (ru)</name>
            <description/>
            <Point id="238">
                <coordinates>103.4734667,52.8057076,0.0</coordinates>
            </Point>
        </Placemark>
        <Placemark id="241">
            <name>Трансформаторная будка (ru)</name>
            <description/>
            <Point id="240">
                <coordinates>103.643559,52.7982183,0.0</coordinates>
            </Point>
        </Placemark>
        <Placemark id="243">
            <name>Антенна № 1 (Самая высокая) (ru)</name>
            <description/>
            <Point id="242">
                <coordinates>103.4753012,52.8061672,0.0</coordinates>
            </Point>
        </Placemark>
        <Placemark id="245">
            <name>Заброшенная дымовая труба (ru)</name>
            <description/>
            <Point id="244">
                <coordinates>103.6164727,52.7839844,0.0</coordinates>
            </Point>
        </Placemark>
        <Placemark id="247">
            <name>Вход в заброшенное бомбоубежище со стрельбищем (ru)</name>
            <description/>
            <Point id="246">
                <coordinates>103.6061821,52.7713158,0.0</coordinates>
            </Point>
        </Placemark>
    </Document>
</kml>
