<?xml version="1.0" encoding="UTF-8"?>
<kml xmlns="http://www.opengis.net/kml/2.2" xmlns:gx="http://www.google.com/kml/ext/2.2">
    <Document id="45">
        <Placemark id="47">
            <name>Бомбоубежище (ru)</name>
            <description/>
            <Point id="46">
                <coordinates>82.9915541,55.0667897,0.0</coordinates>
            </Point>
        </Placemark>
        <Placemark id="49">
            <name>Убежище (ru)</name>
            <description/>
            <Point id="48">
                <coordinates>82.9823058,55.0348128,0.0</coordinates>
            </Point>
        </Placemark>
        <Placemark id="51">
            <name>Бомбоубежище (ru)</name>
            <description/>
            <Point id="50">
                <coordinates>82.9875495,55.1103154,0.0</coordinates>
            </Point>
        </Placemark>
        <Placemark id="53">
            <name>Убежище ГО (ru)</name>
            <description/>
            <Point id="52">
                <coordinates>82.971003,55.0721051,0.0</coordinates>
            </Point>
        </Placemark>
        <Placemark id="55">
            <name>Бомбоубежище (ru)</name>
            <description/>
            <Point id="54">
                <coordinates>82.9867006,55.0217605,0.0</coordinates>
            </Point>
        </Placemark>
        <Placemark id="57">
            <name>Бомбоубежище (ru)</name>
            <description/>
            <Point id="56">
                <coordinates>82.9891347,55.0653475,0.0</coordinates>
            </Point>
        </Placemark>
    </Document>
</kml>
