<?xml version="1.0" encoding="UTF-8"?>
<kml xmlns="http://www.opengis.net/kml/2.2" xmlns:gx="http://www.google.com/kml/ext/2.2">
    <Document id="929">
        <Placemark id="931">
            <name>Cклад мебели фирмы «Аргус» (ru)</name>
            <description/>
            <Point id="930">
                <coordinates>83.7457053,53.3912371,0.0</coordinates>
            </Point>
        </Placemark>
        <Placemark id="933">
            <name>Офисное здание (ru)</name>
            <description/>
            <Point id="932">
                <coordinates>83.7456023,53.3888019,0.0</coordinates>
            </Point>
        </Placemark>
        <Placemark id="935">
            <name>Административно-офисное здание (ru)</name>
            <description/>
            <Point id="934">
                <coordinates>83.7461012,53.3890064,0.0</coordinates>
            </Point>
        </Placemark>
        <Placemark id="937">
            <name>Заброшенное бомбоубежище (ru)</name>
            <description/>
            <Point id="936">
                <coordinates>83.7372189,53.3807188,0.0</coordinates>
            </Point>
        </Placemark>
        <Placemark id="939">
            <name>Бомбоубежище администрации Ленинского района (ru)</name>
            <description/>
            <Point id="938">
                <coordinates>83.6908703,53.3674134,0.0</coordinates>
            </Point>
        </Placemark>
        <Placemark id="941">
            <name>Подземное строение (ru)</name>
            <description/>
            <Point id="940">
                <coordinates>83.6505017,53.3886505,0.0</coordinates>
            </Point>
        </Placemark>
        <Placemark id="943">
            <name>Убежище (ru)</name>
            <description/>
            <Point id="942">
                <coordinates>83.7694403,53.3526061,0.0</coordinates>
            </Point>
        </Placemark>
        <Placemark id="945">
            <name>Убежище гражданской обороны (ru)</name>
            <description/>
            <Point id="944">
                <coordinates>83.7741971,53.364515,0.0</coordinates>
            </Point>
        </Placemark>
        <Placemark id="947">
            <name>Убежище №16 ТЭЦ 1 (ru)</name>
            <description/>
            <Point id="946">
                <coordinates>83.767552,53.3739331,0.0</coordinates>
            </Point>
        </Placemark>
        <Placemark id="949">
            <name>Вход в убежище (ru)</name>
            <description/>
            <Point id="948">
                <coordinates>83.7930916,53.3721577,0.0</coordinates>
            </Point>
        </Placemark>
        <Placemark id="951">
            <name>Бомбоубежище завода алюминиевого литья (ru)</name>
            <description/>
            <Point id="950">
                <coordinates>83.727001,53.3915945,0.0</coordinates>
            </Point>
        </Placemark>
        <Placemark id="953">
            <name>Бомбоубежище  ЖКО КХВ №4 (ru)</name>
            <description/>
            <Point id="952">
                <coordinates>83.7732946,53.3533594,0.0</coordinates>
            </Point>
        </Placemark>
        <Placemark id="955">
            <name>Убежище Сибпромжелдортранса (ru)</name>
            <description/>
            <Point id="954">
                <coordinates>83.7483219,53.3828875,0.0</coordinates>
            </Point>
        </Placemark>
        <Placemark id="957">
            <name>Бомбоубежище (ru)</name>
            <description/>
            <Point id="956">
                <coordinates>83.669143,53.3922415,0.0</coordinates>
            </Point>
        </Placemark>
        <Placemark id="959">
            <name>Вход в убежище № 37 (ru)</name>
            <description/>
            <Point id="958">
                <coordinates>83.7553532,53.3787317,0.0</coordinates>
            </Point>
        </Placemark>
        <Placemark id="961">
            <name>Убежище № 1 ТЭЦ-2 (ru)</name>
            <description/>
            <Point id="960">
                <coordinates>83.7481891,53.3831781,0.0</coordinates>
            </Point>
        </Placemark>
        <Placemark id="963">
            <name>Спуск в заброшенное бомбоубежище (ru)</name>
            <description/>
            <Point id="962">
                <coordinates>83.7279746,53.3809516,0.0</coordinates>
            </Point>
        </Placemark>
        <Placemark id="965">
            <name>Оголовок аварийного выхода бомбоубежища (ru)</name>
            <description/>
            <Point id="964">
                <coordinates>83.7654131,53.3659893,0.0</coordinates>
            </Point>
        </Placemark>
        <Placemark id="967">
            <name>Заброшенный вход в бомбоубежище (ru)</name>
            <description/>
            <Point id="966">
                <coordinates>83.7154058,53.3898814,0.0</coordinates>
            </Point>
        </Placemark>
        <Placemark id="969">
            <name>бомбоубежище РЖД (ru)</name>
            <description/>
            <Point id="968">
                <coordinates>83.7581706,53.35282,0.0</coordinates>
            </Point>
        </Placemark>
        <Placemark id="971">
            <name>Вентшахта Бомбоубежища Администрации Алтайского края. (ru)</name>
            <description/>
            <Point id="970">
                <coordinates>83.7755275,53.3468663,0.0</coordinates>
            </Point>
        </Placemark>
        <Placemark id="973">
            <name>Вентшахта бомбоубежища (ru)</name>
            <description/>
            <Point id="972">
                <coordinates>83.7247095,53.3784858,0.0</coordinates>
            </Point>
        </Placemark>
        <Placemark id="975">
            <name>Бомбоубежище (ru)</name>
            <description/>
            <Point id="974">
                <coordinates>83.7735745,53.3699529,0.0</coordinates>
            </Point>
        </Placemark>
        <Placemark id="977">
            <name>Вход в бомбоубежище (ru)</name>
            <description/>
            <Point id="976">
                <coordinates>83.669135,53.3922375,0.0</coordinates>
            </Point>
        </Placemark>
    </Document>
</kml>
