<?xml version="1.0" encoding="UTF-8"?>
<kml xmlns="http://www.opengis.net/kml/2.2" xmlns:gx="http://www.google.com/kml/ext/2.2">
    <Document id="277">
        <Placemark id="279">
            <name>Заброшенное убежище гражданской обороны № 2 бывшего Читинского камвольно-суконного комбината (ru)</name>
            <description/>
            <Point id="278">
                <coordinates>113.3910082,52.0858963,0.0</coordinates>
            </Point>
        </Placemark>
        <Placemark id="281">
            <name>Центральное убежище Главного управления МЧС России по Забайкальскому краю (ru)</name>
            <description/>
            <Point id="280">
                <coordinates>113.4923881,52.0391072,0.0</coordinates>
            </Point>
        </Placemark>
        <Placemark id="283">
            <name>Техникум железнодорожного транспорта (ru)</name>
            <description/>
            <Point id="282">
                <coordinates>113.4945995,52.0304247,0.0</coordinates>
            </Point>
        </Placemark>
        <Placemark id="285">
            <name>Забайкальский институт предпринимательства (ru)</name>
            <description/>
            <Point id="284">
                <coordinates>113.4988199,52.0289471,0.0</coordinates>
            </Point>
        </Placemark>
        <Placemark id="287">
            <name>Затопленное бомбоубежище (ru)</name>
            <description/>
            <Point id="286">
                <coordinates>113.3489727,52.0981116,0.0</coordinates>
            </Point>
        </Placemark>
        <Placemark id="289">
            <name>Заброшенное убежище гражданской обороны № 1 бывшего Читинского камвольно-суконного комбината (ru)</name>
            <description/>
            <Point id="288">
                <coordinates>113.3878084,52.08749,0.0</coordinates>
            </Point>
        </Placemark>
        <Placemark id="291">
            <name>Убежище ГО (ru)</name>
            <description/>
            <Point id="290">
                <coordinates>113.5027799,52.0477035,0.0</coordinates>
            </Point>
        </Placemark>
        <Placemark id="293">
            <name>Поддомное бомбоубежище (ru)</name>
            <description/>
            <Point id="292">
                <coordinates>113.3569309,52.0627946,0.0</coordinates>
            </Point>
        </Placemark>
        <Placemark id="295">
            <name>Убежище гражданской обороны (ru)</name>
            <description/>
            <Point id="294">
                <coordinates>113.5071962,52.0469134,0.0</coordinates>
            </Point>
        </Placemark>
        <Placemark id="297">
            <name>Убежище гражданской обороны (ru)</name>
            <description/>
            <Point id="296">
                <coordinates>113.5127591,52.0140463,0.0</coordinates>
            </Point>
        </Placemark>
        <Placemark id="299">
            <name>Вентиляционная шахта бомбоубежища. (ru)</name>
            <description/>
            <Point id="298">
                <coordinates>113.4978849,52.0285859,0.0</coordinates>
            </Point>
        </Placemark>
    </Document>
</kml>
