<?xml version="1.0" encoding="UTF-8"?>
<kml xmlns="http://www.opengis.net/kml/2.2" xmlns:gx="http://www.google.com/kml/ext/2.2">
    <Document id="147">
        <Placemark id="149">
            <name>Заброшенная пашня (ru)</name>
            <description/>
            <Point id="148">
                <coordinates>130.988295,62.1186064,0.0</coordinates>
            </Point>
        </Placemark>
        <Placemark id="151">
            <name>Заброшенная пашня (ru)</name>
            <description/>
            <Point id="150">
                <coordinates>130.9961861,62.1105478,0.0</coordinates>
            </Point>
        </Placemark>
        <Placemark id="153">
            <name>Заброшенная пашня (ru)</name>
            <description/>
            <Point id="152">
                <coordinates>130.9952257,62.1103168,0.0</coordinates>
            </Point>
        </Placemark>
        <Placemark id="155">
            <name>Заброшенная пашня (ru)</name>
            <description/>
            <Point id="154">
                <coordinates>130.9978007,62.1087386,0.0</coordinates>
            </Point>
        </Placemark>
        <Placemark id="157">
            <name>Развалины зверофермы (ru)</name>
            <description/>
            <Point id="156">
                <coordinates>131.0253658,62.1457504,0.0</coordinates>
            </Point>
        </Placemark>
    </Document>
</kml>
