<?xml version="1.0" encoding="UTF-8"?>
<kml xmlns="http://www.opengis.net/kml/2.2" xmlns:gx="http://www.google.com/kml/ext/2.2">
    <Document id="1">
        <Placemark id="3">
            <name>Районное бомбоубежище (ru)</name>
            <description/>
            <Point id="2">
                <coordinates>53.2142865,56.8750066,0.0</coordinates>
            </Point>
        </Placemark>
        <Placemark id="5">
            <name>Хранилище (ru)</name>
            <description/>
            <Point id="4">
                <coordinates>53.2595487,56.9030298,0.0</coordinates>
            </Point>
        </Placemark>
        <Placemark id="7">
            <name>Защитное сооружение административного комплекса пищекомбината (ru)</name>
            <description/>
            <Point id="6">
                <coordinates>53.2964331,56.8855079,0.0</coordinates>
            </Point>
        </Placemark>
        <Placemark id="9">
            <name>Бомбоубежище (ru)</name>
            <description/>
            <Point id="8">
                <coordinates>53.2237601,56.864012,0.0</coordinates>
            </Point>
        </Placemark>
        <Placemark id="11">
            <name>Заброшенное бомбоубежище (ru)</name>
            <description/>
            <Point id="10">
                <coordinates>53.1425051,56.8403346,0.0</coordinates>
            </Point>
        </Placemark>
        <Placemark id="13">
            <name>Air raid shelter</name>
            <description/>
            <Point id="12">
                <coordinates>53.1970829,56.8430032,0.0</coordinates>
            </Point>
        </Placemark>
        <Placemark id="15">
            <name>Бомбоубежище ДСК (ru)</name>
            <description/>
            <Point id="14">
                <coordinates>53.1898368,56.8290869,0.0</coordinates>
            </Point>
        </Placemark>
        <Placemark id="17">
            <name>Бомбоубежище (ru)</name>
            <description/>
            <Point id="16">
                <coordinates>53.182961,56.8885564,0.0</coordinates>
            </Point>
        </Placemark>
        <Placemark id="19">
            <name>Заброшенное бомбоубежище (ru)</name>
            <description/>
            <Point id="18">
                <coordinates>53.185961,56.7940469,0.0</coordinates>
            </Point>
        </Placemark>
        <Placemark id="21">
            <name>Бомбоубежище (ru)</name>
            <description/>
            <Point id="20">
                <coordinates>53.2190018,56.8458527,0.0</coordinates>
            </Point>
        </Placemark>
        <Placemark id="23">
            <name>Бомбоубежище (ru)</name>
            <description/>
            <Point id="22">
                <coordinates>53.1634451,56.8419132,0.0</coordinates>
            </Point>
        </Placemark>
    </Document>
</kml>
