<?xml version="1.0" encoding="UTF-8"?>
<kml xmlns="http://www.opengis.net/kml/2.2" xmlns:gx="http://www.google.com/kml/ext/2.2">
    <Document id="127">
        <Placemark id="129">
            <name>Урочище  Многообещающая Коса ( МОК ) (ru)</name>
            <description/>
            <Point id="128">
                <coordinates>115.7617592,56.071109,0.0</coordinates>
            </Point>
        </Placemark>
        <Placemark id="131">
            <name>Заброшенный гравийный карьер (ru)</name>
            <description/>
            <Point id="130">
                <coordinates>115.7937686,56.228013,0.0</coordinates>
            </Point>
        </Placemark>
        <Placemark id="133">
            <name>Заброшенный аэродром Бамбуйка (ru)</name>
            <description/>
            <Point id="132">
                <coordinates>115.8010351,55.7946828,0.0</coordinates>
            </Point>
        </Placemark>
    </Document>
</kml>
