<?xml version="1.0" encoding="UTF-8"?>
<kml xmlns="http://www.opengis.net/kml/2.2" xmlns:gx="http://www.google.com/kml/ext/2.2">
    <Document id="737">
        <Placemark id="739">
            <name>Недействующая (заброшенная) 5 Погранзастава «Тарабаровская» Хабаровского погранотряда (ru)</name>
            <description/>
            <Point id="738">
                <coordinates>134.539867,48.3669846,0.0</coordinates>
            </Point>
        </Placemark>
        <Placemark id="741">
            <name>Недействующая вертолётная площадка Луговое (ru)</name>
            <description/>
            <Point id="740">
                <coordinates>133.9778369,48.3247974,0.0</coordinates>
            </Point>
        </Placemark>
    </Document>
</kml>
