<?xml version="1.0" encoding="UTF-8"?>
<kml xmlns="http://www.opengis.net/kml/2.2" xmlns:gx="http://www.google.com/kml/ext/2.2">
    <Document id="321">
        <Placemark id="323">
            <name>Dismantled UR-100K (SS-11 Sego) ICBM Silo (43J)</name>
            <description/>
            <Point id="322">
                <coordinates>113.2807856,51.3204845,0.0</coordinates>
            </Point>
        </Placemark>
        <Placemark id="325">
            <name>Dismantled UR-100K (SS-11 Sego) ICBM Silo (39J)</name>
            <description/>
            <Point id="324">
                <coordinates>113.4375286,51.365243,0.0</coordinates>
            </Point>
        </Placemark>
        <Placemark id="327">
            <name>Dismantled UR-100K (SS-11 Sego) ICBM Silo (42J)</name>
            <description/>
            <Point id="326">
                <coordinates>113.3473151,51.349398,0.0</coordinates>
            </Point>
        </Placemark>
        <Placemark id="329">
            <name>Dismantled UR-100K (SS-11 Sego) ICBM Silo (55K)</name>
            <description/>
            <Point id="328">
                <coordinates>113.2066956,51.4202335,0.0</coordinates>
            </Point>
        </Placemark>
    </Document>
</kml>
