<?xml version="1.0" encoding="UTF-8"?>
<kml xmlns="http://www.opengis.net/kml/2.2" xmlns:gx="http://www.google.com/kml/ext/2.2">
    <Document id="355">
        <Placemark id="357">
            <name>Заброшенное садоводство (ru)</name>
            <description/>
            <Point id="356">
                <coordinates>137.2963599,50.3938494,0.0</coordinates>
            </Point>
        </Placemark>
        <Placemark id="359">
            <name>&quot;DUGA 2&quot; OTH radar -  Komsomolsk-na-Amure &quot;Woodpecker&quot; Receiver</name>
            <description/>
            <Point id="358">
                <coordinates>137.3250581,50.3858931,0.0</coordinates>
            </Point>
        </Placemark>
        <Placemark id="361">
            <name>Периметр Станции ВНЗ Ионосферы &quot;Круг&quot; (ru)</name>
            <description/>
            <Point id="360">
                <coordinates>137.3597886,50.3700694,0.0</coordinates>
            </Point>
        </Placemark>
        <Placemark id="363">
            <name>Антенное  поле (ru)</name>
            <description/>
            <Point id="362">
                <coordinates>137.4631153,50.4067532,0.0</coordinates>
            </Point>
        </Placemark>
        <Placemark id="365">
            <name>Аэродром Картель (ru)</name>
            <description/>
            <Point id="364">
                <coordinates>137.4149107,50.3939305,0.0</coordinates>
            </Point>
        </Placemark>
        <Placemark id="367">
            <name>Бывшая стартовая позиция С-75 (ru)</name>
            <description/>
            <Point id="366">
                <coordinates>137.3764738,50.4024695,0.0</coordinates>
            </Point>
        </Placemark>
        <Placemark id="369">
            <name>Overbridge</name>
            <description/>
            <Point id="368">
                <coordinates>137.3503956,50.379767,0.0</coordinates>
            </Point>
        </Placemark>
    </Document>
</kml>
