<?xml version="1.0" encoding="UTF-8"?>
<kml xmlns="http://www.opengis.net/kml/2.2" xmlns:gx="http://www.google.com/kml/ext/2.2">
    <Document id="923">
        <Placemark id="925">
            <name>Бомбоубежище (ru)</name>
            <description/>
            <Point id="924">
                <coordinates>83.9612061,53.3918465,0.0</coordinates>
            </Point>
        </Placemark>
        <Placemark id="927">
            <name>Вентшахта бомбоубежища (ru)</name>
            <description/>
            <Point id="926">
                <coordinates>83.9424896,53.3867125,0.0</coordinates>
            </Point>
        </Placemark>
    </Document>
</kml>
