<?xml version="1.0" encoding="UTF-8"?>
<kml xmlns="http://www.opengis.net/kml/2.2" xmlns:gx="http://www.google.com/kml/ext/2.2">
    <Document id="343">
        <Placemark id="345">
            <name>Former SAM site</name>
            <description/>
            <Point id="344">
                <coordinates>61.8847685,55.0890923,0.0</coordinates>
            </Point>
        </Placemark>
        <Placemark id="347">
            <name>Бывшие стартовые позиции С-75 (ru)</name>
            <description/>
            <Point id="346">
                <coordinates>61.8851872,55.0884052,0.0</coordinates>
            </Point>
        </Placemark>
        <Placemark id="349">
            <name>Бывший пионерский лагерь (ru)</name>
            <description/>
            <Point id="348">
                <coordinates>61.9629871,55.0879502,0.0</coordinates>
            </Point>
        </Placemark>
        <Placemark id="351">
            <name>Заброшенный бункер (ru)</name>
            <description/>
            <Point id="350">
                <coordinates>61.8853398,55.0884876,0.0</coordinates>
            </Point>
        </Placemark>
        <Placemark id="353">
            <name>Заброшенные участки строителей (ru)</name>
            <description/>
            <Point id="352">
                <coordinates>62.0160063,55.1968765,0.0</coordinates>
            </Point>
        </Placemark>
        <Placemark id="355">
            <name>Stanowisko startowe (pl)</name>
            <description/>
            <Point id="354">
                <coordinates>61.8855625,55.0890724,0.0</coordinates>
            </Point>
        </Placemark>
        <Placemark id="357">
            <name>Stanowsko startowe (pl)</name>
            <description/>
            <Point id="356">
                <coordinates>61.8865602,55.0885996,0.0</coordinates>
            </Point>
        </Placemark>
        <Placemark id="359">
            <name>Stanowisko startowe (pl)</name>
            <description/>
            <Point id="358">
                <coordinates>61.8863028,55.0877584,0.0</coordinates>
            </Point>
        </Placemark>
        <Placemark id="361">
            <name>Stanowisko startowe (pl)</name>
            <description/>
            <Point id="360">
                <coordinates>61.8850046,55.0876356,0.0</coordinates>
            </Point>
        </Placemark>
        <Placemark id="363">
            <name>Stanowisko startowe (pl)</name>
            <description/>
            <Point id="362">
                <coordinates>61.8841463,55.0881544,0.0</coordinates>
            </Point>
        </Placemark>
        <Placemark id="365">
            <name>Stanowisko startowe (pl)</name>
            <description/>
            <Point id="364">
                <coordinates>61.8844521,55.0887992,0.0</coordinates>
            </Point>
        </Placemark>
    </Document>
</kml>
