<?xml version="1.0" encoding="UTF-8"?>
<kml xmlns="http://www.opengis.net/kml/2.2" xmlns:gx="http://www.google.com/kml/ext/2.2">
    <Document id="1">
        <Placemark id="3">
            <name>Недостроенное убежище (ru)</name>
            <description/>
            <Point id="2">
                <coordinates>85.0556802,56.523675,0.0</coordinates>
            </Point>
        </Placemark>
        <Placemark id="5">
            <name>Бомбоубежище (ru)</name>
            <description/>
            <Point id="4">
                <coordinates>84.957225,56.4535965,0.0</coordinates>
            </Point>
        </Placemark>
    </Document>
</kml>
