<?xml version="1.0" encoding="UTF-8"?>
<kml xmlns="http://www.opengis.net/kml/2.2" xmlns:gx="http://www.google.com/kml/ext/2.2">
    <Document id="135">
        <Placemark id="137">
            <name>Заброшенное бомбоубежище (ru)</name>
            <description/>
            <Point id="136">
                <coordinates>129.7464912,62.0883677,0.0</coordinates>
            </Point>
        </Placemark>
        <Placemark id="139">
            <name>Заброшенное бомбоубежище КГБ (ru)</name>
            <description/>
            <Point id="138">
                <coordinates>129.7468105,62.0377284,0.0</coordinates>
            </Point>
        </Placemark>
        <Placemark id="141">
            <name>Заброшенное бомбоубежище (ru)</name>
            <description/>
            <Point id="140">
                <coordinates>129.7188564,62.0408091,0.0</coordinates>
            </Point>
        </Placemark>
    </Document>
</kml>
