<?xml version="1.0" encoding="UTF-8"?>
<kml xmlns="http://www.opengis.net/kml/2.2" xmlns:gx="http://www.google.com/kml/ext/2.2">
    <Document id="249">
        <Placemark id="251">
            <name>Заброшенная позиция С-75 (ru)</name>
            <description/>
            <Point id="250">
                <coordinates>103.1330931,52.8337285,0.0</coordinates>
            </Point>
        </Placemark>
        <Placemark id="253">
            <name>Развалины (ru)</name>
            <description/>
            <Point id="252">
                <coordinates>103.2647841,52.8957748,0.0</coordinates>
            </Point>
        </Placemark>
        <Placemark id="255">
            <name>Санаторий &quot;Таежный&quot; (ru)</name>
            <description/>
            <Point id="254">
                <coordinates>103.1143606,52.8499101,0.0</coordinates>
            </Point>
        </Placemark>
        <Placemark id="257">
            <name>Заброшенный открытый плавательный бассейн пос. Михайловка (ru)</name>
            <description/>
            <Point id="256">
                <coordinates>103.3026327,52.9674462,0.0</coordinates>
            </Point>
        </Placemark>
        <Placemark id="259">
            <name>Паром &quot;Бельск&quot; (ru)</name>
            <description/>
            <Point id="258">
                <coordinates>103.068264,52.8587889,0.0</coordinates>
            </Point>
        </Placemark>
        <Placemark id="261">
            <name>Заброшенный зимний каток (ru)</name>
            <description/>
            <Point id="260">
                <coordinates>103.3026943,52.9628,0.0</coordinates>
            </Point>
        </Placemark>
        <Placemark id="263">
            <name>ул. Ленина (ru), 19</name>
            <description/>
            <Point id="262">
                <coordinates>103.294959,52.959844,0.0</coordinates>
            </Point>
        </Placemark>
        <Placemark id="265">
            <name>Больничная пристройка (ru)</name>
            <description/>
            <Point id="264">
                <coordinates>103.2962048,52.9619785,0.0</coordinates>
            </Point>
        </Placemark>
        <Placemark id="267">
            <name>Water tower</name>
            <description/>
            <Point id="266">
                <coordinates>103.2841319,52.9572556,0.0</coordinates>
            </Point>
        </Placemark>
        <Placemark id="269">
            <name>Petrol station</name>
            <description/>
            <Point id="268">
                <coordinates>103.3110356,52.9483195,0.0</coordinates>
            </Point>
        </Placemark>
        <Placemark id="271">
            <name>Заброшенная артезианская скважина (ru)</name>
            <description/>
            <Point id="270">
                <coordinates>103.3031437,52.9620282,0.0</coordinates>
            </Point>
        </Placemark>
    </Document>
</kml>
