<?xml version="1.0" encoding="UTF-8"?>
<kml xmlns="http://www.opengis.net/kml/2.2" xmlns:gx="http://www.google.com/kml/ext/2.2">
    <Document id="1559">
        <Placemark id="1561">
            <name>Уцелевшие строения (ru)</name>
            <description/>
            <Point id="1560">
                <coordinates>142.9479646,52.9940623,0.0</coordinates>
            </Point>
        </Placemark>
        <Placemark id="1563">
            <name>Заброшенная радиорелейная станция (ru)</name>
            <description/>
            <Point id="1562">
                <coordinates>142.9642027,53.0078005,0.0</coordinates>
            </Point>
        </Placemark>
        <Placemark id="1565">
            <name>Железнодорожный мост (неиспользуемый) (ru)</name>
            <description/>
            <Point id="1564">
                <coordinates>143.0818618,52.8326193,0.0</coordinates>
            </Point>
        </Placemark>
        <Placemark id="1567">
            <name>Железнодорожный мост через реку Нутово (ru)</name>
            <description/>
            <Point id="1566">
                <coordinates>143.1362448,52.5887493,0.0</coordinates>
            </Point>
        </Placemark>
    </Document>
</kml>
