<?xml version="1.0" encoding="UTF-8"?>
<kml xmlns="http://www.opengis.net/kml/2.2" xmlns:gx="http://www.google.com/kml/ext/2.2">
    <Document id="1351">
        <Placemark id="1353">
            <name>Заброшенный военный аэродром Теренсай (ru)</name>
            <description/>
            <Point id="1352">
                <coordinates>59.4659471,51.6060748,0.0</coordinates>
            </Point>
        </Placemark>
        <Placemark id="1355">
            <name>Склад ВВ (ru)</name>
            <description/>
            <Point id="1354">
                <coordinates>59.143846,51.4252898,0.0</coordinates>
            </Point>
        </Placemark>
        <Placemark id="1357">
            <name>БРМ (ru)</name>
            <description/>
            <Point id="1356">
                <coordinates>59.4787782,51.5927894,0.0</coordinates>
            </Point>
        </Placemark>
    </Document>
</kml>
