<?xml version="1.0" encoding="UTF-8"?>
<kml xmlns="http://www.opengis.net/kml/2.2" xmlns:gx="http://www.google.com/kml/ext/2.2">
    <Document id="1359">
        <Placemark id="1361">
            <name>Заброшенная территория колхоза (ru)</name>
            <description/>
            <Point id="1360">
                <coordinates>58.9431094,51.3847918,0.0</coordinates>
            </Point>
        </Placemark>
        <Placemark id="1363">
            <name>Детский оздоровительный лагерь «Урал» (ru)</name>
            <description/>
            <Point id="1362">
                <coordinates>58.6985617,51.5014063,0.0</coordinates>
            </Point>
        </Placemark>
        <Placemark id="1365">
            <name>Территория бывшего ЖБИ (ru)</name>
            <description/>
            <Point id="1364">
                <coordinates>59.0042048,51.3773809,0.0</coordinates>
            </Point>
        </Placemark>
        <Placemark id="1367">
            <name>Новоорский авторемонтный завод (ru)</name>
            <description/>
            <Point id="1366">
                <coordinates>58.9889993,51.3870098,0.0</coordinates>
            </Point>
        </Placemark>
        <Placemark id="1369">
            <name>Место под парк (ru)</name>
            <description/>
            <Point id="1368">
                <coordinates>58.9948922,51.3805332,0.0</coordinates>
            </Point>
        </Placemark>
        <Placemark id="1371">
            <name>Бывший пост ГАИ &quot;Скворечник&quot; (ru)</name>
            <description/>
            <Point id="1370">
                <coordinates>58.9866779,51.3809769,0.0</coordinates>
            </Point>
        </Placemark>
    </Document>
</kml>
