<?xml version="1.0" encoding="UTF-8"?>
<kml xmlns="http://www.opengis.net/kml/2.2" xmlns:gx="http://www.google.com/kml/ext/2.2">
    <Document id="851">
        <Placemark id="853">
            <name>Старые заброшенные дачи (ru)</name>
            <description/>
            <Point id="852">
                <coordinates>55.0424479,51.773921,0.0</coordinates>
            </Point>
        </Placemark>
        <Placemark id="855">
            <name>Заброшенные сады «Находка» (ru)</name>
            <description/>
            <Point id="854">
                <coordinates>55.0893115,51.8335696,0.0</coordinates>
            </Point>
        </Placemark>
        <Placemark id="857">
            <name>Ботанический сад Оренбургского государственного университета (ru)</name>
            <description/>
            <Point id="856">
                <coordinates>55.1213827,51.816856,0.0</coordinates>
            </Point>
        </Placemark>
        <Placemark id="859">
            <name>Недействующий Оренбургский шпалопропиточный завод (ru)</name>
            <description/>
            <Point id="858">
                <coordinates>55.0626571,51.8070532,0.0</coordinates>
            </Point>
        </Placemark>
        <Placemark id="861">
            <name>Заброшенные сады «Орбита» (ru)</name>
            <description/>
            <Point id="860">
                <coordinates>55.0853471,51.8321972,0.0</coordinates>
            </Point>
        </Placemark>
        <Placemark id="863">
            <name>Заброшенный пионерский лагерь «Автомобилист» (ru)</name>
            <description/>
            <Point id="862">
                <coordinates>55.0360321,51.751477,0.0</coordinates>
            </Point>
        </Placemark>
        <Placemark id="865">
            <name>Заброшенные дачи (ru)</name>
            <description/>
            <Point id="864">
                <coordinates>55.0809323,51.7455319,0.0</coordinates>
            </Point>
        </Placemark>
        <Placemark id="867">
            <name>Заброшенный детский оздоровительный лагерь «Искра» (ru)</name>
            <description/>
            <Point id="866">
                <coordinates>55.1565546,51.730761,0.0</coordinates>
            </Point>
        </Placemark>
        <Placemark id="869">
            <name>Заброшенные сады «Дачник» (ru)</name>
            <description/>
            <Point id="868">
                <coordinates>55.0922619,51.8352735,0.0</coordinates>
            </Point>
        </Placemark>
        <Placemark id="871">
            <name>Заброшенные лагеря «Восток-6» и «Связист» (ru)</name>
            <description/>
            <Point id="870">
                <coordinates>55.1622435,51.7331316,0.0</coordinates>
            </Point>
        </Placemark>
        <Placemark id="873">
            <name>Закрытый детский оздоровительный лагерь «Космос» (ru)</name>
            <description/>
            <Point id="872">
                <coordinates>55.1668139,51.7356963,0.0</coordinates>
            </Point>
        </Placemark>
        <Placemark id="875">
            <name>Заброшенная военная часть (ru)</name>
            <description/>
            <Point id="874">
                <coordinates>55.0996072,51.7548742,0.0</coordinates>
            </Point>
        </Placemark>
        <Placemark id="877">
            <name>Место палаточного лагеря ОВЗРККУ (ru)</name>
            <description/>
            <Point id="876">
                <coordinates>54.9483078,51.7452498,0.0</coordinates>
            </Point>
        </Placemark>
        <Placemark id="879">
            <name>Заброшенный детский оздоровительный лагерь «Сказка» (ru)</name>
            <description/>
            <Point id="878">
                <coordinates>55.166299,51.737864,0.0</coordinates>
            </Point>
        </Placemark>
        <Placemark id="881">
            <name>Территория бывшего Оренбургского ликёро-водочного завода (ОЛВЗ) (ru)</name>
            <description/>
            <Point id="880">
                <coordinates>55.0908752,51.7547832,0.0</coordinates>
            </Point>
        </Placemark>
        <Placemark id="883">
            <name>Заброшенный детский оздоровительный лагерь «Ромашка» (ru)</name>
            <description/>
            <Point id="882">
                <coordinates>55.1510399,51.7346208,0.0</coordinates>
            </Point>
        </Placemark>
        <Placemark id="885">
            <name>Расформированная войсковая часть 40263 (ru)</name>
            <description/>
            <Point id="884">
                <coordinates>55.2024686,51.7747925,0.0</coordinates>
            </Point>
        </Placemark>
        <Placemark id="887">
            <name>Комплекс заброшенных построек (ru)</name>
            <description/>
            <Point id="886">
                <coordinates>55.1156964,51.7290183,0.0</coordinates>
            </Point>
        </Placemark>
        <Placemark id="889">
            <name>Бывшее стрельбище ОВЗРККУ (ru)</name>
            <description/>
            <Point id="888">
                <coordinates>54.9510949,51.7428277,0.0</coordinates>
            </Point>
        </Placemark>
        <Placemark id="891">
            <name>Заброшенное здание (ru)</name>
            <description/>
            <Point id="890">
                <coordinates>55.0434846,51.7682655,0.0</coordinates>
            </Point>
        </Placemark>
        <Placemark id="893">
            <name>Заброшенный мясокомбинат (ru)</name>
            <description/>
            <Point id="892">
                <coordinates>55.1186152,51.847653,0.0</coordinates>
            </Point>
        </Placemark>
        <Placemark id="895">
            <name>Летние классы (ru)</name>
            <description/>
            <Point id="894">
                <coordinates>54.9461459,51.7424995,0.0</coordinates>
            </Point>
        </Placemark>
        <Placemark id="897">
            <name>Бывший лагерь «Геолог» (ru)</name>
            <description/>
            <Point id="896">
                <coordinates>55.1563694,51.7282907,0.0</coordinates>
            </Point>
        </Placemark>
        <Placemark id="899">
            <name>Территория бывшей сапого-валяльной фабрики (ru)</name>
            <description/>
            <Point id="898">
                <coordinates>55.0939802,51.7543104,0.0</coordinates>
            </Point>
        </Placemark>
        <Placemark id="901">
            <name>Пустырь (ru)</name>
            <description/>
            <Point id="900">
                <coordinates>55.1721676,51.8098535,0.0</coordinates>
            </Point>
        </Placemark>
        <Placemark id="903">
            <name>Заброшенные дачи (ru)</name>
            <description/>
            <Point id="902">
                <coordinates>55.037451,51.7451352,0.0</coordinates>
            </Point>
        </Placemark>
        <Placemark id="905">
            <name>Заброшенный цех (ru)</name>
            <description/>
            <Point id="904">
                <coordinates>55.0391783,51.781711,0.0</coordinates>
            </Point>
        </Placemark>
        <Placemark id="907">
            <name>Недействующая насосно-фильтровальная станция (ru)</name>
            <description/>
            <Point id="906">
                <coordinates>55.1092913,51.7548942,0.0</coordinates>
            </Point>
        </Placemark>
        <Placemark id="909">
            <name>Заброшенный завод ОАО «Завод трубных заготовок» (ОАО «ЗТЗ») (ru)</name>
            <description/>
            <Point id="908">
                <coordinates>55.1057549,51.8392711,0.0</coordinates>
            </Point>
        </Placemark>
        <Placemark id="911">
            <name>Заброшенная строительная площадка (ru)</name>
            <description/>
            <Point id="910">
                <coordinates>55.1731775,51.8198007,0.0</coordinates>
            </Point>
        </Placemark>
        <Placemark id="913">
            <name>Недостроенная столовая (ru)</name>
            <description/>
            <Point id="912">
                <coordinates>55.1286434,51.8048184,0.0</coordinates>
            </Point>
        </Placemark>
        <Placemark id="915">
            <name>Заброшенная пекарня (ru)</name>
            <description/>
            <Point id="914">
                <coordinates>55.1457519,51.8412464,0.0</coordinates>
            </Point>
        </Placemark>
        <Placemark id="917">
            <name>ulitsa Nakhimova, 33</name>
            <description/>
            <Point id="916">
                <coordinates>55.0880708,51.7244972,0.0</coordinates>
            </Point>
        </Placemark>
        <Placemark id="919">
            <name>Недостроенный гаражный комплекс (ru)</name>
            <description/>
            <Point id="918">
                <coordinates>55.1629011,51.8199824,0.0</coordinates>
            </Point>
        </Placemark>
        <Placemark id="921">
            <name>Территория сноса здания (ru)</name>
            <description/>
            <Point id="920">
                <coordinates>55.1001688,51.7599913,0.0</coordinates>
            </Point>
        </Placemark>
        <Placemark id="923">
            <name>Бывшая полоса препятствий (ru)</name>
            <description/>
            <Point id="922">
                <coordinates>54.9451508,51.7417123,0.0</coordinates>
            </Point>
        </Placemark>
        <Placemark id="925">
            <name>Бывший плац учебки ПВО (ru)</name>
            <description/>
            <Point id="924">
                <coordinates>55.1013989,51.7553956,0.0</coordinates>
            </Point>
        </Placemark>
        <Placemark id="927">
            <name>Заброшенный хозяйственный корпус (ru)</name>
            <description/>
            <Point id="926">
                <coordinates>55.1247287,51.813394,0.0</coordinates>
            </Point>
        </Placemark>
        <Placemark id="929">
            <name>Недостроенный десятиэтажный жилой дом (ru)</name>
            <description/>
            <Point id="928">
                <coordinates>55.1310891,51.7715414,0.0</coordinates>
            </Point>
        </Placemark>
        <Placemark id="931">
            <name>Заброшенное здание (ru)</name>
            <description/>
            <Point id="930">
                <coordinates>55.1673759,51.7366066,0.0</coordinates>
            </Point>
        </Placemark>
        <Placemark id="933">
            <name>ulitsa Maksima Gorkogo, 3</name>
            <description/>
            <Point id="932">
                <coordinates>55.0951905,51.7553632,0.0</coordinates>
            </Point>
        </Placemark>
        <Placemark id="935">
            <name>Столовая (ru)</name>
            <description/>
            <Point id="934">
                <coordinates>55.1561253,51.7307668,0.0</coordinates>
            </Point>
        </Placemark>
        <Placemark id="937">
            <name>Бывшая АЗС «АЗСка» (ru)</name>
            <description/>
            <Point id="936">
                <coordinates>55.0232373,51.7258992,0.0</coordinates>
            </Point>
        </Placemark>
        <Placemark id="939">
            <name>Заброшенная стоматологическая поликлиника (ru)</name>
            <description/>
            <Point id="938">
                <coordinates>55.1009286,51.7587325,0.0</coordinates>
            </Point>
        </Placemark>
        <Placemark id="941">
            <name>Закрытый центр детской хирургии (ru)</name>
            <description/>
            <Point id="940">
                <coordinates>55.1482585,51.8405164,0.0</coordinates>
            </Point>
        </Placemark>
        <Placemark id="943">
            <name>Заброшенное здание (ru)</name>
            <description/>
            <Point id="942">
                <coordinates>55.0637849,51.7689369,0.0</coordinates>
            </Point>
        </Placemark>
        <Placemark id="945">
            <name>ulitsa Devyatogo Yanvarya, 6</name>
            <description/>
            <Point id="944">
                <coordinates>55.1026337,51.7561905,0.0</coordinates>
            </Point>
        </Placemark>
        <Placemark id="947">
            <name>Заброшенный участок с дачей (ru)</name>
            <description/>
            <Point id="946">
                <coordinates>55.0823807,51.7485736,0.0</coordinates>
            </Point>
        </Placemark>
        <Placemark id="949">
            <name>Заброшенное здание (ru)</name>
            <description/>
            <Point id="948">
                <coordinates>55.0441635,51.7654844,0.0</coordinates>
            </Point>
        </Placemark>
        <Placemark id="951">
            <name>Фундамент здания (ru)</name>
            <description/>
            <Point id="950">
                <coordinates>55.1080602,51.7495657,0.0</coordinates>
            </Point>
        </Placemark>
        <Placemark id="953">
            <name>Заброшенный аппаратный (ртутноперерабатывающий) завод (ru)</name>
            <description/>
            <Point id="952">
                <coordinates>55.1143446,51.8485474,0.0</coordinates>
            </Point>
        </Placemark>
        <Placemark id="955">
            <name>Старые номера П. С. Коробкова (ru)</name>
            <description/>
            <Point id="954">
                <coordinates>55.0879114,51.7640705,0.0</coordinates>
            </Point>
        </Placemark>
        <Placemark id="957">
            <name>Здание первой электростанции в Оренбурге (ru)</name>
            <description/>
            <Point id="956">
                <coordinates>55.0993524,51.7534528,0.0</coordinates>
            </Point>
        </Placemark>
        <Placemark id="959">
            <name>Недостроенный бизнес-центр «Фаворит» (ru)</name>
            <description/>
            <Point id="958">
                <coordinates>55.1082996,51.7620766,0.0</coordinates>
            </Point>
        </Placemark>
        <Placemark id="961">
            <name>Усадьба А. А. Сазонова (ru)</name>
            <description/>
            <Point id="960">
                <coordinates>55.0877558,51.7665783,0.0</coordinates>
            </Point>
        </Placemark>
        <Placemark id="963">
            <name>Заброшенное здание (ru)</name>
            <description/>
            <Point id="962">
                <coordinates>55.121789,51.8497644,0.0</coordinates>
            </Point>
        </Placemark>
        <Placemark id="965">
            <name>Недостроенный дом (ru)</name>
            <description/>
            <Point id="964">
                <coordinates>55.0882574,51.7769848,0.0</coordinates>
            </Point>
        </Placemark>
        <Placemark id="967">
            <name>Брошенные подземные помещения (ru)</name>
            <description/>
            <Point id="966">
                <coordinates>55.1020064,51.7758638,0.0</coordinates>
            </Point>
        </Placemark>
        <Placemark id="969">
            <name>Закрытый водосток (ru)</name>
            <description/>
            <Point id="968">
                <coordinates>55.0673871,51.7685079,0.0</coordinates>
            </Point>
        </Placemark>
        <Placemark id="971">
            <name>Заброшенный разворотный тупик (ru)</name>
            <description/>
            <Point id="970">
                <coordinates>55.1233863,51.7595612,0.0</coordinates>
            </Point>
        </Placemark>
        <Placemark id="973">
            <name>Заброшенное кафе «Эльф» (ru)</name>
            <description/>
            <Point id="972">
                <coordinates>55.1105547,51.7532442,0.0</coordinates>
            </Point>
        </Placemark>
        <Placemark id="975">
            <name>Заброшенное здание (ru)</name>
            <description/>
            <Point id="974">
                <coordinates>55.0450685,51.7657657,0.0</coordinates>
            </Point>
        </Placemark>
        <Placemark id="977">
            <name>Заброшенный подземный пешеходный переход (ru)</name>
            <description/>
            <Point id="976">
                <coordinates>55.0941408,51.8072846,0.0</coordinates>
            </Point>
        </Placemark>
        <Placemark id="979">
            <name>Заброшенный дом (ru)</name>
            <description/>
            <Point id="978">
                <coordinates>55.1077771,51.762908,0.0</coordinates>
            </Point>
        </Placemark>
        <Placemark id="981">
            <name>Усадьба А. Д. Цигельмана (ru)</name>
            <description/>
            <Point id="980">
                <coordinates>55.1066775,51.760202,0.0</coordinates>
            </Point>
        </Placemark>
        <Placemark id="983">
            <name>Заброшенный дом (ru)</name>
            <description/>
            <Point id="982">
                <coordinates>55.0866937,51.7785033,0.0</coordinates>
            </Point>
        </Placemark>
        <Placemark id="985">
            <name>Столовая (ru)</name>
            <description/>
            <Point id="984">
                <coordinates>55.1637308,51.733742,0.0</coordinates>
            </Point>
        </Placemark>
        <Placemark id="987">
            <name>ulitsa Vosmogo Marta, 33</name>
            <description/>
            <Point id="986">
                <coordinates>55.106475,51.7639343,0.0</coordinates>
            </Point>
        </Placemark>
        <Placemark id="989">
            <name>Заброшенное здание ПАО «Вымпелком» (ru)</name>
            <description/>
            <Point id="988">
                <coordinates>55.2355646,51.7660151,0.0</coordinates>
            </Point>
        </Placemark>
        <Placemark id="991">
            <name>Заброшенный дом (ru)</name>
            <description/>
            <Point id="990">
                <coordinates>55.1178449,51.759372,0.0</coordinates>
            </Point>
        </Placemark>
        <Placemark id="993">
            <name>Брошенные дачи (ru)</name>
            <description/>
            <Point id="992">
                <coordinates>55.0584084,51.7495442,0.0</coordinates>
            </Point>
        </Placemark>
        <Placemark id="995">
            <name>Двор постоялый Е.А.Радушева (ru)</name>
            <description/>
            <Point id="994">
                <coordinates>55.0884546,51.7618057,0.0</coordinates>
            </Point>
        </Placemark>
        <Placemark id="997">
            <name>Заброшенный особняк (ru)</name>
            <description/>
            <Point id="996">
                <coordinates>55.0895838,51.7633437,0.0</coordinates>
            </Point>
        </Placemark>
        <Placemark id="999">
            <name>Хозяйственный корпус (ru)</name>
            <description/>
            <Point id="998">
                <coordinates>55.10112,51.7548311,0.0</coordinates>
            </Point>
        </Placemark>
        <Placemark id="1001">
            <name>Krasnoznamyonnaya ulitsa, 32</name>
            <description/>
            <Point id="1000">
                <coordinates>55.1025053,51.766265,0.0</coordinates>
            </Point>
        </Placemark>
        <Placemark id="1003">
            <name>Краснознаменная 35 (ru)</name>
            <description/>
            <Point id="1002">
                <coordinates>55.1041079,51.7662164,0.0</coordinates>
            </Point>
        </Placemark>
        <Placemark id="1005">
            <name>Фундамент стилобата (ru)</name>
            <description/>
            <Point id="1004">
                <coordinates>55.1734644,51.8196341,0.0</coordinates>
            </Point>
        </Placemark>
        <Placemark id="1007">
            <name>Дом купца В.Е.Калашникова (ru)</name>
            <description/>
            <Point id="1006">
                <coordinates>55.0879423,51.7606087,0.0</coordinates>
            </Point>
        </Placemark>
        <Placemark id="1009">
            <name>Заброшенный козловой кран (ru)</name>
            <description/>
            <Point id="1008">
                <coordinates>55.1179723,51.802188,0.0</coordinates>
            </Point>
        </Placemark>
        <Placemark id="1011">
            <name>Arkhivny pereulok, 3</name>
            <description/>
            <Point id="1010">
                <coordinates>55.1086759,51.7572438,0.0</coordinates>
            </Point>
        </Placemark>
        <Placemark id="1013">
            <name>Arkhivny pereulok, 1</name>
            <description/>
            <Point id="1012">
                <coordinates>55.1084856,51.7572118,0.0</coordinates>
            </Point>
        </Placemark>
        <Placemark id="1015">
            <name>Заброшенный дом (ru)</name>
            <description/>
            <Point id="1014">
                <coordinates>55.0872838,51.7581267,0.0</coordinates>
            </Point>
        </Placemark>
        <Placemark id="1017">
            <name>Заброшенный дом (ru)</name>
            <description/>
            <Point id="1016">
                <coordinates>55.0994489,51.7716208,0.0</coordinates>
            </Point>
        </Placemark>
        <Placemark id="1019">
            <name>Заброшенные гаражи (ru)</name>
            <description/>
            <Point id="1018">
                <coordinates>55.1091437,51.721276,0.0</coordinates>
            </Point>
        </Placemark>
        <Placemark id="1021">
            <name>ulitsa Tsvillinga, 25</name>
            <description/>
            <Point id="1020">
                <coordinates>55.0884681,51.7768611,0.0</coordinates>
            </Point>
        </Placemark>
        <Placemark id="1023">
            <name>Постройка (ru)</name>
            <description/>
            <Point id="1022">
                <coordinates>55.1693916,51.7634227,0.0</coordinates>
            </Point>
        </Placemark>
        <Placemark id="1025">
            <name>Гаражи (ru)</name>
            <description/>
            <Point id="1024">
                <coordinates>55.172118,51.7700457,0.0</coordinates>
            </Point>
        </Placemark>
        <Placemark id="1027">
            <name>Заброшенный дом (ru)</name>
            <description/>
            <Point id="1026">
                <coordinates>55.0898601,51.7790691,0.0</coordinates>
            </Point>
        </Placemark>
        <Placemark id="1029">
            <name>Заброшенная баня (ru)</name>
            <description/>
            <Point id="1028">
                <coordinates>55.1090083,51.719482,0.0</coordinates>
            </Point>
        </Placemark>
        <Placemark id="1031">
            <name>Заброшенный дом (ru)</name>
            <description/>
            <Point id="1030">
                <coordinates>55.0919267,51.7782377,0.0</coordinates>
            </Point>
        </Placemark>
        <Placemark id="1033">
            <name>Заброшенное здание (ru)</name>
            <description/>
            <Point id="1032">
                <coordinates>55.1069009,51.7189173,0.0</coordinates>
            </Point>
        </Placemark>
        <Placemark id="1035">
            <name>Заброшенный дом (ru)</name>
            <description/>
            <Point id="1034">
                <coordinates>55.0969531,51.7764073,0.0</coordinates>
            </Point>
        </Placemark>
        <Placemark id="1037">
            <name>Разрушенный дом (ru)</name>
            <description/>
            <Point id="1036">
                <coordinates>55.1221189,51.7619866,0.0</coordinates>
            </Point>
        </Placemark>
        <Placemark id="1039">
            <name>ulitsa Ordzhonikidze, 97</name>
            <description/>
            <Point id="1038">
                <coordinates>55.1011521,51.7758696,0.0</coordinates>
            </Point>
        </Placemark>
        <Placemark id="1041">
            <name>Недействующий КПП расформированной войсковой части 40263 (ru)</name>
            <description/>
            <Point id="1040">
                <coordinates>55.2014638,51.7740658,0.0</coordinates>
            </Point>
        </Placemark>
        <Placemark id="1043">
            <name>Заброшенный гараж с ВАЗ-2106 (ru)</name>
            <description/>
            <Point id="1042">
                <coordinates>55.17235,51.769893,0.0</coordinates>
            </Point>
        </Placemark>
        <Placemark id="1045">
            <name>Бетонные плиты (ru)</name>
            <description/>
            <Point id="1044">
                <coordinates>55.1085368,51.7206557,0.0</coordinates>
            </Point>
        </Placemark>
        <Placemark id="1047">
            <name>Заброшенный автобус (ru)</name>
            <description/>
            <Point id="1046">
                <coordinates>55.09205,51.7359181,0.0</coordinates>
            </Point>
        </Placemark>
        <Placemark id="1049">
            <name>Чаша фонтана (ru)</name>
            <description/>
            <Point id="1048">
                <coordinates>55.1077812,51.7548261,0.0</coordinates>
            </Point>
        </Placemark>
        <Placemark id="1051">
            <name>Вход в бомбоубежище (ru)</name>
            <description/>
            <Point id="1050">
                <coordinates>55.1203883,51.8486593,0.0</coordinates>
            </Point>
        </Placemark>
        <Placemark id="1053">
            <name>Заброшенный торговый павильон «Разливное пиво» (ru)</name>
            <description/>
            <Point id="1052">
                <coordinates>55.1115095,51.7216779,0.0</coordinates>
            </Point>
        </Placemark>
        <Placemark id="1055">
            <name>Дымовая труба гарнизонной бани (ru)</name>
            <description/>
            <Point id="1054">
                <coordinates>55.095203,51.7552229,0.0</coordinates>
            </Point>
        </Placemark>
        <Placemark id="1057">
            <name>Памятник В. И. Ленину (ru)</name>
            <description/>
            <Point id="1056">
                <coordinates>55.1659449,51.735659,0.0</coordinates>
            </Point>
        </Placemark>
    </Document>
</kml>
