<?xml version="1.0" encoding="UTF-8"?>
<kml xmlns="http://www.opengis.net/kml/2.2" xmlns:gx="http://www.google.com/kml/ext/2.2">
    <Document id="979">
        <Placemark id="981">
            <name>Заброшенный свинокомплекс (ru)</name>
            <description/>
            <Point id="980">
                <coordinates>83.5559525,52.910382,0.0</coordinates>
            </Point>
        </Placemark>
        <Placemark id="983">
            <name>Заброшенный отстойник (ru)</name>
            <description/>
            <Point id="982">
                <coordinates>83.5520854,52.904752,0.0</coordinates>
            </Point>
        </Placemark>
        <Placemark id="985">
            <name>Грунтовая дамба (ru)</name>
            <description/>
            <Point id="984">
                <coordinates>83.5738992,52.9236669,0.0</coordinates>
            </Point>
        </Placemark>
        <Placemark id="987">
            <name>Бывший тир (ru)</name>
            <description/>
            <Point id="986">
                <coordinates>83.5484739,52.8996346,0.0</coordinates>
            </Point>
        </Placemark>
        <Placemark id="989">
            <name>Брошенный паром на базе грузовой баржи (ru)</name>
            <description/>
            <Point id="988">
                <coordinates>83.6123563,52.8515932,0.0</coordinates>
            </Point>
        </Placemark>
    </Document>
</kml>
