<?xml version="1.0" encoding="UTF-8"?>
<kml xmlns="http://www.opengis.net/kml/2.2" xmlns:gx="http://www.google.com/kml/ext/2.2">
    <Document id="375">
        <Placemark id="377">
            <name>Остатки автопарка войсковой части 13227 (ru)</name>
            <description/>
            <Point id="376">
                <coordinates>137.5455804,50.3429406,0.0</coordinates>
            </Point>
        </Placemark>
        <Placemark id="379">
            <name>Заброшенный магазин продовольственных товаров (ru)</name>
            <description/>
            <Point id="378">
                <coordinates>137.5043881,50.3673104,0.0</coordinates>
            </Point>
        </Placemark>
    </Document>
</kml>
