<?xml version="1.0" encoding="UTF-8"?>
<kml xmlns="http://www.opengis.net/kml/2.2" xmlns:gx="http://www.google.com/kml/ext/2.2">
    <Document id="7">
        <Placemark id="9">
            <name>Развалины военного городка Томского высшего военного командного училища связи (ru)</name>
            <description/>
            <Point id="8">
                <coordinates>85.215175,56.5537706,0.0</coordinates>
            </Point>
        </Placemark>
        <Placemark id="11">
            <name>Заброшенная строительная площадка (ru)</name>
            <description/>
            <Point id="10">
                <coordinates>84.9958938,56.4453472,0.0</coordinates>
            </Point>
        </Placemark>
        <Placemark id="13">
            <name>Томская спичечная фабрика (ru)</name>
            <description/>
            <Point id="12">
                <coordinates>85.0342413,56.5288906,0.0</coordinates>
            </Point>
        </Placemark>
        <Placemark id="15">
            <name>Заброшенный детский лагерь «Пламя» (ru)</name>
            <description/>
            <Point id="14">
                <coordinates>84.970925,56.4087671,0.0</coordinates>
            </Point>
        </Placemark>
        <Placemark id="17">
            <name>Заброшенное стрельбище в/ч 5490 (ru)</name>
            <description/>
            <Point id="16">
                <coordinates>85.1691323,56.5219944,0.0</coordinates>
            </Point>
        </Placemark>
        <Placemark id="19">
            <name>Территория заброшенных погребов (ru)</name>
            <description/>
            <Point id="18">
                <coordinates>85.0106162,56.4634801,0.0</coordinates>
            </Point>
        </Placemark>
        <Placemark id="21">
            <name>Дружба (ru)</name>
            <description/>
            <Point id="20">
                <coordinates>84.990473,56.4211065,0.0</coordinates>
            </Point>
        </Placemark>
        <Placemark id="23">
            <name>Заброшенный завод (ru)</name>
            <description/>
            <Point id="22">
                <coordinates>85.0588774,56.5303736,0.0</coordinates>
            </Point>
        </Placemark>
        <Placemark id="25">
            <name>Заброшенный детский оздоровительный лагерь (ru)</name>
            <description/>
            <Point id="24">
                <coordinates>84.981442,56.4129338,0.0</coordinates>
            </Point>
        </Placemark>
        <Placemark id="27">
            <name>Учебный геологический полигон (ru)</name>
            <description/>
            <Point id="26">
                <coordinates>85.0178517,56.4566794,0.0</coordinates>
            </Point>
        </Placemark>
        <Placemark id="29">
            <name>ООО «Фог» (ru)</name>
            <description/>
            <Point id="28">
                <coordinates>85.0018067,56.4440817,0.0</coordinates>
            </Point>
        </Placemark>
        <Placemark id="31">
            <name>Гаражи и стоянка строительной техники (ru)</name>
            <description/>
            <Point id="30">
                <coordinates>85.0047517,56.4869407,0.0</coordinates>
            </Point>
        </Placemark>
        <Placemark id="33">
            <name>Недействующий филиал троллейбусного депо (Пункт технического обслуживания) (ru)</name>
            <description/>
            <Point id="32">
                <coordinates>85.0990891,56.5191121,0.0</coordinates>
            </Point>
        </Placemark>
        <Placemark id="35">
            <name>Бывшая компания «Рекон» (ru)</name>
            <description/>
            <Point id="34">
                <coordinates>84.998647,56.4483707,0.0</coordinates>
            </Point>
        </Placemark>
        <Placemark id="37">
            <name>Заброшенный глиняный карьер (ru)</name>
            <description/>
            <Point id="36">
                <coordinates>85.1822544,56.5145055,0.0</coordinates>
            </Point>
        </Placemark>
        <Placemark id="39">
            <name>Причалы речного вокзала (ru)</name>
            <description/>
            <Point id="38">
                <coordinates>84.9419786,56.4932387,0.0</coordinates>
            </Point>
        </Placemark>
        <Placemark id="41">
            <name>Заброшенная строительная площадка (ru)</name>
            <description/>
            <Point id="40">
                <coordinates>84.945086,56.4991843,0.0</coordinates>
            </Point>
        </Placemark>
        <Placemark id="43">
            <name>Недостроенный производственный цех спичечной фабрики (ru)</name>
            <description/>
            <Point id="42">
                <coordinates>85.0354336,56.5287954,0.0</coordinates>
            </Point>
        </Placemark>
        <Placemark id="45">
            <name>Строящийся Томский региональный выставочный центр (ru)</name>
            <description/>
            <Point id="44">
                <coordinates>85.0664988,56.4777529,0.0</coordinates>
            </Point>
        </Placemark>
        <Placemark id="47">
            <name>Участок под строительство жилого дома (ru)</name>
            <description/>
            <Point id="46">
                <coordinates>84.967178,56.4849468,0.0</coordinates>
            </Point>
        </Placemark>
        <Placemark id="49">
            <name>Недействующий гипермаркет «Быстроном» (ru)</name>
            <description/>
            <Point id="48">
                <coordinates>84.9649436,56.4601763,0.0</coordinates>
            </Point>
        </Placemark>
        <Placemark id="51">
            <name>ул. Угрюмова (ru), 9 строение 1</name>
            <description/>
            <Point id="50">
                <coordinates>85.0295302,56.5362234,0.0</coordinates>
            </Point>
        </Placemark>
        <Placemark id="53">
            <name>ул. Угрюмова (ru), 11/2</name>
            <description/>
            <Point id="52">
                <coordinates>85.0304538,56.5355488,0.0</coordinates>
            </Point>
        </Placemark>
        <Placemark id="55">
            <name>Заброшенные склады (ru)</name>
            <description/>
            <Point id="54">
                <coordinates>84.9917568,56.4980203,0.0</coordinates>
            </Point>
        </Placemark>
        <Placemark id="57">
            <name>Развалины коровника (ru)</name>
            <description/>
            <Point id="56">
                <coordinates>85.1811298,56.5044562,0.0</coordinates>
            </Point>
        </Placemark>
        <Placemark id="59">
            <name>Бывший стадион (ru)</name>
            <description/>
            <Point id="58">
                <coordinates>84.9821433,56.4120646,0.0</coordinates>
            </Point>
        </Placemark>
        <Placemark id="61">
            <name>Заброшенная строительная площадка (ru)</name>
            <description/>
            <Point id="60">
                <coordinates>84.9531273,56.4849297,0.0</coordinates>
            </Point>
        </Placemark>
        <Placemark id="63">
            <name>Недостроенный бокс (ru)</name>
            <description/>
            <Point id="62">
                <coordinates>84.9843106,56.470222,0.0</coordinates>
            </Point>
        </Placemark>
        <Placemark id="65">
            <name>Развалины коровника (ru)</name>
            <description/>
            <Point id="64">
                <coordinates>85.1807623,56.5036326,0.0</coordinates>
            </Point>
        </Placemark>
        <Placemark id="67">
            <name>Строительная площадка (ru)</name>
            <description/>
            <Point id="66">
                <coordinates>84.9551242,56.4849393,0.0</coordinates>
            </Point>
        </Placemark>
        <Placemark id="69">
            <name>Развалины коровника (ru)</name>
            <description/>
            <Point id="68">
                <coordinates>85.1816663,56.5051755,0.0</coordinates>
            </Point>
        </Placemark>
        <Placemark id="71">
            <name>Казарма 2-го батальона курсантов (ru)</name>
            <description/>
            <Point id="70">
                <coordinates>84.9571627,56.4786083,0.0</coordinates>
            </Point>
        </Placemark>
        <Placemark id="73">
            <name>ulitsa Nakhimova, 8/17</name>
            <description/>
            <Point id="72">
                <coordinates>84.9585653,56.457923,0.0</coordinates>
            </Point>
        </Placemark>
        <Placemark id="75">
            <name>Недействующий кинотеатр «Киномир» (ru)</name>
            <description/>
            <Point id="74">
                <coordinates>84.9499729,56.4826074,0.0</coordinates>
            </Point>
        </Placemark>
        <Placemark id="77">
            <name>Котлован под крытый каток (ru)</name>
            <description/>
            <Point id="76">
                <coordinates>85.0414055,56.474391,0.0</coordinates>
            </Point>
        </Placemark>
        <Placemark id="79">
            <name>Насосная станция для полива полей (ru)</name>
            <description/>
            <Point id="78">
                <coordinates>85.0662535,56.4379902,0.0</coordinates>
            </Point>
        </Placemark>
        <Placemark id="81">
            <name>Заброшенное здание (ru)</name>
            <description/>
            <Point id="80">
                <coordinates>84.8667158,56.413097,0.0</coordinates>
            </Point>
        </Placemark>
        <Placemark id="83">
            <name>Заброшенная строительная площадка (ru)</name>
            <description/>
            <Point id="82">
                <coordinates>84.9851663,56.4560622,0.0</coordinates>
            </Point>
        </Placemark>
        <Placemark id="85">
            <name>Орловский пер. (ru), 12</name>
            <description/>
            <Point id="84">
                <coordinates>84.9593245,56.4816388,0.0</coordinates>
            </Point>
        </Placemark>
        <Placemark id="87">
            <name>Недостроенный танатологический корпус (морг) (ru)</name>
            <description/>
            <Point id="86">
                <coordinates>85.058601,56.5280126,0.0</coordinates>
            </Point>
        </Placemark>
        <Placemark id="89">
            <name>Футбольное поле (ru)</name>
            <description/>
            <Point id="88">
                <coordinates>84.9723775,56.5050763,0.0</coordinates>
            </Point>
        </Placemark>
        <Placemark id="91">
            <name>ulitsa Sergeya Vitsmana, 32 строение 3</name>
            <description/>
            <Point id="90">
                <coordinates>85.0029466,56.4866439,0.0</coordinates>
            </Point>
        </Placemark>
        <Placemark id="93">
            <name>Заброшенный участок под строительство жилых домов (ru)</name>
            <description/>
            <Point id="92">
                <coordinates>84.9627242,56.4807886,0.0</coordinates>
            </Point>
        </Placemark>
        <Placemark id="95">
            <name>ulitsa Energetikov, 8/1</name>
            <description/>
            <Point id="94">
                <coordinates>85.008451,56.4604942,0.0</coordinates>
            </Point>
        </Placemark>
        <Placemark id="97">
            <name>Недостроенное нежилое здание (ru)</name>
            <description/>
            <Point id="96">
                <coordinates>85.0456044,56.524383,0.0</coordinates>
            </Point>
        </Placemark>
        <Placemark id="99">
            <name>Недостроенный многоярусный паркинг (ru)</name>
            <description/>
            <Point id="98">
                <coordinates>84.9748894,56.483833,0.0</coordinates>
            </Point>
        </Placemark>
        <Placemark id="101">
            <name>Недостроенный многоквартирный жилой дом (ru)</name>
            <description/>
            <Point id="100">
                <coordinates>85.0085189,56.4319759,0.0</coordinates>
            </Point>
        </Placemark>
        <Placemark id="103">
            <name>Заброшенное здание Томского техникума информационных технологий (ru)</name>
            <description/>
            <Point id="102">
                <coordinates>84.9598508,56.459907,0.0</coordinates>
            </Point>
        </Placemark>
        <Placemark id="105">
            <name>ulitsa Belinskogo, 13</name>
            <description/>
            <Point id="104">
                <coordinates>84.9576843,56.4753472,0.0</coordinates>
            </Point>
        </Placemark>
        <Placemark id="107">
            <name>Спортивная площадка (ru)</name>
            <description/>
            <Point id="106">
                <coordinates>84.9616298,56.4620668,0.0</coordinates>
            </Point>
        </Placemark>
        <Placemark id="109">
            <name>пер. Батенькова (ru), 8</name>
            <description/>
            <Point id="108">
                <coordinates>84.9531512,56.4849615,0.0</coordinates>
            </Point>
        </Placemark>
        <Placemark id="111">
            <name>Недостроенный хозяйственный блок (ru)</name>
            <description/>
            <Point id="110">
                <coordinates>85.0596813,56.5279278,0.0</coordinates>
            </Point>
        </Placemark>
        <Placemark id="113">
            <name>Заброшенная строительная площадка (ru)</name>
            <description/>
            <Point id="112">
                <coordinates>84.964945,56.482109,0.0</coordinates>
            </Point>
        </Placemark>
        <Placemark id="115">
            <name>Недостроенный храм Новомучеников и исповедников Российских на Кашташной горе (ru)</name>
            <description/>
            <Point id="114">
                <coordinates>84.9671055,56.5033607,0.0</coordinates>
            </Point>
        </Placemark>
        <Placemark id="117">
            <name>Недостроенный гаражный комплекс (ru)</name>
            <description/>
            <Point id="116">
                <coordinates>85.0146612,56.48058,0.0</coordinates>
            </Point>
        </Placemark>
        <Placemark id="119">
            <name>Заброшенный спорткомплекс (ru)</name>
            <description/>
            <Point id="118">
                <coordinates>85.0405035,56.5088077,0.0</coordinates>
            </Point>
        </Placemark>
        <Placemark id="121">
            <name>Пожарная часть № 16 (ru)</name>
            <description/>
            <Point id="120">
                <coordinates>84.9825709,56.4148323,0.0</coordinates>
            </Point>
        </Placemark>
        <Placemark id="123">
            <name>Недостроенное заброшенное здание (ru)</name>
            <description/>
            <Point id="122">
                <coordinates>85.0601043,56.5243423,0.0</coordinates>
            </Point>
        </Placemark>
        <Placemark id="125">
            <name>pereulok Plekhanova, 13</name>
            <description/>
            <Point id="124">
                <coordinates>84.9559128,56.4791342,0.0</coordinates>
            </Point>
        </Placemark>
        <Placemark id="127">
            <name>pereulok Plekhanova, 15</name>
            <description/>
            <Point id="126">
                <coordinates>84.9570655,56.4791949,0.0</coordinates>
            </Point>
        </Placemark>
        <Placemark id="129">
            <name>Развалины спортивной площадки (ru)</name>
            <description/>
            <Point id="128">
                <coordinates>84.9655391,56.5181754,0.0</coordinates>
            </Point>
        </Placemark>
        <Placemark id="131">
            <name>Водонапорный подземный резервуар (ru)</name>
            <description/>
            <Point id="130">
                <coordinates>84.9630984,56.4808775,0.0</coordinates>
            </Point>
        </Placemark>
        <Placemark id="133">
            <name>Химический корпус Сибирского государственного медицинского университета (ru)</name>
            <description/>
            <Point id="132">
                <coordinates>84.9584742,56.4671076,0.0</coordinates>
            </Point>
        </Placemark>
        <Placemark id="135">
            <name>Спортивная площадка (ru)</name>
            <description/>
            <Point id="134">
                <coordinates>84.9729932,56.4514283,0.0</coordinates>
            </Point>
        </Placemark>
        <Placemark id="137">
            <name>Заброшенный участок под строительство жилого дома (ru)</name>
            <description/>
            <Point id="136">
                <coordinates>84.9415276,56.5024518,0.0</coordinates>
            </Point>
        </Placemark>
        <Placemark id="139">
            <name>Большая Подгорная ул. (ru), 222</name>
            <description/>
            <Point id="138">
                <coordinates>84.9583815,56.522827,0.0</coordinates>
            </Point>
        </Placemark>
        <Placemark id="141">
            <name>Заброшенное здание (ru)</name>
            <description/>
            <Point id="140">
                <coordinates>84.9468844,56.4912003,0.0</coordinates>
            </Point>
        </Placemark>
        <Placemark id="143">
            <name>ул. Высоцкого (ru), 8/1</name>
            <description/>
            <Point id="142">
                <coordinates>85.0746662,56.5178062,0.0</coordinates>
            </Point>
        </Placemark>
        <Placemark id="145">
            <name>ул. Высоцкого (ru), 8/2</name>
            <description/>
            <Point id="144">
                <coordinates>85.0736094,56.5176523,0.0</coordinates>
            </Point>
        </Placemark>
        <Placemark id="147">
            <name>Причал (ru)</name>
            <description/>
            <Point id="146">
                <coordinates>84.9234944,56.5240742,0.0</coordinates>
            </Point>
        </Placemark>
        <Placemark id="149">
            <name>Недостроенный многоквартирный жилой дом (ru)</name>
            <description/>
            <Point id="148">
                <coordinates>84.9903536,56.4799709,0.0</coordinates>
            </Point>
        </Placemark>
        <Placemark id="151">
            <name>Остатки большого трамплина</name>
            <description/>
            <Point id="150">
                <coordinates>85.0253579,56.4636403,0.0</coordinates>
            </Point>
        </Placemark>
        <Placemark id="153">
            <name>Детский оздоровительно-образовательный лагерь «Голубка» (ru)</name>
            <description/>
            <Point id="152">
                <coordinates>84.9885496,56.4180665,0.0</coordinates>
            </Point>
        </Placemark>
        <Placemark id="155">
            <name>Заброшенный корпус ТГАСУ (ru)</name>
            <description/>
            <Point id="154">
                <coordinates>84.9586987,56.49671,0.0</coordinates>
            </Point>
        </Placemark>
        <Placemark id="157">
            <name>ул. Высоцкого (ru), 8</name>
            <description/>
            <Point id="156">
                <coordinates>85.0739098,56.5182679,0.0</coordinates>
            </Point>
        </Placemark>
        <Placemark id="159">
            <name>Недостроенный детский сад (ru)</name>
            <description/>
            <Point id="158">
                <coordinates>85.0757002,56.5187036,0.0</coordinates>
            </Point>
        </Placemark>
        <Placemark id="161">
            <name>Petropavlovskaya ulitsa, 38</name>
            <description/>
            <Point id="160">
                <coordinates>84.9672344,56.4849075,0.0</coordinates>
            </Point>
        </Placemark>
        <Placemark id="163">
            <name>Полузаброшенное здание (ru)</name>
            <description/>
            <Point id="162">
                <coordinates>85.0681159,56.5176819,0.0</coordinates>
            </Point>
        </Placemark>
        <Placemark id="165">
            <name>Хоккейная коробка (ru)</name>
            <description/>
            <Point id="164">
                <coordinates>84.993465,56.5024384,0.0</coordinates>
            </Point>
        </Placemark>
        <Placemark id="167">
            <name>Заброшенная стройка 4-этажного здания (ru)</name>
            <description/>
            <Point id="166">
                <coordinates>84.9618256,56.4556649,0.0</coordinates>
            </Point>
        </Placemark>
        <Placemark id="169">
            <name>Недостроенное общежитие (ru)</name>
            <description/>
            <Point id="168">
                <coordinates>85.0569872,56.5216365,0.0</coordinates>
            </Point>
        </Placemark>
        <Placemark id="171">
            <name>Басандайская ул. (ru), 13/1</name>
            <description/>
            <Point id="170">
                <coordinates>84.9806441,56.4144331,0.0</coordinates>
            </Point>
        </Placemark>
        <Placemark id="173">
            <name>ул. Смирнова (ru), 30б</name>
            <description/>
            <Point id="172">
                <coordinates>84.9913541,56.5236509,0.0</coordinates>
            </Point>
        </Placemark>
        <Placemark id="175">
            <name>ул. Строителей (ru), 21</name>
            <description/>
            <Point id="174">
                <coordinates>84.8677995,56.4126638,0.0</coordinates>
            </Point>
        </Placemark>
        <Placemark id="177">
            <name>Заброшенное старое здание школы (ru)</name>
            <description/>
            <Point id="176">
                <coordinates>84.8923498,56.4910251,0.0</coordinates>
            </Point>
        </Placemark>
        <Placemark id="179">
            <name>Бизнес-центр «ПочтальON» (ru)</name>
            <description/>
            <Point id="178">
                <coordinates>84.9494809,56.4785654,0.0</coordinates>
            </Point>
        </Placemark>
        <Placemark id="181">
            <name>Ялтинская ул. (ru), 44</name>
            <description/>
            <Point id="180">
                <coordinates>84.9662233,56.5153039,0.0</coordinates>
            </Point>
        </Placemark>
        <Placemark id="183">
            <name>Футбольное поле (ru)</name>
            <description/>
            <Point id="182">
                <coordinates>84.9795846,56.5158555,0.0</coordinates>
            </Point>
        </Placemark>
        <Placemark id="185">
            <name>Недостроенное здание (ru)</name>
            <description/>
            <Point id="184">
                <coordinates>84.9853982,56.4560415,0.0</coordinates>
            </Point>
        </Placemark>
        <Placemark id="187">
            <name>prospekt Lenina, 92</name>
            <description/>
            <Point id="186">
                <coordinates>84.947559,56.4914226,0.0</coordinates>
            </Point>
        </Placemark>
        <Placemark id="189">
            <name>Остатки трамплина (ru)</name>
            <description/>
            <Point id="188">
                <coordinates>85.0214338,56.4585514,0.0</coordinates>
            </Point>
        </Placemark>
        <Placemark id="191">
            <name>Недостроенный амбулаторно-лабораторный корпус бюро судебно-медицинской экспертизы (ru)</name>
            <description/>
            <Point id="190">
                <coordinates>85.0578232,56.5278218,0.0</coordinates>
            </Point>
        </Placemark>
        <Placemark id="193">
            <name>Спортивная площадка (ru)</name>
            <description/>
            <Point id="192">
                <coordinates>84.9819074,56.5112231,0.0</coordinates>
            </Point>
        </Placemark>
        <Placemark id="195">
            <name>Petropavlovskaya ulitsa, 5</name>
            <description/>
            <Point id="194">
                <coordinates>84.964976,56.4820979,0.0</coordinates>
            </Point>
        </Placemark>
        <Placemark id="197">
            <name>Торговые ряды (ru)</name>
            <description/>
            <Point id="196">
                <coordinates>84.9785345,56.4529144,0.0</coordinates>
            </Point>
        </Placemark>
        <Placemark id="199">
            <name>Заброшенная газонаполнительная станция (ru)</name>
            <description/>
            <Point id="198">
                <coordinates>84.9812051,56.4502691,0.0</coordinates>
            </Point>
        </Placemark>
        <Placemark id="201">
            <name>Заброшенный корпус (ru)</name>
            <description/>
            <Point id="200">
                <coordinates>84.9984995,56.4458727,0.0</coordinates>
            </Point>
        </Placemark>
        <Placemark id="203">
            <name>ulitsa Musy Dzhalilya, 39/1</name>
            <description/>
            <Point id="202">
                <coordinates>84.941692,56.4752914,0.0</coordinates>
            </Point>
        </Placemark>
        <Placemark id="205">
            <name>Заброшенные гаражи (ru)</name>
            <description/>
            <Point id="204">
                <coordinates>85.0106613,56.4627247,0.0</coordinates>
            </Point>
        </Placemark>
        <Placemark id="207">
            <name>Торговый центр «Лавки» (ru)</name>
            <description/>
            <Point id="206">
                <coordinates>84.9470319,56.4989731,0.0</coordinates>
            </Point>
        </Placemark>
        <Placemark id="209">
            <name>Недействующий наземный переход между зданиями (ru)</name>
            <description/>
            <Point id="208">
                <coordinates>85.0599114,56.5249569,0.0</coordinates>
            </Point>
        </Placemark>
        <Placemark id="211">
            <name>Заброшенный детский сад (ru)</name>
            <description/>
            <Point id="210">
                <coordinates>84.9496284,56.4768367,0.0</coordinates>
            </Point>
        </Placemark>
        <Placemark id="213">
            <name>Заброшенная дача № 5 ДОЛ «Пламя» (ru)</name>
            <description/>
            <Point id="212">
                <coordinates>84.9713193,56.4082818,0.0</coordinates>
            </Point>
        </Placemark>
        <Placemark id="215">
            <name>ул. Вавилова (ru), 6/1</name>
            <description/>
            <Point id="214">
                <coordinates>85.0460216,56.4697924,0.0</coordinates>
            </Point>
        </Placemark>
        <Placemark id="217">
            <name>Заброшенный корпус (ru)</name>
            <description/>
            <Point id="216">
                <coordinates>84.9993722,56.4465132,0.0</coordinates>
            </Point>
        </Placemark>
        <Placemark id="219">
            <name>prospekt Frunze, 15</name>
            <description/>
            <Point id="218">
                <coordinates>84.9577756,56.476022,0.0</coordinates>
            </Point>
        </Placemark>
        <Placemark id="221">
            <name>Днепровский пер. (ru), 25</name>
            <description/>
            <Point id="220">
                <coordinates>84.9669152,56.5264439,0.0</coordinates>
            </Point>
        </Placemark>
        <Placemark id="223">
            <name>Причал № 4 (ru)</name>
            <description/>
            <Point id="222">
                <coordinates>84.942037,56.4934775,0.0</coordinates>
            </Point>
        </Placemark>
        <Placemark id="225">
            <name>Заброшенное кирпичное здание (ru)</name>
            <description/>
            <Point id="224">
                <coordinates>84.9791743,56.4146596,0.0</coordinates>
            </Point>
        </Placemark>
        <Placemark id="227">
            <name>Заброшенный жилой дом (ru)</name>
            <description/>
            <Point id="226">
                <coordinates>85.0725996,56.4969018,0.0</coordinates>
            </Point>
        </Placemark>
        <Placemark id="229">
            <name>Дом Д. И. Колотиловой — объект культурного наследия (ru)</name>
            <description/>
            <Point id="228">
                <coordinates>84.9523077,56.481629,0.0</coordinates>
            </Point>
        </Placemark>
        <Placemark id="231">
            <name>Причал № 1 (ru)</name>
            <description/>
            <Point id="230">
                <coordinates>84.9420839,56.4923516,0.0</coordinates>
            </Point>
        </Placemark>
        <Placemark id="233">
            <name>prospekt Frunze, 10</name>
            <description/>
            <Point id="232">
                <coordinates>84.9537362,56.4764134,0.0</coordinates>
            </Point>
        </Placemark>
        <Placemark id="235">
            <name>Причал № 2 (ru)</name>
            <description/>
            <Point id="234">
                <coordinates>84.9420712,56.4926959,0.0</coordinates>
            </Point>
        </Placemark>
        <Placemark id="237">
            <name>Недостроенный 14-этажный многоквартирный жилой дом (ru)</name>
            <description/>
            <Point id="236">
                <coordinates>84.9806869,56.521981,0.0</coordinates>
            </Point>
        </Placemark>
        <Placemark id="239">
            <name>Причал № 3 (ru)</name>
            <description/>
            <Point id="238">
                <coordinates>84.9420545,56.4931338,0.0</coordinates>
            </Point>
        </Placemark>
        <Placemark id="241">
            <name>ул. Свердлова (ru), 4</name>
            <description/>
            <Point id="240">
                <coordinates>84.9582971,56.4883946,0.0</coordinates>
            </Point>
        </Placemark>
        <Placemark id="243">
            <name>Заброшенное здание (ru)</name>
            <description/>
            <Point id="242">
                <coordinates>84.8706937,56.4150854,0.0</coordinates>
            </Point>
        </Placemark>
        <Placemark id="245">
            <name>ул. Кутузова (ru), 13</name>
            <description/>
            <Point id="244">
                <coordinates>84.9816649,56.5414291,0.0</coordinates>
            </Point>
        </Placemark>
        <Placemark id="247">
            <name>Причал № 6 (ru)</name>
            <description/>
            <Point id="246">
                <coordinates>84.9420128,56.4942844,0.0</coordinates>
            </Point>
        </Placemark>
        <Placemark id="249">
            <name>Развалины здания (ru)</name>
            <description/>
            <Point id="248">
                <coordinates>84.9372123,56.4626238,0.0</coordinates>
            </Point>
        </Placemark>
        <Placemark id="251">
            <name>Заброшенный девятиэтажный жилой дом (ru)</name>
            <description/>
            <Point id="250">
                <coordinates>84.9680256,56.4942825,0.0</coordinates>
            </Point>
        </Placemark>
        <Placemark id="253">
            <name>Заброшенная дача ДОЛ «Пламя» (ru)</name>
            <description/>
            <Point id="252">
                <coordinates>84.9708446,56.4097406,0.0</coordinates>
            </Point>
        </Placemark>
        <Placemark id="255">
            <name>ulitsa Krylova, 7а</name>
            <description/>
            <Point id="254">
                <coordinates>84.9539265,56.4825667,0.0</coordinates>
            </Point>
        </Placemark>
        <Placemark id="257">
            <name>Нечевский пер. (ru), 9</name>
            <description/>
            <Point id="256">
                <coordinates>84.9646138,56.4737554,0.0</coordinates>
            </Point>
        </Placemark>
        <Placemark id="259">
            <name>Главное здание (ru)</name>
            <description/>
            <Point id="258">
                <coordinates>85.1644505,56.5219943,0.0</coordinates>
            </Point>
        </Placemark>
        <Placemark id="261">
            <name>«Дом томского купца К. Н. Колотилова» — памятник архитектуры (ru)</name>
            <description/>
            <Point id="260">
                <coordinates>84.9518124,56.4816386,0.0</coordinates>
            </Point>
        </Placemark>
        <Placemark id="263">
            <name>prospekt Kirova, 36/2</name>
            <description/>
            <Point id="262">
                <coordinates>84.9678164,56.4673847,0.0</coordinates>
            </Point>
        </Placemark>
        <Placemark id="265">
            <name>Остатки трамплина К-40 (ru)</name>
            <description/>
            <Point id="264">
                <coordinates>85.0202039,56.4594044,0.0</coordinates>
            </Point>
        </Placemark>
        <Placemark id="267">
            <name>Заброшенная пристань «Семейкин остров» (ru)</name>
            <description/>
            <Point id="266">
                <coordinates>84.9310151,56.495966,0.0</coordinates>
            </Point>
        </Placemark>
        <Placemark id="269">
            <name>ulitsa Pushkina, 28а</name>
            <description/>
            <Point id="268">
                <coordinates>84.9617185,56.4967715,0.0</coordinates>
            </Point>
        </Placemark>
        <Placemark id="271">
            <name>Весенняя пристань (ru)</name>
            <description/>
            <Point id="270">
                <coordinates>84.9071073,56.5157649,0.0</coordinates>
            </Point>
        </Placemark>
        <Placemark id="273">
            <name>ulitsa Gogolya, 18</name>
            <description/>
            <Point id="272">
                <coordinates>84.9621555,56.4775299,0.0</coordinates>
            </Point>
        </Placemark>
        <Placemark id="275">
            <name>pereulok Nakhanovicha, 1/1</name>
            <description/>
            <Point id="274">
                <coordinates>84.9464982,56.4826406,0.0</coordinates>
            </Point>
        </Placemark>
        <Placemark id="277">
            <name>Нечевский пер. (ru), 18а</name>
            <description/>
            <Point id="276">
                <coordinates>84.9663788,56.4740939,0.0</coordinates>
            </Point>
        </Placemark>
        <Placemark id="279">
            <name>Krasnoarmeyskaya ulitsa, 80а</name>
            <description/>
            <Point id="278">
                <coordinates>84.9658048,56.470391,0.0</coordinates>
            </Point>
        </Placemark>
        <Placemark id="281">
            <name>ulitsa Alekseya Belentsa, 4</name>
            <description/>
            <Point id="280">
                <coordinates>84.9463983,56.4819452,0.0</coordinates>
            </Point>
        </Placemark>
        <Placemark id="283">
            <name>ул. Кузнецова (ru), 33</name>
            <description/>
            <Point id="282">
                <coordinates>84.9546602,56.4673921,0.0</coordinates>
            </Point>
        </Placemark>
        <Placemark id="285">
            <name>ул. Шишкова (ru), 8</name>
            <description/>
            <Point id="284">
                <coordinates>84.9563607,56.488073,0.0</coordinates>
            </Point>
        </Placemark>
        <Placemark id="287">
            <name>Заброшенный корпус (ru)</name>
            <description/>
            <Point id="286">
                <coordinates>84.9989461,56.4452582,0.0</coordinates>
            </Point>
        </Placemark>
        <Placemark id="289">
            <name>Развалины магазина (ru)</name>
            <description/>
            <Point id="288">
                <coordinates>84.9452831,56.4997952,0.0</coordinates>
            </Point>
        </Placemark>
        <Placemark id="291">
            <name>ulitsa Rozy Lyuksemburg, 50а</name>
            <description/>
            <Point id="290">
                <coordinates>84.9508172,56.4984404,0.0</coordinates>
            </Point>
        </Placemark>
        <Placemark id="293">
            <name>ул. Карла Маркса (ru), 41</name>
            <description/>
            <Point id="292">
                <coordinates>84.9457498,56.4967773,0.0</coordinates>
            </Point>
        </Placemark>
        <Placemark id="295">
            <name>«Бункер профессора Орлова» (ru)</name>
            <description/>
            <Point id="294">
                <coordinates>84.9450825,56.4655084,0.0</coordinates>
            </Point>
        </Placemark>
        <Placemark id="297">
            <name>ulitsa Devyatnadtsatoy Gvardeyskoy Divizii, 27</name>
            <description/>
            <Point id="296">
                <coordinates>84.9714538,56.447339,0.0</coordinates>
            </Point>
        </Placemark>
        <Placemark id="299">
            <name>Остатки трамплина К-20 (ru)</name>
            <description/>
            <Point id="298">
                <coordinates>85.0204923,56.4596378,0.0</coordinates>
            </Point>
        </Placemark>
        <Placemark id="301">
            <name>Sovetskaya ulitsa, 8</name>
            <description/>
            <Point id="300">
                <coordinates>84.9534854,56.4827622,0.0</coordinates>
            </Point>
        </Placemark>
        <Placemark id="303">
            <name>пос. Хромовка (ru), 41</name>
            <description/>
            <Point id="302">
                <coordinates>85.0314158,56.4965213,0.0</coordinates>
            </Point>
        </Placemark>
        <Placemark id="305">
            <name>Заброшенная баня (ru)</name>
            <description/>
            <Point id="304">
                <coordinates>84.9571626,56.4876965,0.0</coordinates>
            </Point>
        </Placemark>
        <Placemark id="307">
            <name>Заброшенное здание (ru)</name>
            <description/>
            <Point id="306">
                <coordinates>84.9597268,56.4601067,0.0</coordinates>
            </Point>
        </Placemark>
        <Placemark id="309">
            <name>Гаражи (ru)</name>
            <description/>
            <Point id="308">
                <coordinates>85.001555,56.4962371,0.0</coordinates>
            </Point>
        </Placemark>
        <Placemark id="311">
            <name>Krasnoarmeyskaya ulitsa, 45</name>
            <description/>
            <Point id="310">
                <coordinates>84.9651083,56.4745801,0.0</coordinates>
            </Point>
        </Placemark>
        <Placemark id="313">
            <name>Заброшенное здание (ru)</name>
            <description/>
            <Point id="312">
                <coordinates>84.8638968,56.4091945,0.0</coordinates>
            </Point>
        </Placemark>
        <Placemark id="315">
            <name>Заброшенная детская игровая площадка (ru)</name>
            <description/>
            <Point id="314">
                <coordinates>84.9804509,56.5135133,0.0</coordinates>
            </Point>
        </Placemark>
        <Placemark id="317">
            <name>Заброшенная трансформаторная подстанция (ru)</name>
            <description/>
            <Point id="316">
                <coordinates>84.9543195,56.5041991,0.0</coordinates>
            </Point>
        </Placemark>
        <Placemark id="319">
            <name>Заброшенный корабль (ru)</name>
            <description/>
            <Point id="318">
                <coordinates>84.9350773,56.4720472,0.0</coordinates>
            </Point>
        </Placemark>
        <Placemark id="321">
            <name>Мариинский пер. (ru), 15</name>
            <description/>
            <Point id="320">
                <coordinates>84.9735187,56.493195,0.0</coordinates>
            </Point>
        </Placemark>
        <Placemark id="323">
            <name>Заброшенное здание (ru)</name>
            <description/>
            <Point id="322">
                <coordinates>84.863913,56.4089777,0.0</coordinates>
            </Point>
        </Placemark>
        <Placemark id="325">
            <name>Заброшенный индивидуальный жилой дом (ru)</name>
            <description/>
            <Point id="324">
                <coordinates>84.9938553,56.4816203,0.0</coordinates>
            </Point>
        </Placemark>
        <Placemark id="327">
            <name>Заброшенное здание (ru)</name>
            <description/>
            <Point id="326">
                <coordinates>84.9967869,56.4462181,0.0</coordinates>
            </Point>
        </Placemark>
        <Placemark id="329">
            <name>Развалины магазина (ru)</name>
            <description/>
            <Point id="328">
                <coordinates>84.9450681,56.4997986,0.0</coordinates>
            </Point>
        </Placemark>
        <Placemark id="331">
            <name>Заброшенное одноэтажное нежилое здание (ru)</name>
            <description/>
            <Point id="330">
                <coordinates>84.9894215,56.4941389,0.0</coordinates>
            </Point>
        </Placemark>
        <Placemark id="333">
            <name>Трубопроводный мост (ru)</name>
            <description/>
            <Point id="332">
                <coordinates>84.9935602,56.4613056,0.0</coordinates>
            </Point>
        </Placemark>
        <Placemark id="335">
            <name>ул. 79-й Гвардейской Дивизии (ru), 13д</name>
            <description/>
            <Point id="334">
                <coordinates>84.9822815,56.5095271,0.0</coordinates>
            </Point>
        </Placemark>
        <Placemark id="337">
            <name>Гаражи (ru)</name>
            <description/>
            <Point id="336">
                <coordinates>85.0023941,56.4968041,0.0</coordinates>
            </Point>
        </Placemark>
        <Placemark id="339">
            <name>«Лазерный домик» (ru)</name>
            <description/>
            <Point id="338">
                <coordinates>84.975281,56.4385683,0.0</coordinates>
            </Point>
        </Placemark>
        <Placemark id="341">
            <name>Недостроенная трансформаторная подстанция (ru)</name>
            <description/>
            <Point id="340">
                <coordinates>85.0595845,56.5284403,0.0</coordinates>
            </Point>
        </Placemark>
        <Placemark id="343">
            <name>Недостроенная хлораторная канализационных стоков (ru)</name>
            <description/>
            <Point id="342">
                <coordinates>85.0589842,56.5274525,0.0</coordinates>
            </Point>
        </Placemark>
        <Placemark id="345">
            <name>Развалины магазина (ru)</name>
            <description/>
            <Point id="344">
                <coordinates>84.9446691,56.4997964,0.0</coordinates>
            </Point>
        </Placemark>
        <Placemark id="347">
            <name>ulitsa Nakhimova, 8/3</name>
            <description/>
            <Point id="346">
                <coordinates>84.9574858,56.456548,0.0</coordinates>
            </Point>
        </Placemark>
        <Placemark id="349">
            <name>ulitsa Rozy Lyuksemburg, 78а</name>
            <description/>
            <Point id="348">
                <coordinates>84.9506274,56.5030972,0.0</coordinates>
            </Point>
        </Placemark>
        <Placemark id="351">
            <name>Недостроенная канализационная насосная станция (ru)</name>
            <description/>
            <Point id="350">
                <coordinates>85.059139,56.5272934,0.0</coordinates>
            </Point>
        </Placemark>
        <Placemark id="353">
            <name>Заброшенная котельная/лаборатория (ru)</name>
            <description/>
            <Point id="352">
                <coordinates>84.944398,56.4659812,0.0</coordinates>
            </Point>
        </Placemark>
        <Placemark id="355">
            <name>Ответвление перехода (ru)</name>
            <description/>
            <Point id="354">
                <coordinates>84.9922527,56.4607262,0.0</coordinates>
            </Point>
        </Placemark>
        <Placemark id="357">
            <name>Труба (ru)</name>
            <description/>
            <Point id="356">
                <coordinates>84.9162134,56.5214875,0.0</coordinates>
            </Point>
        </Placemark>
        <Placemark id="359">
            <name>Автобусный остановочный павильон (ru)</name>
            <description/>
            <Point id="358">
                <coordinates>85.021354,56.5169317,0.0</coordinates>
            </Point>
        </Placemark>
        <Placemark id="361">
            <name>Опора ЛЭП (ru)</name>
            <description/>
            <Point id="360">
                <coordinates>84.9440346,56.499907,0.0</coordinates>
            </Point>
        </Placemark>
        <Placemark id="363">
            <name>Водонапорная башня (ru)</name>
            <description/>
            <Point id="362">
                <coordinates>84.9749195,56.5289577,0.0</coordinates>
            </Point>
        </Placemark>
        <Placemark id="365">
            <name>Недействующий пост бывшего железнодорожного переезда (ru)</name>
            <description/>
            <Point id="364">
                <coordinates>85.0338443,56.4812803,0.0</coordinates>
            </Point>
        </Placemark>
        <Placemark id="367">
            <name>Автобусный остановочный павильон (ru)</name>
            <description/>
            <Point id="366">
                <coordinates>84.9757557,56.4715725,0.0</coordinates>
            </Point>
        </Placemark>
        <Placemark id="369">
            <name>Развалины кирпичного здания (ru)</name>
            <description/>
            <Point id="368">
                <coordinates>84.9770967,56.4843966,0.0</coordinates>
            </Point>
        </Placemark>
        <Placemark id="371">
            <name>Недействующий храм Святого Пантелеимона Целителя (ru)</name>
            <description/>
            <Point id="370">
                <coordinates>84.9542513,56.4588174,0.0</coordinates>
            </Point>
        </Placemark>
        <Placemark id="373">
            <name>Заброшенная колокольня (ru)</name>
            <description/>
            <Point id="372">
                <coordinates>84.9505939,56.4766786,0.0</coordinates>
            </Point>
        </Placemark>
        <Placemark id="375">
            <name>Автобусный остановочный павильон (ru)</name>
            <description/>
            <Point id="374">
                <coordinates>84.9757771,56.4702687,0.0</coordinates>
            </Point>
        </Placemark>
        <Placemark id="377">
            <name>Автобусный остановочный павильон (ru)</name>
            <description/>
            <Point id="376">
                <coordinates>84.975631,56.4752279,0.0</coordinates>
            </Point>
        </Placemark>
        <Placemark id="379">
            <name>Сторожевая вышка (ru)</name>
            <description/>
            <Point id="378">
                <coordinates>85.16928,56.5470377,0.0</coordinates>
            </Point>
        </Placemark>
        <Placemark id="381">
            <name>Ворота (ru)</name>
            <description/>
            <Point id="380">
                <coordinates>84.9432527,56.468293,0.0</coordinates>
            </Point>
        </Placemark>
        <Placemark id="383">
            <name>Бывшая дымовая труба (ru)</name>
            <description/>
            <Point id="382">
                <coordinates>85.0212601,56.5161809,0.0</coordinates>
            </Point>
        </Placemark>
        <Placemark id="385">
            <name>Автобусный остановочный павильон (ru)</name>
            <description/>
            <Point id="384">
                <coordinates>85.0250051,56.5189944,0.0</coordinates>
            </Point>
        </Placemark>
        <Placemark id="387">
            <name>Труба водосброса реки Игуменки (ru)</name>
            <description/>
            <Point id="386">
                <coordinates>84.9586834,56.4794292,0.0</coordinates>
            </Point>
        </Placemark>
        <Placemark id="389">
            <name>Опора ЛЭП (ru)</name>
            <description/>
            <Point id="388">
                <coordinates>84.9416541,56.5090067,0.0</coordinates>
            </Point>
        </Placemark>
        <Placemark id="391">
            <name>Выход коллектора реки Еланки (ru)</name>
            <description/>
            <Point id="390">
                <coordinates>84.9500722,56.4717421,0.0</coordinates>
            </Point>
        </Placemark>
        <Placemark id="393">
            <name>Сторожевая вышка (ru)</name>
            <description/>
            <Point id="392">
                <coordinates>85.1705484,56.5484133,0.0</coordinates>
            </Point>
        </Placemark>
        <Placemark id="395">
            <name>Сторожевая вышка (ru)</name>
            <description/>
            <Point id="394">
                <coordinates>85.1682523,56.548368,0.0</coordinates>
            </Point>
        </Placemark>
        <Placemark id="397">
            <name>Мачта освещения (ru)</name>
            <description/>
            <Point id="396">
                <coordinates>84.9765416,56.4549386,0.0</coordinates>
            </Point>
        </Placemark>
        <Placemark id="399">
            <name>Стул (ru)</name>
            <description/>
            <Point id="398">
                <coordinates>84.9695862,56.4075747,0.0</coordinates>
            </Point>
        </Placemark>
    </Document>
</kml>
