<?xml version="1.0" encoding="UTF-8"?>
<kml xmlns="http://www.opengis.net/kml/2.2" xmlns:gx="http://www.google.com/kml/ext/2.2">
    <Document id="1">
        <Placemark id="3">
            <name>Убежище БЭМЗа (ru)</name>
            <description/>
            <Point id="2">
                <coordinates>83.0328587,54.7391014,0.0</coordinates>
            </Point>
        </Placemark>
        <Placemark id="5">
            <name>Убежище под ЦУМом (ru)</name>
            <description/>
            <Point id="4">
                <coordinates>83.1065457,54.7556741,0.0</coordinates>
            </Point>
        </Placemark>
        <Placemark id="7">
            <name>Бывшее убежище (ru)</name>
            <description/>
            <Point id="6">
                <coordinates>83.0835163,54.7727447,0.0</coordinates>
            </Point>
        </Placemark>
        <Placemark id="9">
            <name>Вход в бункер (ru)</name>
            <description/>
            <Point id="8">
                <coordinates>82.9836613,54.8575285,0.0</coordinates>
            </Point>
        </Placemark>
        <Placemark id="11">
            <name>Поддомное бомбоубежище (ru)</name>
            <description/>
            <Point id="10">
                <coordinates>83.0996592,54.7611823,0.0</coordinates>
            </Point>
        </Placemark>
        <Placemark id="13">
            <name>Убежище «Двухдизельное» (ru)</name>
            <description/>
            <Point id="12">
                <coordinates>83.134037,54.7398926,0.0</coordinates>
            </Point>
        </Placemark>
        <Placemark id="15">
            <name>Бомбоубежище (ru)</name>
            <description/>
            <Point id="14">
                <coordinates>83.1078987,54.8429309,0.0</coordinates>
            </Point>
        </Placemark>
        <Placemark id="17">
            <name>Убежище РЖД (ru)</name>
            <description/>
            <Point id="16">
                <coordinates>83.114756,54.7624087,0.0</coordinates>
            </Point>
        </Placemark>
        <Placemark id="19">
            <name>Спуск в бомбоубежище нефтехранилища «Гигант» (ru)</name>
            <description/>
            <Point id="18">
                <coordinates>83.0786454,54.7660686,0.0</coordinates>
            </Point>
        </Placemark>
        <Placemark id="21">
            <name>Убежище АБК завода (ru)</name>
            <description/>
            <Point id="20">
                <coordinates>83.0989873,54.7661529,0.0</coordinates>
            </Point>
        </Placemark>
        <Placemark id="23">
            <name>Автовъезд в убежище (ru)</name>
            <description/>
            <Point id="22">
                <coordinates>83.1389797,54.7375841,0.0</coordinates>
            </Point>
        </Placemark>
        <Placemark id="25">
            <name>Вентшахта убежища (ru)</name>
            <description/>
            <Point id="24">
                <coordinates>83.1094733,54.7594373,0.0</coordinates>
            </Point>
        </Placemark>
        <Placemark id="27">
            <name>Вентшахта бомбоубежища (ru)</name>
            <description/>
            <Point id="26">
                <coordinates>83.107164,54.8412407,0.0</coordinates>
            </Point>
        </Placemark>
        <Placemark id="29">
            <name>Вентшахта бомбоубежища (ru)</name>
            <description/>
            <Point id="28">
                <coordinates>83.1076856,54.842986,0.0</coordinates>
            </Point>
        </Placemark>
        <Placemark id="31">
            <name>Вентшахта убежища (ru)</name>
            <description/>
            <Point id="30">
                <coordinates>83.1088336,54.7594614,0.0</coordinates>
            </Point>
        </Placemark>
        <Placemark id="33">
            <name>Аварийный выход из убежища (ru)</name>
            <description/>
            <Point id="32">
                <coordinates>83.1389549,54.7421284,0.0</coordinates>
            </Point>
        </Placemark>
        <Placemark id="35">
            <name>Бомбоубежище института (ru)</name>
            <description/>
            <Point id="34">
                <coordinates>83.1110666,54.8491285,0.0</coordinates>
            </Point>
        </Placemark>
        <Placemark id="37">
            <name>Веншахта бомбоубежища (ru)</name>
            <description/>
            <Point id="36">
                <coordinates>83.1089181,54.8422817,0.0</coordinates>
            </Point>
        </Placemark>
        <Placemark id="39">
            <name>Оголовок вентшахты убежища гражданской обороны (аварийный выход) (ru)</name>
            <description/>
            <Point id="38">
                <coordinates>83.0816762,54.8618611,0.0</coordinates>
            </Point>
        </Placemark>
        <Placemark id="41">
            <name>Вентшахта бомбоубежища (ru)</name>
            <description/>
            <Point id="40">
                <coordinates>83.1140004,54.8430886,0.0</coordinates>
            </Point>
        </Placemark>
        <Placemark id="43">
            <name>Вентшахта бомбоубежища (ru)</name>
            <description/>
            <Point id="42">
                <coordinates>83.1101372,54.841314,0.0</coordinates>
            </Point>
        </Placemark>
    </Document>
</kml>
