<?xml version="1.0" encoding="UTF-8"?>
<kml xmlns="http://www.opengis.net/kml/2.2" xmlns:gx="http://www.google.com/kml/ext/2.2">
    <Document id="1059">
        <Placemark id="1061">
            <name>Заброшенное бомбоубежище (ru)</name>
            <description/>
            <Point id="1060">
                <coordinates>58.6124897,51.2099282,0.0</coordinates>
            </Point>
        </Placemark>
        <Placemark id="1063">
            <name>Вентшахта бомбоубежища (ru)</name>
            <description/>
            <Point id="1062">
                <coordinates>58.4754246,51.2320367,0.0</coordinates>
            </Point>
        </Placemark>
        <Placemark id="1065">
            <name>Вход в бомбоубежище (ru)</name>
            <description/>
            <Point id="1064">
                <coordinates>58.4691873,51.2390103,0.0</coordinates>
            </Point>
        </Placemark>
    </Document>
</kml>
