<?xml version="1.0" encoding="UTF-8"?>
<kml xmlns="http://www.opengis.net/kml/2.2" xmlns:gx="http://www.google.com/kml/ext/2.2">
    <Document id="1163">
        <Placemark id="1165">
            <name>Территория бывшего плодопитомника (ru)</name>
            <description/>
            <Point id="1164">
                <coordinates>58.9529311,53.3435475,0.0</coordinates>
            </Point>
        </Placemark>
        <Placemark id="1167">
            <name>Парк «Притяжение» (ru)</name>
            <description/>
            <Point id="1166">
                <coordinates>58.9505151,53.3811053,0.0</coordinates>
            </Point>
        </Placemark>
        <Placemark id="1169">
            <name>Бывший танкодром (ru)</name>
            <description/>
            <Point id="1168">
                <coordinates>58.9218555,53.4313214,0.0</coordinates>
            </Point>
        </Placemark>
        <Placemark id="1171">
            <name>Заброшенный санаторий-профилакторий «Зелёный городок» (ru)</name>
            <description/>
            <Point id="1170">
                <coordinates>59.0505588,53.3639616,0.0</coordinates>
            </Point>
        </Placemark>
        <Placemark id="1173">
            <name>Войсковая часть 04671 (ru)</name>
            <description/>
            <Point id="1172">
                <coordinates>59.0591901,53.3418085,0.0</coordinates>
            </Point>
        </Placemark>
        <Placemark id="1175">
            <name>Заброшенный левобережный парк металлургов (ru)</name>
            <description/>
            <Point id="1174">
                <coordinates>59.0564059,53.40611,0.0</coordinates>
            </Point>
        </Placemark>
        <Placemark id="1177">
            <name>Заброшенная лодочная станция и парк отдыха (ru)</name>
            <description/>
            <Point id="1176">
                <coordinates>59.0392418,53.3705166,0.0</coordinates>
            </Point>
        </Placemark>
        <Placemark id="1179">
            <name>В\ч 12523 (ru)</name>
            <description/>
            <Point id="1178">
                <coordinates>59.0566031,53.3389348,0.0</coordinates>
            </Point>
        </Placemark>
        <Placemark id="1181">
            <name>Заброшенная строительная площадка котельной (ru)</name>
            <description/>
            <Point id="1180">
                <coordinates>59.0200956,53.357262,0.0</coordinates>
            </Point>
        </Placemark>
        <Placemark id="1183">
            <name>Бывший детский лагерь «Звёздный» (ru)</name>
            <description/>
            <Point id="1182">
                <coordinates>59.0496549,53.3669957,0.0</coordinates>
            </Point>
        </Placemark>
        <Placemark id="1185">
            <name>Место бывших аттракционов (ru)</name>
            <description/>
            <Point id="1184">
                <coordinates>59.0007635,53.4295381,0.0</coordinates>
            </Point>
        </Placemark>
        <Placemark id="1187">
            <name>Бывшая Магнитогорская швейная фабрика (ru)</name>
            <description/>
            <Point id="1186">
                <coordinates>59.0600376,53.3989621,0.0</coordinates>
            </Point>
        </Placemark>
        <Placemark id="1189">
            <name>Заброшенные корпуса кирпичного завода (ru)</name>
            <description/>
            <Point id="1188">
                <coordinates>59.0534343,53.442995,0.0</coordinates>
            </Point>
        </Placemark>
        <Placemark id="1191">
            <name>Остатки гаражей (ru)</name>
            <description/>
            <Point id="1190">
                <coordinates>58.9511491,53.3696925,0.0</coordinates>
            </Point>
        </Placemark>
        <Placemark id="1193">
            <name>Бывшая лодочная станция (ru)</name>
            <description/>
            <Point id="1192">
                <coordinates>59.039918,53.3683332,0.0</coordinates>
            </Point>
        </Placemark>
        <Placemark id="1195">
            <name>Бункер (ru)</name>
            <description/>
            <Point id="1194">
                <coordinates>59.0593825,53.4003463,0.0</coordinates>
            </Point>
        </Placemark>
        <Placemark id="1197">
            <name>Magnitogorsk State University</name>
            <description/>
            <Point id="1196">
                <coordinates>58.9872345,53.3881068,0.0</coordinates>
            </Point>
        </Placemark>
        <Placemark id="1199">
            <name>Бывшая территория наркологического центра «Аркаиф» (ru)</name>
            <description/>
            <Point id="1198">
                <coordinates>58.9794051,53.4392822,0.0</coordinates>
            </Point>
        </Placemark>
        <Placemark id="1201">
            <name>Котлован под фундамент (замороженное строительства) (ru)</name>
            <description/>
            <Point id="1200">
                <coordinates>58.9912605,53.3911156,0.0</coordinates>
            </Point>
        </Placemark>
        <Placemark id="1203">
            <name>Долгострой, замороженное строительство (ru)</name>
            <description/>
            <Point id="1202">
                <coordinates>58.8995006,53.3911267,0.0</coordinates>
            </Point>
        </Placemark>
        <Placemark id="1205">
            <name>Недостроенный роддом (ru)</name>
            <description/>
            <Point id="1204">
                <coordinates>58.9490801,53.3506946,0.0</coordinates>
            </Point>
        </Placemark>
        <Placemark id="1207">
            <name>Замороженная стройка (ru)</name>
            <description/>
            <Point id="1206">
                <coordinates>58.9882134,53.3606752,0.0</coordinates>
            </Point>
        </Placemark>
        <Placemark id="1209">
            <name>Руины (ru)</name>
            <description/>
            <Point id="1208">
                <coordinates>59.0022601,53.4134048,0.0</coordinates>
            </Point>
        </Placemark>
        <Placemark id="1211">
            <name>Территория бывшего кафе «Летучая мышь» (ru)</name>
            <description/>
            <Point id="1210">
                <coordinates>58.9881196,53.3999664,0.0</coordinates>
            </Point>
        </Placemark>
        <Placemark id="1213">
            <name>Пустырь (ru)</name>
            <description/>
            <Point id="1212">
                <coordinates>59.0347431,53.386379,0.0</coordinates>
            </Point>
        </Placemark>
        <Placemark id="1215">
            <name>Заброшенное строительство гостиницы (ru)</name>
            <description/>
            <Point id="1214">
                <coordinates>58.9868952,53.3970806,0.0</coordinates>
            </Point>
        </Placemark>
        <Placemark id="1217">
            <name>Замороженное строительство (ru)</name>
            <description/>
            <Point id="1216">
                <coordinates>58.982821,53.3804086,0.0</coordinates>
            </Point>
        </Placemark>
        <Placemark id="1219">
            <name>Стройка (ru)</name>
            <description/>
            <Point id="1218">
                <coordinates>58.9545429,53.3597531,0.0</coordinates>
            </Point>
        </Placemark>
        <Placemark id="1221">
            <name>Хранилище (ru)</name>
            <description/>
            <Point id="1220">
                <coordinates>59.0558067,53.3377666,0.0</coordinates>
            </Point>
        </Placemark>
        <Placemark id="1223">
            <name>Бывшая поликлиника профосмотров (ru)</name>
            <description/>
            <Point id="1222">
                <coordinates>59.0414572,53.397803,0.0</coordinates>
            </Point>
        </Placemark>
        <Placemark id="1225">
            <name>Бывший родильный дом № 2 (ru)</name>
            <description/>
            <Point id="1224">
                <coordinates>59.0600283,53.448695,0.0</coordinates>
            </Point>
        </Placemark>
        <Placemark id="1227">
            <name>Склад (ru)</name>
            <description/>
            <Point id="1226">
                <coordinates>58.9785387,53.437964,0.0</coordinates>
            </Point>
        </Placemark>
        <Placemark id="1229">
            <name>Заброшенное здание (ru)</name>
            <description/>
            <Point id="1228">
                <coordinates>58.9260475,53.4256833,0.0</coordinates>
            </Point>
        </Placemark>
        <Placemark id="1231">
            <name>Magnitnaya ulitsa, 53</name>
            <description/>
            <Point id="1230">
                <coordinates>59.0353936,53.3857936,0.0</coordinates>
            </Point>
        </Placemark>
        <Placemark id="1233">
            <name>Заброшенная стройка ТЦ (ru)</name>
            <description/>
            <Point id="1232">
                <coordinates>58.9960375,53.3669729,0.0</coordinates>
            </Point>
        </Placemark>
        <Placemark id="1235">
            <name>Недостроенное здание депо (ru)</name>
            <description/>
            <Point id="1234">
                <coordinates>59.0097292,53.3618374,0.0</coordinates>
            </Point>
        </Placemark>
        <Placemark id="1237">
            <name>Качели, карусели (ru)</name>
            <description/>
            <Point id="1236">
                <coordinates>59.0506218,53.3672542,0.0</coordinates>
            </Point>
        </Placemark>
        <Placemark id="1239">
            <name>Бывшая спортивная площадка (ru)</name>
            <description/>
            <Point id="1238">
                <coordinates>58.9736282,53.4064219,0.0</coordinates>
            </Point>
        </Placemark>
        <Placemark id="1241">
            <name>Сожженный клуб &quot;Металлург&quot; (ru)</name>
            <description/>
            <Point id="1240">
                <coordinates>58.9978293,53.3710799,0.0</coordinates>
            </Point>
        </Placemark>
        <Placemark id="1243">
            <name>ulitsa Nikolaya Shishka, 18</name>
            <description/>
            <Point id="1242">
                <coordinates>58.9948359,53.4316541,0.0</coordinates>
            </Point>
        </Placemark>
        <Placemark id="1245">
            <name>Недостроенный дом (ru)</name>
            <description/>
            <Point id="1244">
                <coordinates>58.9753255,53.3583605,0.0</coordinates>
            </Point>
        </Placemark>
        <Placemark id="1247">
            <name>Плавательный бассейн (ru)</name>
            <description/>
            <Point id="1246">
                <coordinates>58.9812371,53.3884284,0.0</coordinates>
            </Point>
        </Placemark>
        <Placemark id="1249">
            <name>Бывший хозяйственный корпус колледжа (ru)</name>
            <description/>
            <Point id="1248">
                <coordinates>59.0579039,53.398932,0.0</coordinates>
            </Point>
        </Placemark>
        <Placemark id="1251">
            <name>Заброшенный объект (ru)</name>
            <description/>
            <Point id="1250">
                <coordinates>59.0193862,53.3581877,0.0</coordinates>
            </Point>
        </Placemark>
        <Placemark id="1253">
            <name>Лечебный корпус (ru)</name>
            <description/>
            <Point id="1252">
                <coordinates>59.0527543,53.3637682,0.0</coordinates>
            </Point>
        </Placemark>
        <Placemark id="1255">
            <name>Заброшенные фонтаны (ru)</name>
            <description/>
            <Point id="1254">
                <coordinates>58.9878554,53.3880819,0.0</coordinates>
            </Point>
        </Placemark>
        <Placemark id="1257">
            <name>Бывшее здание Ленинского РОВД (ru)</name>
            <description/>
            <Point id="1256">
                <coordinates>58.9778119,53.4268694,0.0</coordinates>
            </Point>
        </Placemark>
        <Placemark id="1259">
            <name>Недостроенное здание (ru)</name>
            <description/>
            <Point id="1258">
                <coordinates>58.984985,53.3445668,0.0</coordinates>
            </Point>
        </Placemark>
        <Placemark id="1261">
            <name>Заброшенный дом (ru)</name>
            <description/>
            <Point id="1260">
                <coordinates>58.9453288,53.3531432,0.0</coordinates>
            </Point>
        </Placemark>
        <Placemark id="1263">
            <name>Заброшенное здание (ru)</name>
            <description/>
            <Point id="1262">
                <coordinates>58.9998139,53.4272952,0.0</coordinates>
            </Point>
        </Placemark>
        <Placemark id="1265">
            <name>Бывший автосалон «Авторитет» (ru)</name>
            <description/>
            <Point id="1264">
                <coordinates>58.9789585,53.4053762,0.0</coordinates>
            </Point>
        </Placemark>
        <Placemark id="1267">
            <name>Заброшенный жилой дом (ru)</name>
            <description/>
            <Point id="1266">
                <coordinates>58.932044,53.3924023,0.0</coordinates>
            </Point>
        </Placemark>
        <Placemark id="1269">
            <name>Заброшенное административно-офисное здание (ru)</name>
            <description/>
            <Point id="1268">
                <coordinates>59.0569075,53.4088467,0.0</coordinates>
            </Point>
        </Placemark>
        <Placemark id="1271">
            <name>Недостроенное сооружение (ru)</name>
            <description/>
            <Point id="1270">
                <coordinates>58.9702722,53.4391592,0.0</coordinates>
            </Point>
        </Placemark>
        <Placemark id="1273">
            <name>Заброшенное общежитие (ru)</name>
            <description/>
            <Point id="1272">
                <coordinates>58.9928859,53.4308997,0.0</coordinates>
            </Point>
        </Placemark>
        <Placemark id="1275">
            <name>Недостроенное административное здание (ru)</name>
            <description/>
            <Point id="1274">
                <coordinates>58.9891254,53.4578508,0.0</coordinates>
            </Point>
        </Placemark>
        <Placemark id="1277">
            <name>Бывшая танцплощадка (ru)</name>
            <description/>
            <Point id="1276">
                <coordinates>59.05619,53.4062308,0.0</coordinates>
            </Point>
        </Placemark>
        <Placemark id="1279">
            <name>Заброшенное здание (ru)</name>
            <description/>
            <Point id="1278">
                <coordinates>58.9570181,53.3633886,0.0</coordinates>
            </Point>
        </Placemark>
        <Placemark id="1281">
            <name>Недостроенное здание (ru)</name>
            <description/>
            <Point id="1280">
                <coordinates>59.0529486,53.3846841,0.0</coordinates>
            </Point>
        </Placemark>
        <Placemark id="1283">
            <name>ulitsa Gryaznova, 42г</name>
            <description/>
            <Point id="1282">
                <coordinates>58.9879573,53.3975983,0.0</coordinates>
            </Point>
        </Placemark>
        <Placemark id="1285">
            <name>Недействующий подземный пешеходный переход (ru)</name>
            <description/>
            <Point id="1284">
                <coordinates>59.0460174,53.4026592,0.0</coordinates>
            </Point>
        </Placemark>
        <Placemark id="1287">
            <name>Заброшенный многоквартирный дом (ru)</name>
            <description/>
            <Point id="1286">
                <coordinates>59.0537612,53.4037044,0.0</coordinates>
            </Point>
        </Placemark>
        <Placemark id="1289">
            <name>Бассейн (ru)</name>
            <description/>
            <Point id="1288">
                <coordinates>59.0209565,53.3574048,0.0</coordinates>
            </Point>
        </Placemark>
        <Placemark id="1291">
            <name>Заброшенная детская игровая площадка (ru)</name>
            <description/>
            <Point id="1290">
                <coordinates>58.9867835,53.4122637,0.0</coordinates>
            </Point>
        </Placemark>
        <Placemark id="1293">
            <name>Заброшенная детская площадка (ru)</name>
            <description/>
            <Point id="1292">
                <coordinates>58.9952783,53.4142249,0.0</coordinates>
            </Point>
        </Placemark>
        <Placemark id="1295">
            <name>Заброшенный объект (ru)</name>
            <description/>
            <Point id="1294">
                <coordinates>59.0361261,53.3752085,0.0</coordinates>
            </Point>
        </Placemark>
        <Placemark id="1297">
            <name>Бывший пожарный бокс (ru)</name>
            <description/>
            <Point id="1296">
                <coordinates>59.0527682,53.3626364,0.0</coordinates>
            </Point>
        </Placemark>
        <Placemark id="1299">
            <name>Заброшенное сооружение (ru)</name>
            <description/>
            <Point id="1298">
                <coordinates>59.0357972,53.3861494,0.0</coordinates>
            </Point>
        </Placemark>
        <Placemark id="1301">
            <name>Неработающий фонтан (ru)</name>
            <description/>
            <Point id="1300">
                <coordinates>59.0571476,53.3900023,0.0</coordinates>
            </Point>
        </Placemark>
        <Placemark id="1303">
            <name>Заброшенное сооружение (ru)</name>
            <description/>
            <Point id="1302">
                <coordinates>59.0008412,53.4154399,0.0</coordinates>
            </Point>
        </Placemark>
        <Placemark id="1305">
            <name>Полузаброшенный дом (ru)</name>
            <description/>
            <Point id="1304">
                <coordinates>58.9678233,53.444798,0.0</coordinates>
            </Point>
        </Placemark>
        <Placemark id="1307">
            <name>Вагон (ru)</name>
            <description/>
            <Point id="1306">
                <coordinates>58.9762427,53.4432371,0.0</coordinates>
            </Point>
        </Placemark>
        <Placemark id="1309">
            <name>Павильон (ru)</name>
            <description/>
            <Point id="1308">
                <coordinates>58.9776941,53.3597687,0.0</coordinates>
            </Point>
        </Placemark>
        <Placemark id="1311">
            <name>Развалины сооружения (ru)</name>
            <description/>
            <Point id="1310">
                <coordinates>59.0507652,53.3614595,0.0</coordinates>
            </Point>
        </Placemark>
        <Placemark id="1313">
            <name>Заброшенный объект (ru)</name>
            <description/>
            <Point id="1312">
                <coordinates>58.9830444,53.4573882,0.0</coordinates>
            </Point>
        </Placemark>
        <Placemark id="1315">
            <name>Недействующий фонтан (ru)</name>
            <description/>
            <Point id="1314">
                <coordinates>58.9644518,53.3931384,0.0</coordinates>
            </Point>
        </Placemark>
        <Placemark id="1317">
            <name>Затопленная лодка (ru)</name>
            <description/>
            <Point id="1316">
                <coordinates>58.9969521,53.3976324,0.0</coordinates>
            </Point>
        </Placemark>
        <Placemark id="1319">
            <name>Трансформаторная будка (ru)</name>
            <description/>
            <Point id="1318">
                <coordinates>59.0490862,53.3633466,0.0</coordinates>
            </Point>
        </Placemark>
        <Placemark id="1321">
            <name>Бывшая будка справочного бюро вокзала (ru)</name>
            <description/>
            <Point id="1320">
                <coordinates>58.9816086,53.4381993,0.0</coordinates>
            </Point>
        </Placemark>
        <Placemark id="1323">
            <name>Заброшенное сооружение (ru)</name>
            <description/>
            <Point id="1322">
                <coordinates>58.9844959,53.4337097,0.0</coordinates>
            </Point>
        </Placemark>
        <Placemark id="1325">
            <name>неиспользуемая сторожевая будка (ru)</name>
            <description/>
            <Point id="1324">
                <coordinates>59.0105536,53.4557947,0.0</coordinates>
            </Point>
        </Placemark>
        <Placemark id="1327">
            <name>Бывшая будка справочного бюро вокзала (ru)</name>
            <description/>
            <Point id="1326">
                <coordinates>58.9813155,53.438194,0.0</coordinates>
            </Point>
        </Placemark>
        <Placemark id="1329">
            <name>Заброшенное строение (ru)</name>
            <description/>
            <Point id="1328">
                <coordinates>59.0035557,53.399154,0.0</coordinates>
            </Point>
        </Placemark>
        <Placemark id="1331">
            <name>Будка (ru)</name>
            <description/>
            <Point id="1330">
                <coordinates>59.059166,53.3983072,0.0</coordinates>
            </Point>
        </Placemark>
        <Placemark id="1333">
            <name>Заброшенное спортивное сооружение (ru)</name>
            <description/>
            <Point id="1332">
                <coordinates>58.992049,53.3727562,0.0</coordinates>
            </Point>
        </Placemark>
        <Placemark id="1335">
            <name>Бывшая площадка горнолыжного подъёмника (ru)</name>
            <description/>
            <Point id="1334">
                <coordinates>59.0492605,53.3592769,0.0</coordinates>
            </Point>
        </Placemark>
        <Placemark id="1337">
            <name>Заброшенная летняя эстрада (ru)</name>
            <description/>
            <Point id="1336">
                <coordinates>58.9764332,53.4429903,0.0</coordinates>
            </Point>
        </Placemark>
        <Placemark id="1339">
            <name>Заброшенный учебный дот (ru)</name>
            <description/>
            <Point id="1338">
                <coordinates>59.0565863,53.33778,0.0</coordinates>
            </Point>
        </Placemark>
        <Placemark id="1341">
            <name>Заброшенный автомобиль (ru)</name>
            <description/>
            <Point id="1340">
                <coordinates>58.959825,53.3556216,0.0</coordinates>
            </Point>
        </Placemark>
        <Placemark id="1343">
            <name>Недействующий музей интересных вещей (ru)</name>
            <description/>
            <Point id="1342">
                <coordinates>58.9699047,53.4070104,0.0</coordinates>
            </Point>
        </Placemark>
        <Placemark id="1345">
            <name>Сгоревший автомобиль ВАЗ 2107 (ru)</name>
            <description/>
            <Point id="1344">
                <coordinates>58.9894727,53.3931229,0.0</coordinates>
            </Point>
        </Placemark>
        <Placemark id="1347">
            <name>Заброшенная вент. шахта подземного сооружения (ru)</name>
            <description/>
            <Point id="1346">
                <coordinates>58.9826093,53.4193963,0.0</coordinates>
            </Point>
        </Placemark>
        <Placemark id="1349">
            <name>Заброшенная клумба (ru)</name>
            <description/>
            <Point id="1348">
                <coordinates>58.9948044,53.416366,0.0</coordinates>
            </Point>
        </Placemark>
    </Document>
</kml>
