<?xml version="1.0" encoding="UTF-8"?>
<kml xmlns="http://www.opengis.net/kml/2.2" xmlns:gx="http://www.google.com/kml/ext/2.2">
    <Document id="245">
        <Placemark id="247">
            <name>Бывший леспромхоз &quot;Тубиль&quot;</name>
            <description/>
            <Point id="246">
                <coordinates>92.8924191,55.2464938,0.0</coordinates>
            </Point>
        </Placemark>
        <Placemark id="249">
            <name>Бывшая телевышка (ru)</name>
            <description/>
            <Point id="248">
                <coordinates>93.0241852,55.6961057,0.0</coordinates>
            </Point>
        </Placemark>
        <Placemark id="251">
            <name>Территория гаража (ru)</name>
            <description/>
            <Point id="250">
                <coordinates>93.0005442,55.6928078,0.0</coordinates>
            </Point>
        </Placemark>
        <Placemark id="253">
            <name>Бывшая пасека (ru)</name>
            <description/>
            <Point id="252">
                <coordinates>93.0140098,55.6880357,0.0</coordinates>
            </Point>
        </Placemark>
        <Placemark id="255">
            <name>Бывшая пилорама (ru)</name>
            <description/>
            <Point id="254">
                <coordinates>93.0079144,55.6890674,0.0</coordinates>
            </Point>
        </Placemark>
        <Placemark id="257">
            <name>Гараж (ru)</name>
            <description/>
            <Point id="256">
                <coordinates>93.0000413,55.6927073,0.0</coordinates>
            </Point>
        </Placemark>
        <Placemark id="259">
            <name>Бывшая пекарня (ru)</name>
            <description/>
            <Point id="258">
                <coordinates>93.0010563,55.6897496,0.0</coordinates>
            </Point>
        </Placemark>
        <Placemark id="261">
            <name>Дизельная генераторная станция (ru)</name>
            <description/>
            <Point id="260">
                <coordinates>93.0032776,55.6936899,0.0</coordinates>
            </Point>
        </Placemark>
        <Placemark id="263">
            <name>Табельная (ru)</name>
            <description/>
            <Point id="262">
                <coordinates>93.0012684,55.6928297,0.0</coordinates>
            </Point>
        </Placemark>
        <Placemark id="265">
            <name>АЗС (ru)</name>
            <description/>
            <Point id="264">
                <coordinates>93.0043172,55.6932956,0.0</coordinates>
            </Point>
        </Placemark>
    </Document>
</kml>
