<?xml version="1.0" encoding="UTF-8"?>
<kml xmlns="http://www.opengis.net/kml/2.2" xmlns:gx="http://www.google.com/kml/ext/2.2">
    <Document id="661">
        <Placemark id="663">
            <name>Заброшенный культурно-оздоровительный центр «Здоровье» (ru)</name>
            <description/>
            <Point id="662">
                <coordinates>66.1308771,57.1050234,0.0</coordinates>
            </Point>
        </Placemark>
        <Placemark id="665">
            <name>Заброшенное здание (ru)</name>
            <description/>
            <Point id="664">
                <coordinates>66.2771923,57.0960836,0.0</coordinates>
            </Point>
        </Placemark>
    </Document>
</kml>
