<?xml version="1.0" encoding="UTF-8"?>
<kml xmlns="http://www.opengis.net/kml/2.2" xmlns:gx="http://www.google.com/kml/ext/2.2">
    <Document id="271">
        <Placemark id="273">
            <name>Завод асбесто-цементных изделий (ru)</name>
            <description/>
            <Point id="272">
                <coordinates>60.0448778,57.9185574,0.0</coordinates>
            </Point>
        </Placemark>
        <Placemark id="275">
            <name>Заброшенный коллективный сад № 11 НТМК (ru)</name>
            <description/>
            <Point id="274">
                <coordinates>59.9866336,57.980024,0.0</coordinates>
            </Point>
        </Placemark>
        <Placemark id="277">
            <name>Заброшенная войсковая часть ПВО (ru)</name>
            <description/>
            <Point id="276">
                <coordinates>60.0231921,57.9427958,0.0</coordinates>
            </Point>
        </Placemark>
        <Placemark id="279">
            <name>Заброшенные цеха (ru)</name>
            <description/>
            <Point id="278">
                <coordinates>60.0064761,57.9313379,0.0</coordinates>
            </Point>
        </Placemark>
        <Placemark id="281">
            <name>Бывшая станция Гальяновская Висимо-Уткинской УЖД (ru)</name>
            <description/>
            <Point id="280">
                <coordinates>59.9179958,57.8743366,0.0</coordinates>
            </Point>
        </Placemark>
        <Placemark id="283">
            <name>Территория бывших пороховых складов (ru)</name>
            <description/>
            <Point id="282">
                <coordinates>60.0043362,57.9719739,0.0</coordinates>
            </Point>
        </Placemark>
        <Placemark id="285">
            <name>Заброшенный летний лагерь «Пионерская флотилия» (ru)</name>
            <description/>
            <Point id="284">
                <coordinates>60.0188094,57.8618769,0.0</coordinates>
            </Point>
        </Placemark>
        <Placemark id="287">
            <name>Заброшенная база отдыха (ru)</name>
            <description/>
            <Point id="286">
                <coordinates>60.0012731,57.8754408,0.0</coordinates>
            </Point>
        </Placemark>
        <Placemark id="289">
            <name>Бывшая войсковая часть 83531 (ru)</name>
            <description/>
            <Point id="288">
                <coordinates>59.9433401,57.9242412,0.0</coordinates>
            </Point>
        </Placemark>
        <Placemark id="291">
            <name>Недействующий свинокомплекс УВЗ (ru)</name>
            <description/>
            <Point id="290">
                <coordinates>60.1211571,57.9384478,0.0</coordinates>
            </Point>
        </Placemark>
        <Placemark id="293">
            <name>Территория бывшей войсковой части (ru)</name>
            <description/>
            <Point id="292">
                <coordinates>59.9372434,57.9305306,0.0</coordinates>
            </Point>
        </Placemark>
        <Placemark id="295">
            <name>Заброшенный рыбокомбинат ООО &quot;Интератлантик&quot; (ru)</name>
            <description/>
            <Point id="294">
                <coordinates>59.9417657,57.929679,0.0</coordinates>
            </Point>
        </Placemark>
        <Placemark id="297">
            <name>Бывший гормолзавод (ru)</name>
            <description/>
            <Point id="296">
                <coordinates>59.9520774,57.9189679,0.0</coordinates>
            </Point>
        </Placemark>
        <Placemark id="299">
            <name>Заросший лесом карьер (ru)</name>
            <description/>
            <Point id="298">
                <coordinates>59.9936127,57.8750243,0.0</coordinates>
            </Point>
        </Placemark>
        <Placemark id="301">
            <name>Развалины тепличного хозяйства (ru)</name>
            <description/>
            <Point id="300">
                <coordinates>60.111885,57.8928392,0.0</coordinates>
            </Point>
        </Placemark>
        <Placemark id="303">
            <name>Выйский медный рудник (ru)</name>
            <description/>
            <Point id="302">
                <coordinates>59.8938076,57.9363319,0.0</coordinates>
            </Point>
        </Placemark>
        <Placemark id="305">
            <name>Бывший цементный завод (ru)</name>
            <description/>
            <Point id="304">
                <coordinates>60.0440114,57.9182349,0.0</coordinates>
            </Point>
        </Placemark>
        <Placemark id="307">
            <name>Заброшенная ферма (ru)</name>
            <description/>
            <Point id="306">
                <coordinates>60.1093072,57.8842571,0.0</coordinates>
            </Point>
        </Placemark>
        <Placemark id="309">
            <name>Заброшенное овощехранилище (ru)</name>
            <description/>
            <Point id="308">
                <coordinates>59.901448,57.8953207,0.0</coordinates>
            </Point>
        </Placemark>
        <Placemark id="311">
            <name>Заброшенный цех (ru)</name>
            <description/>
            <Point id="310">
                <coordinates>60.0877184,57.9403455,0.0</coordinates>
            </Point>
        </Placemark>
        <Placemark id="313">
            <name>Заброшенный склад металлолома ЦПМ (ru)</name>
            <description/>
            <Point id="312">
                <coordinates>60.0292649,57.9444602,0.0</coordinates>
            </Point>
        </Placemark>
        <Placemark id="315">
            <name>Заброшенный коллективный сад (ru)</name>
            <description/>
            <Point id="314">
                <coordinates>60.0478363,57.9112202,0.0</coordinates>
            </Point>
        </Placemark>
        <Placemark id="317">
            <name>Заброшенный карьер (ru)</name>
            <description/>
            <Point id="316">
                <coordinates>59.9750732,57.9746879,0.0</coordinates>
            </Point>
        </Placemark>
        <Placemark id="319">
            <name>Заброшенная водоочистительная станция (ru)</name>
            <description/>
            <Point id="318">
                <coordinates>59.910703,57.9213824,0.0</coordinates>
            </Point>
        </Placemark>
        <Placemark id="321">
            <name>Заброшенное футбольное поле (ru)</name>
            <description/>
            <Point id="320">
                <coordinates>59.9446463,57.9375337,0.0</coordinates>
            </Point>
        </Placemark>
        <Placemark id="323">
            <name>Механический цех (ru)</name>
            <description/>
            <Point id="322">
                <coordinates>59.9443083,57.9050214,0.0</coordinates>
            </Point>
        </Placemark>
        <Placemark id="325">
            <name>Бывшее стрельбище войсковой части 83531 (ru)</name>
            <description/>
            <Point id="324">
                <coordinates>59.8868286,57.9356257,0.0</coordinates>
            </Point>
        </Placemark>
        <Placemark id="327">
            <name>Склад парка культуры (ru)</name>
            <description/>
            <Point id="326">
                <coordinates>60.0035744,57.9374454,0.0</coordinates>
            </Point>
        </Placemark>
        <Placemark id="329">
            <name>Доменная печь № 1 (ru)</name>
            <description/>
            <Point id="328">
                <coordinates>60.0041593,57.9178903,0.0</coordinates>
            </Point>
        </Placemark>
        <Placemark id="331">
            <name>Кузнечный цех (ru)</name>
            <description/>
            <Point id="330">
                <coordinates>59.9454912,57.9042447,0.0</coordinates>
            </Point>
        </Placemark>
        <Placemark id="333">
            <name>Закрытая шахта «Ново-Северная» (ru)</name>
            <description/>
            <Point id="332">
                <coordinates>59.9440884,57.9522588,0.0</coordinates>
            </Point>
        </Placemark>
        <Placemark id="335">
            <name>МОФ-1 (ru)</name>
            <description/>
            <Point id="334">
                <coordinates>59.9131036,57.910931,0.0</coordinates>
            </Point>
        </Placemark>
        <Placemark id="337">
            <name>Заброшенная стройплощадка (ru)</name>
            <description/>
            <Point id="336">
                <coordinates>59.9602245,57.9286735,0.0</coordinates>
            </Point>
        </Placemark>
        <Placemark id="339">
            <name>Заброшенный корпус бывшего медицинского училища (ru)</name>
            <description/>
            <Point id="338">
                <coordinates>60.1079768,57.9293273,0.0</coordinates>
            </Point>
        </Placemark>
        <Placemark id="341">
            <name>Энергетический цех (ru)</name>
            <description/>
            <Point id="340">
                <coordinates>59.9468565,57.9044585,0.0</coordinates>
            </Point>
        </Placemark>
        <Placemark id="343">
            <name>Мраморный карьер (ru)</name>
            <description/>
            <Point id="342">
                <coordinates>59.938319,57.9608172,0.0</coordinates>
            </Point>
        </Placemark>
        <Placemark id="345">
            <name>Заброшенный корпус бывшего медицинского училища (ru)</name>
            <description/>
            <Point id="344">
                <coordinates>60.108304,57.9301718,0.0</coordinates>
            </Point>
        </Placemark>
        <Placemark id="347">
            <name>Плац (ru)</name>
            <description/>
            <Point id="346">
                <coordinates>59.9425696,57.9239158,0.0</coordinates>
            </Point>
        </Placemark>
        <Placemark id="349">
            <name>Мартеновский цех (ru)</name>
            <description/>
            <Point id="348">
                <coordinates>59.9437679,57.9039575,0.0</coordinates>
            </Point>
        </Placemark>
        <Placemark id="351">
            <name>Прокатный цех (ru)</name>
            <description/>
            <Point id="350">
                <coordinates>59.9470629,57.9047977,0.0</coordinates>
            </Point>
        </Placemark>
        <Placemark id="353">
            <name>Рудосортировка (ru)</name>
            <description/>
            <Point id="352">
                <coordinates>59.9214426,57.8719961,0.0</coordinates>
            </Point>
        </Placemark>
        <Placemark id="355">
            <name>Доменный цех (ru)</name>
            <description/>
            <Point id="354">
                <coordinates>59.9473272,57.9038001,0.0</coordinates>
            </Point>
        </Placemark>
        <Placemark id="357">
            <name>Заброшенная химчистка (ru)</name>
            <description/>
            <Point id="356">
                <coordinates>59.9243796,57.9421196,0.0</coordinates>
            </Point>
        </Placemark>
        <Placemark id="359">
            <name>Заброшенная стройка (ru)</name>
            <description/>
            <Point id="358">
                <coordinates>59.9434795,57.8653882,0.0</coordinates>
            </Point>
        </Placemark>
        <Placemark id="361">
            <name>Заброшенный цех (ru)</name>
            <description/>
            <Point id="360">
                <coordinates>59.9425622,57.9048368,0.0</coordinates>
            </Point>
        </Placemark>
        <Placemark id="363">
            <name>Заброшенная городская больница № 1 (ru)</name>
            <description/>
            <Point id="362">
                <coordinates>60.1065261,57.9211291,0.0</coordinates>
            </Point>
        </Placemark>
        <Placemark id="365">
            <name>Гаражный бокс (ru)</name>
            <description/>
            <Point id="364">
                <coordinates>60.0756341,57.9120727,0.0</coordinates>
            </Point>
        </Placemark>
        <Placemark id="367">
            <name>Бывший кинотеатр «Кристалл» (ru)</name>
            <description/>
            <Point id="366">
                <coordinates>59.9687004,57.9687111,0.0</coordinates>
            </Point>
        </Placemark>
        <Placemark id="369">
            <name>Заброшенный каркас промышленного здания (ru)</name>
            <description/>
            <Point id="368">
                <coordinates>60.1373655,57.9347004,0.0</coordinates>
            </Point>
        </Placemark>
        <Placemark id="371">
            <name>Бывшая школа № 54 (ru)</name>
            <description/>
            <Point id="370">
                <coordinates>59.9353632,57.8635978,0.0</coordinates>
            </Point>
        </Placemark>
        <Placemark id="373">
            <name>Большая Гальянская ул. (ru), 48</name>
            <description/>
            <Point id="372">
                <coordinates>59.9682001,57.8944754,0.0</coordinates>
            </Point>
        </Placemark>
        <Placemark id="375">
            <name>Старый воздухозабор кислородного производства НТМК (ru)</name>
            <description/>
            <Point id="374">
                <coordinates>60.0073095,57.9354567,0.0</coordinates>
            </Point>
        </Placemark>
        <Placemark id="377">
            <name>Бывшая детская площадка (ru)</name>
            <description/>
            <Point id="376">
                <coordinates>59.9010134,57.8896339,0.0</coordinates>
            </Point>
        </Placemark>
        <Placemark id="379">
            <name>Заброшенные мастерские (ru)</name>
            <description/>
            <Point id="378">
                <coordinates>59.9849519,57.9179535,0.0</coordinates>
            </Point>
        </Placemark>
        <Placemark id="381">
            <name>Бывший подземный переход (ru)</name>
            <description/>
            <Point id="380">
                <coordinates>60.099324,57.9258357,0.0</coordinates>
            </Point>
        </Placemark>
        <Placemark id="383">
            <name>Большая Гальянская ул. (ru), 50</name>
            <description/>
            <Point id="382">
                <coordinates>59.9678421,57.8943906,0.0</coordinates>
            </Point>
        </Placemark>
        <Placemark id="385">
            <name>Гараж автошколы «ДОСААФ России» (ru)</name>
            <description/>
            <Point id="384">
                <coordinates>60.0748781,57.9122391,0.0</coordinates>
            </Point>
        </Placemark>
        <Placemark id="387">
            <name>Заброшенная школа № 18 (ru)</name>
            <description/>
            <Point id="386">
                <coordinates>59.9458284,57.8947013,0.0</coordinates>
            </Point>
        </Placemark>
        <Placemark id="389">
            <name>Заброшенный цех (ru)</name>
            <description/>
            <Point id="388">
                <coordinates>59.9426225,57.9062355,0.0</coordinates>
            </Point>
        </Placemark>
        <Placemark id="391">
            <name>Заброшенный цех (ru)</name>
            <description/>
            <Point id="390">
                <coordinates>59.9442278,57.9062968,0.0</coordinates>
            </Point>
        </Placemark>
        <Placemark id="393">
            <name>Заброшенный цех (ru)</name>
            <description/>
            <Point id="392">
                <coordinates>59.9407021,57.9093507,0.0</coordinates>
            </Point>
        </Placemark>
        <Placemark id="395">
            <name>Театр (ru)</name>
            <description/>
            <Point id="394">
                <coordinates>59.9440615,57.9066973,0.0</coordinates>
            </Point>
        </Placemark>
        <Placemark id="397">
            <name>Заброшенная автошкола «ДОСААФ России» (ru)</name>
            <description/>
            <Point id="396">
                <coordinates>60.0737761,57.9125367,0.0</coordinates>
            </Point>
        </Placemark>
        <Placemark id="399">
            <name>Заброшенный дом (ru)</name>
            <description/>
            <Point id="398">
                <coordinates>59.8908761,57.911139,0.0</coordinates>
            </Point>
        </Placemark>
        <Placemark id="401">
            <name>Офицерское общежитие (ru)</name>
            <description/>
            <Point id="400">
                <coordinates>59.940918,57.9244078,0.0</coordinates>
            </Point>
        </Placemark>
        <Placemark id="403">
            <name>Шиберный участок НТМК (ru)</name>
            <description/>
            <Point id="402">
                <coordinates>59.9449116,57.9037329,0.0</coordinates>
            </Point>
        </Placemark>
        <Placemark id="405">
            <name>Лебяжинская ул. (ru), 1б</name>
            <description/>
            <Point id="404">
                <coordinates>59.9473863,57.9363153,0.0</coordinates>
            </Point>
        </Placemark>
        <Placemark id="407">
            <name>Пустующее помещение (ru)</name>
            <description/>
            <Point id="406">
                <coordinates>59.9484611,57.9256193,0.0</coordinates>
            </Point>
        </Placemark>
        <Placemark id="409">
            <name>Заброшенная котельная (ru)</name>
            <description/>
            <Point id="408">
                <coordinates>59.9260694,57.9420213,0.0</coordinates>
            </Point>
        </Placemark>
        <Placemark id="411">
            <name>Заброшенная больница (ru)</name>
            <description/>
            <Point id="410">
                <coordinates>59.9306291,57.9142664,0.0</coordinates>
            </Point>
        </Placemark>
        <Placemark id="413">
            <name>Заброшенный цех (ru)</name>
            <description/>
            <Point id="412">
                <coordinates>59.9429216,57.905848,0.0</coordinates>
            </Point>
        </Placemark>
        <Placemark id="415">
            <name>Заброшенное здание (ru)</name>
            <description/>
            <Point id="414">
                <coordinates>59.9244519,57.9417323,0.0</coordinates>
            </Point>
        </Placemark>
        <Placemark id="417">
            <name>Заброшенный детский сад «Ромашка» (ru)</name>
            <description/>
            <Point id="416">
                <coordinates>60.1126398,57.920309,0.0</coordinates>
            </Point>
        </Placemark>
        <Placemark id="419">
            <name>Бывшая библиотека дом культуры (ru)</name>
            <description/>
            <Point id="418">
                <coordinates>59.8818074,57.9284998,0.0</coordinates>
            </Point>
        </Placemark>
        <Placemark id="421">
            <name>Бывшая мехмастерская (склады 1301, 1315) (ru)</name>
            <description/>
            <Point id="420">
                <coordinates>59.9888461,57.9184274,0.0</coordinates>
            </Point>
        </Placemark>
        <Placemark id="423">
            <name>Заброшенная баня (ru)</name>
            <description/>
            <Point id="422">
                <coordinates>59.8902761,57.9134463,0.0</coordinates>
            </Point>
        </Placemark>
        <Placemark id="425">
            <name>Заброшенная насосная станция (ru)</name>
            <description/>
            <Point id="424">
                <coordinates>59.9157162,57.9268336,0.0</coordinates>
            </Point>
        </Placemark>
        <Placemark id="427">
            <name>Дом купца Волгина (ru)</name>
            <description/>
            <Point id="426">
                <coordinates>59.9413391,57.9050534,0.0</coordinates>
            </Point>
        </Placemark>
        <Placemark id="429">
            <name>Недостроенное здание (ru)</name>
            <description/>
            <Point id="428">
                <coordinates>59.8840539,57.9436534,0.0</coordinates>
            </Point>
        </Placemark>
        <Placemark id="431">
            <name>Заброшенное здание (ru)</name>
            <description/>
            <Point id="430">
                <coordinates>59.9519728,57.8664053,0.0</coordinates>
            </Point>
        </Placemark>
        <Placemark id="433">
            <name>Бывше здание управления лесхоза (ru)</name>
            <description/>
            <Point id="432">
                <coordinates>59.8825209,57.9280155,0.0</coordinates>
            </Point>
        </Placemark>
        <Placemark id="435">
            <name>Заброшенный магазин (ru)</name>
            <description/>
            <Point id="434">
                <coordinates>59.8881233,57.9115081,0.0</coordinates>
            </Point>
        </Placemark>
        <Placemark id="437">
            <name>Бывший железнодорожный мост (ru)</name>
            <description/>
            <Point id="436">
                <coordinates>59.9432945,57.9055159,0.0</coordinates>
            </Point>
        </Placemark>
        <Placemark id="439">
            <name>Заброшенное подземное водохранилище (ru)</name>
            <description/>
            <Point id="438">
                <coordinates>60.1412951,57.9086943,0.0</coordinates>
            </Point>
        </Placemark>
        <Placemark id="441">
            <name>Холодный склад (ru)</name>
            <description/>
            <Point id="440">
                <coordinates>59.9424402,57.9248268,0.0</coordinates>
            </Point>
        </Placemark>
        <Placemark id="443">
            <name>Заброшенное убежище НТМК (ru)</name>
            <description/>
            <Point id="442">
                <coordinates>60.0285726,57.9307513,0.0</coordinates>
            </Point>
        </Placemark>
        <Placemark id="445">
            <name>Заброшенное здание (ru)</name>
            <description/>
            <Point id="444">
                <coordinates>59.9444092,57.9034946,0.0</coordinates>
            </Point>
        </Placemark>
        <Placemark id="447">
            <name>Заброшенная АЗС (ru)</name>
            <description/>
            <Point id="446">
                <coordinates>59.9551096,57.9644953,0.0</coordinates>
            </Point>
        </Placemark>
        <Placemark id="449">
            <name>Сгоревший дом (ru)</name>
            <description/>
            <Point id="448">
                <coordinates>59.9552538,57.9336359,0.0</coordinates>
            </Point>
        </Placemark>
        <Placemark id="451">
            <name>Газоочистка (ru)</name>
            <description/>
            <Point id="450">
                <coordinates>59.9461242,57.9033626,0.0</coordinates>
            </Point>
        </Placemark>
        <Placemark id="453">
            <name>Кран (ru)</name>
            <description/>
            <Point id="452">
                <coordinates>59.8837445,57.9290418,0.0</coordinates>
            </Point>
        </Placemark>
        <Placemark id="455">
            <name>Кран (ru)</name>
            <description/>
            <Point id="454">
                <coordinates>59.8831942,57.9294141,0.0</coordinates>
            </Point>
        </Placemark>
        <Placemark id="457">
            <name>старый старательский шурф (ru)</name>
            <description/>
            <Point id="456">
                <coordinates>59.9222606,57.868688,0.0</coordinates>
            </Point>
        </Placemark>
        <Placemark id="459">
            <name>Заброшенная хозяйственная постройка (ru)</name>
            <description/>
            <Point id="458">
                <coordinates>59.915498,57.9410698,0.0</coordinates>
            </Point>
        </Placemark>
        <Placemark id="461">
            <name>КПП (ru)</name>
            <description/>
            <Point id="460">
                <coordinates>59.940855,57.9239588,0.0</coordinates>
            </Point>
        </Placemark>
        <Placemark id="463">
            <name>Заброшенный автосервис (ru)</name>
            <description/>
            <Point id="462">
                <coordinates>60.0285721,57.8631765,0.0</coordinates>
            </Point>
        </Placemark>
        <Placemark id="465">
            <name>Угловая ул. (ru), 11</name>
            <description/>
            <Point id="464">
                <coordinates>59.9503657,57.9303777,0.0</coordinates>
            </Point>
        </Placemark>
        <Placemark id="467">
            <name>Заброшенный дом (ru)</name>
            <description/>
            <Point id="466">
                <coordinates>59.9913409,57.9018482,0.0</coordinates>
            </Point>
        </Placemark>
        <Placemark id="469">
            <name>Заброшенный проездной пост (ru)</name>
            <description/>
            <Point id="468">
                <coordinates>60.0233551,57.9609222,0.0</coordinates>
            </Point>
        </Placemark>
        <Placemark id="471">
            <name>Заброшенное убежище гражданской обороны (ru)</name>
            <description/>
            <Point id="470">
                <coordinates>60.1436715,57.9026442,0.0</coordinates>
            </Point>
        </Placemark>
        <Placemark id="473">
            <name>Надземный трубопровод (ru)</name>
            <description/>
            <Point id="472">
                <coordinates>59.9530336,57.9195859,0.0</coordinates>
            </Point>
        </Placemark>
        <Placemark id="475">
            <name>Заброшенный фонтан (ru)</name>
            <description/>
            <Point id="474">
                <coordinates>60.0620788,57.9137193,0.0</coordinates>
            </Point>
        </Placemark>
        <Placemark id="477">
            <name>Заброшенный водозабор (ru)</name>
            <description/>
            <Point id="476">
                <coordinates>59.915834,57.9269547,0.0</coordinates>
            </Point>
        </Placemark>
        <Placemark id="479">
            <name>Заброшенная водонапорная башня (ru)</name>
            <description/>
            <Point id="478">
                <coordinates>59.9653275,57.9752163,0.0</coordinates>
            </Point>
        </Placemark>
        <Placemark id="481">
            <name>Недействующий пост ГАИ (ru)</name>
            <description/>
            <Point id="480">
                <coordinates>60.1187163,57.9430962,0.0</coordinates>
            </Point>
        </Placemark>
        <Placemark id="483">
            <name>Заброшенный пожарный бассейн (ru)</name>
            <description/>
            <Point id="482">
                <coordinates>59.9485113,57.9015716,0.0</coordinates>
            </Point>
        </Placemark>
        <Placemark id="485">
            <name>Кладовая (ru)</name>
            <description/>
            <Point id="484">
                <coordinates>59.9411789,57.9089355,0.0</coordinates>
            </Point>
        </Placemark>
        <Placemark id="487">
            <name>Заброшенная водонапорная башня (ru)</name>
            <description/>
            <Point id="486">
                <coordinates>60.1376687,57.9348866,0.0</coordinates>
            </Point>
        </Placemark>
        <Placemark id="489">
            <name>Камера-фильтр (ru)</name>
            <description/>
            <Point id="488">
                <coordinates>60.0051946,57.9360291,0.0</coordinates>
            </Point>
        </Placemark>
        <Placemark id="491">
            <name>Заброшенная трансформаторная подстанция (ru)</name>
            <description/>
            <Point id="490">
                <coordinates>59.9262004,57.9116941,0.0</coordinates>
            </Point>
        </Placemark>
        <Placemark id="493">
            <name>Триангуляционная вышка (ru)</name>
            <description/>
            <Point id="492">
                <coordinates>60.1098131,57.9664042,0.0</coordinates>
            </Point>
        </Placemark>
    </Document>
</kml>
