<?xml version="1.0" encoding="UTF-8"?>
<kml xmlns="http://www.opengis.net/kml/2.2" xmlns:gx="http://www.google.com/kml/ext/2.2">
    <Document id="927">
        <Placemark id="929">
            <name>Специальный подземный объект № 1 МПВО г. Владивостока (ru)</name>
            <description/>
            <Point id="928">
                <coordinates>131.8911232,43.1156368,0.0</coordinates>
            </Point>
        </Placemark>
        <Placemark id="931">
            <name>Убежище гражданской обороны № 233 средней школы № 60 (ru)</name>
            <description/>
            <Point id="930">
                <coordinates>131.9236257,43.1713436,0.0</coordinates>
            </Point>
        </Placemark>
        <Placemark id="933">
            <name>Заброшенное защитное сооружение гражданской обороны (убежище) (ru)</name>
            <description/>
            <Point id="932">
                <coordinates>131.9275583,43.1516995,0.0</coordinates>
            </Point>
        </Placemark>
        <Placemark id="935">
            <name>Защитное сооружение ГО (убежище) (ru)</name>
            <description/>
            <Point id="934">
                <coordinates>131.9344224,43.1749195,0.0</coordinates>
            </Point>
        </Placemark>
        <Placemark id="937">
            <name>Убежище (ru)</name>
            <description/>
            <Point id="936">
                <coordinates>132.0662849,43.2973584,0.0</coordinates>
            </Point>
        </Placemark>
        <Placemark id="939">
            <name>Заброшенное убежище школы № 2 (ru)</name>
            <description/>
            <Point id="938">
                <coordinates>131.9111573,43.1231128,0.0</coordinates>
            </Point>
        </Placemark>
        <Placemark id="941">
            <name>Убежище (ru)</name>
            <description/>
            <Point id="940">
                <coordinates>132.0622917,43.3000767,0.0</coordinates>
            </Point>
        </Placemark>
        <Placemark id="943">
            <name>Защитное сооружение гражданской обороны (убежище) (ru)</name>
            <description/>
            <Point id="942">
                <coordinates>131.9319767,43.1173158,0.0</coordinates>
            </Point>
        </Placemark>
        <Placemark id="945">
            <name>Защитное сооружение ГО (убежище) (ru)</name>
            <description/>
            <Point id="944">
                <coordinates>131.9296095,43.1425644,0.0</coordinates>
            </Point>
        </Placemark>
        <Placemark id="947">
            <name>Защитное сооружение гражданской обороны (убежище) № 71 (ru)</name>
            <description/>
            <Point id="946">
                <coordinates>131.9294513,43.1560742,0.0</coordinates>
            </Point>
        </Placemark>
        <Placemark id="949">
            <name>Затопленное убежище гражданской обороны (ru)</name>
            <description/>
            <Point id="948">
                <coordinates>131.9067766,43.1644195,0.0</coordinates>
            </Point>
        </Placemark>
        <Placemark id="951">
            <name>Защитное сооружение гражданской обороны (убежище) (ru)</name>
            <description/>
            <Point id="950">
                <coordinates>132.0646655,43.2963336,0.0</coordinates>
            </Point>
        </Placemark>
        <Placemark id="953">
            <name>Убежище гражданской обороны № 1 завода «Варяг» (ru)</name>
            <description/>
            <Point id="952">
                <coordinates>131.939185,43.1721728,0.0</coordinates>
            </Point>
        </Placemark>
        <Placemark id="955">
            <name>Заброшенное защитное сооружение гражданской обороны (убежище) (ru)</name>
            <description/>
            <Point id="954">
                <coordinates>131.928117,43.160165,0.0</coordinates>
            </Point>
        </Placemark>
        <Placemark id="957">
            <name>Заброшенное защитное сооружение гражданской обороны (убежище) (ru)</name>
            <description/>
            <Point id="956">
                <coordinates>131.9245817,43.1533383,0.0</coordinates>
            </Point>
        </Placemark>
        <Placemark id="959">
            <name>Заброшенное защитное сооружение гражданской обороны (убежище) № 36 (ru)</name>
            <description/>
            <Point id="958">
                <coordinates>131.9217573,43.1532032,0.0</coordinates>
            </Point>
        </Placemark>
        <Placemark id="961">
            <name>Заброшенное защитное сооружение гражданской обороны (убежище) (ru)</name>
            <description/>
            <Point id="960">
                <coordinates>131.9240332,43.1534576,0.0</coordinates>
            </Point>
        </Placemark>
        <Placemark id="963">
            <name>Bomb Shelter</name>
            <description/>
            <Point id="962">
                <coordinates>131.9141936,43.1546219,0.0</coordinates>
            </Point>
        </Placemark>
        <Placemark id="965">
            <name>Защитное сооружение гражданской обороны (ru)</name>
            <description/>
            <Point id="964">
                <coordinates>131.8929316,43.1328991,0.0</coordinates>
            </Point>
        </Placemark>
        <Placemark id="967">
            <name>Бомбоубежище Севморпути (бывшее) (ru)</name>
            <description/>
            <Point id="966">
                <coordinates>131.8833066,43.1248189,0.0</coordinates>
            </Point>
        </Placemark>
        <Placemark id="969">
            <name>Заброшенное защитное сооружение гражданской обороны (убежище) (ru)</name>
            <description/>
            <Point id="968">
                <coordinates>131.9251838,43.1531259,0.0</coordinates>
            </Point>
        </Placemark>
        <Placemark id="971">
            <name>Защитное сооружение гражданской обороны (убежище) (ru)</name>
            <description/>
            <Point id="970">
                <coordinates>132.01794,43.2395716,0.0</coordinates>
            </Point>
        </Placemark>
        <Placemark id="973">
            <name>Заброшенное защитное сооружение гражданской обороны (убежище) № 176 (ru)</name>
            <description/>
            <Point id="972">
                <coordinates>131.9061985,43.1747183,0.0</coordinates>
            </Point>
        </Placemark>
        <Placemark id="975">
            <name>Защитное сооружение гражданской обороны (убежище) (ru)</name>
            <description/>
            <Point id="974">
                <coordinates>131.8988178,43.1338449,0.0</coordinates>
            </Point>
        </Placemark>
        <Placemark id="977">
            <name>Заброшенное убежище гражданской обороны № 198 (ru)</name>
            <description/>
            <Point id="976">
                <coordinates>131.9293936,43.1162633,0.0</coordinates>
            </Point>
        </Placemark>
        <Placemark id="979">
            <name>Убежище гражданской обороны № 3 завода «Варяг» (ru)</name>
            <description/>
            <Point id="978">
                <coordinates>131.9422279,43.1748737,0.0</coordinates>
            </Point>
        </Placemark>
        <Placemark id="981">
            <name>Убежище гражданской обороны для работников завода «Изумруд» (ru)</name>
            <description/>
            <Point id="980">
                <coordinates>131.9374971,43.1717881,0.0</coordinates>
            </Point>
        </Placemark>
        <Placemark id="983">
            <name>Убежище гражданской обороны (ru)</name>
            <description/>
            <Point id="982">
                <coordinates>131.9607848,43.2192198,0.0</coordinates>
            </Point>
        </Placemark>
        <Placemark id="985">
            <name>Убежище (ru)</name>
            <description/>
            <Point id="984">
                <coordinates>132.0727573,43.2838258,0.0</coordinates>
            </Point>
        </Placemark>
        <Placemark id="987">
            <name>Убежище гражданской обороны (ru)</name>
            <description/>
            <Point id="986">
                <coordinates>131.916981,43.1769446,0.0</coordinates>
            </Point>
        </Placemark>
        <Placemark id="989">
            <name>Убежище (ru)</name>
            <description/>
            <Point id="988">
                <coordinates>131.9076611,43.1204963,0.0</coordinates>
            </Point>
        </Placemark>
        <Placemark id="991">
            <name>Убежище гражданской обороны Владивостокской швейной фабрики Заря» (ru)</name>
            <description/>
            <Point id="990">
                <coordinates>131.9181613,43.1790847,0.0</coordinates>
            </Point>
        </Placemark>
        <Placemark id="993">
            <name>Защитное сооружение гражданской обороны (убежище) (ru)</name>
            <description/>
            <Point id="992">
                <coordinates>131.9154313,43.1581516,0.0</coordinates>
            </Point>
        </Placemark>
        <Placemark id="995">
            <name>Заброшенные быстровозводимые убежища (БВУ) бывшего 98-го авторемонтного завода ТОФ (ru)</name>
            <description/>
            <Point id="994">
                <coordinates>131.9233855,43.1625636,0.0</coordinates>
            </Point>
        </Placemark>
        <Placemark id="997">
            <name>Защитное сооружение ГО (убежище) (ru)</name>
            <description/>
            <Point id="996">
                <coordinates>132.0129146,43.2408818,0.0</coordinates>
            </Point>
        </Placemark>
        <Placemark id="999">
            <name>Входы в бывшее совмещённое бомбоубежище фанерного и кожевенного заводов (ru)</name>
            <description/>
            <Point id="998">
                <coordinates>132.0243766,43.2478411,0.0</coordinates>
            </Point>
        </Placemark>
        <Placemark id="1001">
            <name>Убежище гражданской обороны (ru)</name>
            <description/>
            <Point id="1000">
                <coordinates>131.9681299,43.1388875,0.0</coordinates>
            </Point>
        </Placemark>
        <Placemark id="1003">
            <name>Заброшенное бомбоубежище ж/д станции Первая Речка (ru)</name>
            <description/>
            <Point id="1002">
                <coordinates>131.9022818,43.1360039,0.0</coordinates>
            </Point>
        </Placemark>
        <Placemark id="1005">
            <name>Заброшенное сгоревшее убежище гражданской обороны (ru)</name>
            <description/>
            <Point id="1004">
                <coordinates>131.9780945,43.137284,0.0</coordinates>
            </Point>
        </Placemark>
        <Placemark id="1007">
            <name>Убежище № 99 (ru)</name>
            <description/>
            <Point id="1006">
                <coordinates>131.9178172,43.1331129,0.0</coordinates>
            </Point>
        </Placemark>
        <Placemark id="1009">
            <name>Заброшенное защитное сооружение гражданской обороны (убежище) (ru)</name>
            <description/>
            <Point id="1008">
                <coordinates>132.0666088,43.2989211,0.0</coordinates>
            </Point>
        </Placemark>
        <Placemark id="1011">
            <name>Защитное сооружение гражданской обороны (убежище) (ru)</name>
            <description/>
            <Point id="1010">
                <coordinates>131.9202794,43.1614204,0.0</coordinates>
            </Point>
        </Placemark>
        <Placemark id="1013">
            <name>Бомбоубежище (ru)</name>
            <description/>
            <Point id="1012">
                <coordinates>132.0628444,43.2790977,0.0</coordinates>
            </Point>
        </Placemark>
        <Placemark id="1015">
            <name>Защитное сооружение гражданской обороны (убежище) (ru)</name>
            <description/>
            <Point id="1014">
                <coordinates>131.8908375,43.1288247,0.0</coordinates>
            </Point>
        </Placemark>
        <Placemark id="1017">
            <name>Защитное сооружение ГО (убежище) (ru)</name>
            <description/>
            <Point id="1016">
                <coordinates>132.0092372,43.2346007,0.0</coordinates>
            </Point>
        </Placemark>
        <Placemark id="1019">
            <name>Убежище (ru)</name>
            <description/>
            <Point id="1018">
                <coordinates>131.8865011,43.1244833,0.0</coordinates>
            </Point>
        </Placemark>
        <Placemark id="1021">
            <name>Заброшенное защитное сооружение (убежище) гражданской обороны (ru)</name>
            <description/>
            <Point id="1020">
                <coordinates>131.9209098,43.1273399,0.0</coordinates>
            </Point>
        </Placemark>
        <Placemark id="1023">
            <name>Защитное сооружение гражданской обороны (убежище) (ru)</name>
            <description/>
            <Point id="1022">
                <coordinates>131.8886817,43.1180372,0.0</coordinates>
            </Point>
        </Placemark>
        <Placemark id="1025">
            <name>Защитное сооружение гражданской обороны (убежище) (ru)</name>
            <description/>
            <Point id="1024">
                <coordinates>131.8862717,43.1262136,0.0</coordinates>
            </Point>
        </Placemark>
        <Placemark id="1027">
            <name>Защитное сооружение гражданской обороны (убежище) (ru)</name>
            <description/>
            <Point id="1026">
                <coordinates>131.8986195,43.1712179,0.0</coordinates>
            </Point>
        </Placemark>
        <Placemark id="1029">
            <name>Защитное сооружение гражданской обороны (убежище) № 190 (ru)</name>
            <description/>
            <Point id="1028">
                <coordinates>131.9015208,43.1286142,0.0</coordinates>
            </Point>
        </Placemark>
        <Placemark id="1031">
            <name>Заброшенное защитное сооружение гражданской обороны (убежище) (ru)</name>
            <description/>
            <Point id="1030">
                <coordinates>131.8964186,43.1285139,0.0</coordinates>
            </Point>
        </Placemark>
        <Placemark id="1033">
            <name>Бомбоубежище (ru)</name>
            <description/>
            <Point id="1032">
                <coordinates>131.9532384,43.1372723,0.0</coordinates>
            </Point>
        </Placemark>
        <Placemark id="1035">
            <name>Убежище гражданской обороны (ru)</name>
            <description/>
            <Point id="1034">
                <coordinates>131.9306234,43.1648085,0.0</coordinates>
            </Point>
        </Placemark>
        <Placemark id="1037">
            <name>Убежище № 25 (ru)</name>
            <description/>
            <Point id="1036">
                <coordinates>131.8864417,43.1206129,0.0</coordinates>
            </Point>
        </Placemark>
        <Placemark id="1039">
            <name>Защитное сооружение гражданской обороны (убежище) (ru)</name>
            <description/>
            <Point id="1038">
                <coordinates>131.943205,43.1366073,0.0</coordinates>
            </Point>
        </Placemark>
        <Placemark id="1041">
            <name>Заброшенное защитное сооружение гражданской обороны (убежище) (ru)</name>
            <description/>
            <Point id="1040">
                <coordinates>131.9078407,43.1361898,0.0</coordinates>
            </Point>
        </Placemark>
        <Placemark id="1043">
            <name>Убежище гражданской обороны № 72 Североторга (Дальторга) (ru)</name>
            <description/>
            <Point id="1042">
                <coordinates>131.9255044,43.1369489,0.0</coordinates>
            </Point>
        </Placemark>
        <Placemark id="1045">
            <name>Убежище гражданской обороны (ru)</name>
            <description/>
            <Point id="1044">
                <coordinates>131.9205946,43.1332577,0.0</coordinates>
            </Point>
        </Placemark>
        <Placemark id="1047">
            <name>Подвальное убежище (ru)</name>
            <description/>
            <Point id="1046">
                <coordinates>131.8880233,43.1188987,0.0</coordinates>
            </Point>
        </Placemark>
        <Placemark id="1049">
            <name>Убежище гражданской обороны № 83 Завода измерительных приборов (ru)</name>
            <description/>
            <Point id="1048">
                <coordinates>131.9267559,43.1655776,0.0</coordinates>
            </Point>
        </Placemark>
        <Placemark id="1051">
            <name>Убежище (ru)</name>
            <description/>
            <Point id="1050">
                <coordinates>131.919735,43.1918367,0.0</coordinates>
            </Point>
        </Placemark>
        <Placemark id="1053">
            <name>Убежище в копрусе дружины &quot;Бригантина&quot; (ru)</name>
            <description/>
            <Point id="1052">
                <coordinates>132.1568825,43.2085931,0.0</coordinates>
            </Point>
        </Placemark>
        <Placemark id="1055">
            <name>Убежище гражданской обороны (ru)</name>
            <description/>
            <Point id="1054">
                <coordinates>132.02311,43.2338226,0.0</coordinates>
            </Point>
        </Placemark>
        <Placemark id="1057">
            <name>Убежище (ru)</name>
            <description/>
            <Point id="1056">
                <coordinates>131.902727,43.1435791,0.0</coordinates>
            </Point>
        </Placemark>
        <Placemark id="1059">
            <name>Заброшенное убежище (ru)</name>
            <description/>
            <Point id="1058">
                <coordinates>131.9034385,43.1714315,0.0</coordinates>
            </Point>
        </Placemark>
        <Placemark id="1061">
            <name>Старое заброшенное убежище гражданской обороны (ru)</name>
            <description/>
            <Point id="1060">
                <coordinates>131.9298653,43.1331139,0.0</coordinates>
            </Point>
        </Placemark>
        <Placemark id="1063">
            <name>Защитное сооружение гражданской обороны (убежище) (ru)</name>
            <description/>
            <Point id="1062">
                <coordinates>131.9313392,43.133658,0.0</coordinates>
            </Point>
        </Placemark>
        <Placemark id="1065">
            <name>Убежище гражданской обороны (ru)</name>
            <description/>
            <Point id="1064">
                <coordinates>132.0138639,43.2324293,0.0</coordinates>
            </Point>
        </Placemark>
        <Placemark id="1067">
            <name>Убежище гражданской обороны (ru)</name>
            <description/>
            <Point id="1066">
                <coordinates>131.9196505,43.1327832,0.0</coordinates>
            </Point>
        </Placemark>
        <Placemark id="1069">
            <name>Заброшенный подземный объект № 2 МПВО г. Владивостока (ru)</name>
            <description/>
            <Point id="1068">
                <coordinates>131.8760485,43.1161283,0.0</coordinates>
            </Point>
        </Placemark>
        <Placemark id="1071">
            <name>Заброшенное убежище гражданской обороны № 19 (ru)</name>
            <description/>
            <Point id="1070">
                <coordinates>131.9142337,43.1615872,0.0</coordinates>
            </Point>
        </Placemark>
        <Placemark id="1073">
            <name>Защитное сооружение гражданской обороны (убежище) (ru)</name>
            <description/>
            <Point id="1072">
                <coordinates>131.8959625,43.1285775,0.0</coordinates>
            </Point>
        </Placemark>
        <Placemark id="1075">
            <name>Защитное сооружение гражданской обороны (убежище) (ru)</name>
            <description/>
            <Point id="1074">
                <coordinates>131.957023,43.2109068,0.0</coordinates>
            </Point>
        </Placemark>
        <Placemark id="1077">
            <name>Бывшее подвальное убежище (ru)</name>
            <description/>
            <Point id="1076">
                <coordinates>131.9635677,43.2112081,0.0</coordinates>
            </Point>
        </Placemark>
        <Placemark id="1079">
            <name>Встроенное подвальное убежище (ru)</name>
            <description/>
            <Point id="1078">
                <coordinates>131.8905063,43.1179634,0.0</coordinates>
            </Point>
        </Placemark>
        <Placemark id="1081">
            <name>Заброшенное защитное сооружение гражданской обороны (убежище) (ru)</name>
            <description/>
            <Point id="1080">
                <coordinates>131.9294888,43.1586598,0.0</coordinates>
            </Point>
        </Placemark>
        <Placemark id="1083">
            <name>Защитное сооружение гражданской обороны (убежище) (ru)</name>
            <description/>
            <Point id="1082">
                <coordinates>131.9090786,43.1738815,0.0</coordinates>
            </Point>
        </Placemark>
        <Placemark id="1085">
            <name>Защитное сооружение гражданской обороны (убежище) (ru)</name>
            <description/>
            <Point id="1084">
                <coordinates>131.9093521,43.174437,0.0</coordinates>
            </Point>
        </Placemark>
        <Placemark id="1087">
            <name>Портал в подземное убежище (ru)</name>
            <description/>
            <Point id="1086">
                <coordinates>131.889615,43.126233,0.0</coordinates>
            </Point>
        </Placemark>
        <Placemark id="1089">
            <name>Заброшенное подвальное убежище (ru)</name>
            <description/>
            <Point id="1088">
                <coordinates>132.0086846,43.2296633,0.0</coordinates>
            </Point>
        </Placemark>
        <Placemark id="1091">
            <name>Защитное сооружение гражданской обороны (убежище) (ru)</name>
            <description/>
            <Point id="1090">
                <coordinates>131.9084416,43.1432611,0.0</coordinates>
            </Point>
        </Placemark>
        <Placemark id="1093">
            <name>Вход в недостроенное скальное бомбоубежище «Дальморстроя» (ru)</name>
            <description/>
            <Point id="1092">
                <coordinates>131.8933705,43.119713,0.0</coordinates>
            </Point>
        </Placemark>
        <Placemark id="1095">
            <name>Защитное сооружение гражданской обороны (убежище) (ru)</name>
            <description/>
            <Point id="1094">
                <coordinates>131.9200153,43.1732096,0.0</coordinates>
            </Point>
        </Placemark>
        <Placemark id="1097">
            <name>Оголовок вентиляции (ru)</name>
            <description/>
            <Point id="1096">
                <coordinates>131.9054829,43.1440896,0.0</coordinates>
            </Point>
        </Placemark>
        <Placemark id="1099">
            <name>Оголовок вентиляции защитного сооружения гражданской обороны (ru)</name>
            <description/>
            <Point id="1098">
                <coordinates>131.898713,43.1339773,0.0</coordinates>
            </Point>
        </Placemark>
        <Placemark id="1101">
            <name>Аварийно-эвакуационный оголовок защитного сооружения гражданской обороны с функцией забора воздуха (ru)</name>
            <description/>
            <Point id="1100">
                <coordinates>131.9274217,43.1644122,0.0</coordinates>
            </Point>
        </Placemark>
    </Document>
</kml>
