<?xml version="1.0" encoding="UTF-8"?>
<kml xmlns="http://www.opengis.net/kml/2.2" xmlns:gx="http://www.google.com/kml/ext/2.2">
    <Document id="821">
        <Placemark id="823">
            <name>Затопленное бомбоубежище (ru)</name>
            <description/>
            <Point id="822">
                <coordinates>135.0485907,48.5510144,0.0</coordinates>
            </Point>
        </Placemark>
        <Placemark id="825">
            <name>Затопленное школьное бомбоубежище (ru)</name>
            <description/>
            <Point id="824">
                <coordinates>135.1216006,48.4815929,0.0</coordinates>
            </Point>
        </Placemark>
        <Placemark id="827">
            <name>Заброшенное убежище гражданской обороны (ru)</name>
            <description/>
            <Point id="826">
                <coordinates>135.0346058,48.521346,0.0</coordinates>
            </Point>
        </Placemark>
        <Placemark id="829">
            <name>Спецподвал-убежище на 600 мест (ru)</name>
            <description/>
            <Point id="828">
                <coordinates>135.0461096,48.5386192,0.0</coordinates>
            </Point>
        </Placemark>
        <Placemark id="831">
            <name>Убежище (ru)</name>
            <description/>
            <Point id="830">
                <coordinates>135.1609136,48.3999593,0.0</coordinates>
            </Point>
        </Placemark>
        <Placemark id="833">
            <name>Бомбоубежище (ru)</name>
            <description/>
            <Point id="832">
                <coordinates>135.1326137,48.4315373,0.0</coordinates>
            </Point>
        </Placemark>
        <Placemark id="835">
            <name>Бомбоубежище (ru)</name>
            <description/>
            <Point id="834">
                <coordinates>135.1344265,48.4348856,0.0</coordinates>
            </Point>
        </Placemark>
        <Placemark id="837">
            <name>Поддомное бомбоубежище (ru)</name>
            <description/>
            <Point id="836">
                <coordinates>135.0523539,48.4804924,0.0</coordinates>
            </Point>
        </Placemark>
        <Placemark id="839">
            <name>Бомбоубежище (ru)</name>
            <description/>
            <Point id="838">
                <coordinates>135.1122088,48.4258241,0.0</coordinates>
            </Point>
        </Placemark>
        <Placemark id="841">
            <name>Заброшенное убежище гражданской обороны (ru)</name>
            <description/>
            <Point id="840">
                <coordinates>135.0660834,48.5566666,0.0</coordinates>
            </Point>
        </Placemark>
        <Placemark id="843">
            <name>Заброшенное убежище (ru)</name>
            <description/>
            <Point id="842">
                <coordinates>135.0739176,48.4816978,0.0</coordinates>
            </Point>
        </Placemark>
        <Placemark id="845">
            <name>Убежище РЖД (ru)</name>
            <description/>
            <Point id="844">
                <coordinates>135.0671276,48.4980751,0.0</coordinates>
            </Point>
        </Placemark>
        <Placemark id="847">
            <name>Убежище гражданской обороны ОАО «РЖД» (ru)</name>
            <description/>
            <Point id="846">
                <coordinates>135.0896125,48.3534007,0.0</coordinates>
            </Point>
        </Placemark>
        <Placemark id="849">
            <name>Убежище (ru)</name>
            <description/>
            <Point id="848">
                <coordinates>135.0486459,48.5461769,0.0</coordinates>
            </Point>
        </Placemark>
        <Placemark id="851">
            <name>Бомбоубежище технологического колледжа (ru)</name>
            <description/>
            <Point id="850">
                <coordinates>135.0799726,48.4887325,0.0</coordinates>
            </Point>
        </Placemark>
        <Placemark id="853">
            <name>Укреплённый пункт гражданской обороны (бомбоубежище) (ru)</name>
            <description/>
            <Point id="852">
                <coordinates>135.1052444,48.3878966,0.0</coordinates>
            </Point>
        </Placemark>
        <Placemark id="855">
            <name>Заброшенное убежище под торговым центром «57 Авеню» (ru)</name>
            <description/>
            <Point id="854">
                <coordinates>135.0841878,48.4789579,0.0</coordinates>
            </Point>
        </Placemark>
        <Placemark id="857">
            <name>Убежище гражданской обороны (ru)</name>
            <description/>
            <Point id="856">
                <coordinates>135.0647953,48.4928975,0.0</coordinates>
            </Point>
        </Placemark>
        <Placemark id="859">
            <name>Бомбоубежище (ru)</name>
            <description/>
            <Point id="858">
                <coordinates>135.0549407,48.47935,0.0</coordinates>
            </Point>
        </Placemark>
    </Document>
</kml>
