<?xml version="1.0" encoding="UTF-8"?>
<kml xmlns="http://www.opengis.net/kml/2.2" xmlns:gx="http://www.google.com/kml/ext/2.2">
    <Document id="913">
        <Placemark id="915">
            <name>Заброшенный деревообрабатывающий завод (ru)</name>
            <description/>
            <Point id="914">
                <coordinates>68.2431755,58.1544875,0.0</coordinates>
            </Point>
        </Placemark>
        <Placemark id="917">
            <name>ЗКСМ (ru)</name>
            <description/>
            <Point id="916">
                <coordinates>68.4015012,58.1872434,0.0</coordinates>
            </Point>
        </Placemark>
        <Placemark id="919">
            <name>Заброшенный керамзитный завод (ru)</name>
            <description/>
            <Point id="918">
                <coordinates>68.331769,58.292297,0.0</coordinates>
            </Point>
        </Placemark>
        <Placemark id="921">
            <name>Бывшая звероферма (ru)</name>
            <description/>
            <Point id="920">
                <coordinates>68.5029048,58.3139354,0.0</coordinates>
            </Point>
        </Placemark>
        <Placemark id="923">
            <name>Расформированная воинская часть (ru)</name>
            <description/>
            <Point id="922">
                <coordinates>68.2808472,58.2853407,0.0</coordinates>
            </Point>
        </Placemark>
        <Placemark id="925">
            <name>Заброшенный Элеватор (ru)</name>
            <description/>
            <Point id="924">
                <coordinates>68.2225924,58.296712,0.0</coordinates>
            </Point>
        </Placemark>
        <Placemark id="927">
            <name>Разрушенная часть очистных сооружений (ru)</name>
            <description/>
            <Point id="926">
                <coordinates>68.2072034,58.3005649,0.0</coordinates>
            </Point>
        </Placemark>
        <Placemark id="929">
            <name>Заброшенный детский оздоровительный лагерь «Солнечный» (лечебный центр от наркозависимости) (ru)</name>
            <description/>
            <Point id="928">
                <coordinates>68.3362752,58.3359014,0.0</coordinates>
            </Point>
        </Placemark>
        <Placemark id="931">
            <name>Очистные сооружения (ru)</name>
            <description/>
            <Point id="930">
                <coordinates>68.3550238,58.1125075,0.0</coordinates>
            </Point>
        </Placemark>
        <Placemark id="933">
            <name>Заброшенная исправительная колония (ru)</name>
            <description/>
            <Point id="932">
                <coordinates>68.2840043,58.1998716,0.0</coordinates>
            </Point>
        </Placemark>
        <Placemark id="935">
            <name>Заброшенная стройплощадка концертного комплекса (ru)</name>
            <description/>
            <Point id="934">
                <coordinates>68.2719638,58.2141809,0.0</coordinates>
            </Point>
        </Placemark>
        <Placemark id="937">
            <name>Машинно-тракторные мастерские (ru)</name>
            <description/>
            <Point id="936">
                <coordinates>68.274579,58.1030543,0.0</coordinates>
            </Point>
        </Placemark>
        <Placemark id="939">
            <name>Баржи (ru)</name>
            <description/>
            <Point id="938">
                <coordinates>68.3314874,58.1025652,0.0</coordinates>
            </Point>
        </Placemark>
        <Placemark id="941">
            <name>Недостроенное здание (ru)</name>
            <description/>
            <Point id="940">
                <coordinates>68.3335348,58.1038336,0.0</coordinates>
            </Point>
        </Placemark>
        <Placemark id="943">
            <name>Гаражи (ru)</name>
            <description/>
            <Point id="942">
                <coordinates>68.3464461,58.114715,0.0</coordinates>
            </Point>
        </Placemark>
        <Placemark id="945">
            <name>Склад ГСМ (ru)</name>
            <description/>
            <Point id="944">
                <coordinates>68.3187979,58.1042036,0.0</coordinates>
            </Point>
        </Placemark>
        <Placemark id="947">
            <name>Недостроенная сортировочная станция (ru)</name>
            <description/>
            <Point id="946">
                <coordinates>68.3395724,58.2995508,0.0</coordinates>
            </Point>
        </Placemark>
        <Placemark id="949">
            <name>Недействующая котельная (ru)</name>
            <description/>
            <Point id="948">
                <coordinates>68.3286513,58.2921136,0.0</coordinates>
            </Point>
        </Placemark>
        <Placemark id="951">
            <name>Привокзальная ул. (ru), 36</name>
            <description/>
            <Point id="950">
                <coordinates>68.3141871,58.2880862,0.0</coordinates>
            </Point>
        </Placemark>
        <Placemark id="953">
            <name>Девичье приходское училище (ru)</name>
            <description/>
            <Point id="952">
                <coordinates>68.2433583,58.1959646,0.0</coordinates>
            </Point>
        </Placemark>
        <Placemark id="955">
            <name>Братский (настоятельский) корпус Знаменского монастыря (ru)</name>
            <description/>
            <Point id="954">
                <coordinates>68.2388941,58.1921921,0.0</coordinates>
            </Point>
        </Placemark>
        <Placemark id="957">
            <name>Заброшенный спортивный комплекс «Менделеевец» (ru)</name>
            <description/>
            <Point id="956">
                <coordinates>68.3215362,58.2858094,0.0</coordinates>
            </Point>
        </Placemark>
        <Placemark id="959">
            <name>Корпус заброшенной исправительной колонии (ru)</name>
            <description/>
            <Point id="958">
                <coordinates>68.2836314,58.2007189,0.0</coordinates>
            </Point>
        </Placemark>
        <Placemark id="961">
            <name>Насосная станция первого подъёма (ru)</name>
            <description/>
            <Point id="960">
                <coordinates>68.3034503,58.1052325,0.0</coordinates>
            </Point>
        </Placemark>
        <Placemark id="963">
            <name>Плавкран (ru)</name>
            <description/>
            <Point id="962">
                <coordinates>68.1998177,58.3003147,0.0</coordinates>
            </Point>
        </Placemark>
        <Placemark id="965">
            <name>Усадьба Семёновых (ru)</name>
            <description/>
            <Point id="964">
                <coordinates>68.2513859,58.1918157,0.0</coordinates>
            </Point>
        </Placemark>
        <Placemark id="967">
            <name>Корпус заброшенной исправительной колонии (ru)</name>
            <description/>
            <Point id="966">
                <coordinates>68.2832275,58.2004084,0.0</coordinates>
            </Point>
        </Placemark>
        <Placemark id="969">
            <name>Заброшенное здание (ru)</name>
            <description/>
            <Point id="968">
                <coordinates>68.2287292,58.2042041,0.0</coordinates>
            </Point>
        </Placemark>
        <Placemark id="971">
            <name>Пилорама (ru)</name>
            <description/>
            <Point id="970">
                <coordinates>68.3301715,58.1043931,0.0</coordinates>
            </Point>
        </Placemark>
        <Placemark id="973">
            <name>Заброшенная церковь Рождества Христова (ru)</name>
            <description/>
            <Point id="972">
                <coordinates>68.2573332,58.3565616,0.0</coordinates>
            </Point>
        </Placemark>
        <Placemark id="975">
            <name>3-й квартал (ru), 12в</name>
            <description/>
            <Point id="974">
                <coordinates>68.2877374,58.2884357,0.0</coordinates>
            </Point>
        </Placemark>
        <Placemark id="977">
            <name>Ансамбль казённых винных складов (ru)</name>
            <description/>
            <Point id="976">
                <coordinates>68.2629409,58.2089233,0.0</coordinates>
            </Point>
        </Placemark>
        <Placemark id="979">
            <name>Дом Неводчикова (ru)</name>
            <description/>
            <Point id="978">
                <coordinates>68.2411941,58.1950379,0.0</coordinates>
            </Point>
        </Placemark>
        <Placemark id="981">
            <name>Заброшенный жилой дом (ru)</name>
            <description/>
            <Point id="980">
                <coordinates>68.2320431,58.1894104,0.0</coordinates>
            </Point>
        </Placemark>
    </Document>
</kml>
