<?xml version="1.0" encoding="UTF-8"?>
<kml xmlns="http://www.opengis.net/kml/2.2" xmlns:gx="http://www.google.com/kml/ext/2.2">
    <Document id="1">
        <Placemark id="3">
            <name>Бункер окб3.2 (ru)</name>
            <description/>
            <Point id="2">
                <coordinates>61.3678478,55.1883071,0.0</coordinates>
            </Point>
        </Placemark>
        <Placemark id="5">
            <name>Убежище завода «Сигнал» (ru)</name>
            <description/>
            <Point id="4">
                <coordinates>61.4909129,55.0944024,0.0</coordinates>
            </Point>
        </Placemark>
        <Placemark id="7">
            <name>Заброшенное бомбоубежище больницы (ru)</name>
            <description/>
            <Point id="6">
                <coordinates>61.6270176,55.1220742,0.0</coordinates>
            </Point>
        </Placemark>
        <Placemark id="9">
            <name>Убежище Челябвтормета (ru)</name>
            <description/>
            <Point id="8">
                <coordinates>61.3651978,55.2016985,0.0</coordinates>
            </Point>
        </Placemark>
        <Placemark id="11">
            <name>Убежище цеха № 8 ЧЭМК (ru)</name>
            <description/>
            <Point id="10">
                <coordinates>61.4303862,55.2070633,0.0</coordinates>
            </Point>
        </Placemark>
        <Placemark id="13">
            <name>Бомбоубежище (ru)</name>
            <description/>
            <Point id="12">
                <coordinates>61.42402,55.2471124,0.0</coordinates>
            </Point>
        </Placemark>
        <Placemark id="15">
            <name>Убежище (ru)</name>
            <description/>
            <Point id="14">
                <coordinates>61.4592656,55.2353886,0.0</coordinates>
            </Point>
        </Placemark>
        <Placemark id="17">
            <name>Заброшенное бомбоубежище (ru)</name>
            <description/>
            <Point id="16">
                <coordinates>61.3407602,55.1867177,0.0</coordinates>
            </Point>
        </Placemark>
        <Placemark id="19">
            <name>Заброшенное бомбоубежище (ru)</name>
            <description/>
            <Point id="18">
                <coordinates>61.4371051,55.1601502,0.0</coordinates>
            </Point>
        </Placemark>
        <Placemark id="21">
            <name>Бомбоубежище 34 военного городка (ru)</name>
            <description/>
            <Point id="20">
                <coordinates>61.3753124,55.1136676,0.0</coordinates>
            </Point>
        </Placemark>
        <Placemark id="23">
            <name>Заброшенное убежище № 2 КМЗ (ru)</name>
            <description/>
            <Point id="22">
                <coordinates>61.6223117,55.1024423,0.0</coordinates>
            </Point>
        </Placemark>
        <Placemark id="25">
            <name>Убежище №87 (ru)</name>
            <description/>
            <Point id="24">
                <coordinates>61.4338784,55.195938,0.0</coordinates>
            </Point>
        </Placemark>
        <Placemark id="27">
            <name>Убежище ТЭЦ-1 № 1 (ru)</name>
            <description/>
            <Point id="26">
                <coordinates>61.4707856,55.1341601,0.0</coordinates>
            </Point>
        </Placemark>
        <Placemark id="29">
            <name>Бомбоубежище (ru)</name>
            <description/>
            <Point id="28">
                <coordinates>61.4057135,55.1623035,0.0</coordinates>
            </Point>
        </Placemark>
        <Placemark id="31">
            <name>Заброшенное бомбоубежище (ru)</name>
            <description/>
            <Point id="30">
                <coordinates>61.59644,55.0620398,0.0</coordinates>
            </Point>
        </Placemark>
        <Placemark id="33">
            <name>Подземная часть бомбоубежища (ru)</name>
            <description/>
            <Point id="32">
                <coordinates>61.3727906,55.045432,0.0</coordinates>
            </Point>
        </Placemark>
        <Placemark id="35">
            <name>Заброшенное бомбоубежище (ru)</name>
            <description/>
            <Point id="34">
                <coordinates>61.4632862,55.1210757,0.0</coordinates>
            </Point>
        </Placemark>
        <Placemark id="37">
            <name>Заброшенное убежище гражданской обороны (ru)</name>
            <description/>
            <Point id="36">
                <coordinates>61.4078248,55.1611611,0.0</coordinates>
            </Point>
        </Placemark>
        <Placemark id="39">
            <name>Заброшенное защитное сооружение ГО (убежище) (ru)</name>
            <description/>
            <Point id="38">
                <coordinates>61.6593021,55.130588,0.0</coordinates>
            </Point>
        </Placemark>
        <Placemark id="41">
            <name>Бомбоубежище (ru)</name>
            <description/>
            <Point id="40">
                <coordinates>61.4708377,55.1580267,0.0</coordinates>
            </Point>
        </Placemark>
        <Placemark id="43">
            <name>Убежище кузнечного цеха (ru)</name>
            <description/>
            <Point id="42">
                <coordinates>61.4679773,55.1545892,0.0</coordinates>
            </Point>
        </Placemark>
        <Placemark id="45">
            <name>Заброшенное бомбоубежище (ru)</name>
            <description/>
            <Point id="44">
                <coordinates>61.4477817,55.2079604,0.0</coordinates>
            </Point>
        </Placemark>
        <Placemark id="47">
            <name>Убежище № 74/0105-57 (ru)</name>
            <description/>
            <Point id="46">
                <coordinates>61.3928648,55.122641,0.0</coordinates>
            </Point>
        </Placemark>
        <Placemark id="49">
            <name>Бомбоубежище ОАО «Макфа» (ru)</name>
            <description/>
            <Point id="48">
                <coordinates>61.3526813,55.1702929,0.0</coordinates>
            </Point>
        </Placemark>
        <Placemark id="51">
            <name>Бомбоубежище (ru)</name>
            <description/>
            <Point id="50">
                <coordinates>61.6112341,55.1080761,0.0</coordinates>
            </Point>
        </Placemark>
        <Placemark id="53">
            <name>Бомбоубежище (ru)</name>
            <description/>
            <Point id="52">
                <coordinates>61.4812077,55.1177823,0.0</coordinates>
            </Point>
        </Placemark>
        <Placemark id="55">
            <name>Поддомное бомбоубежище детской больницы (ru)</name>
            <description/>
            <Point id="54">
                <coordinates>61.3035902,55.1934502,0.0</coordinates>
            </Point>
        </Placemark>
        <Placemark id="57">
            <name>Городской защищенный пункт управления ГО ЧС (ru)</name>
            <description/>
            <Point id="56">
                <coordinates>61.3699252,55.1544688,0.0</coordinates>
            </Point>
        </Placemark>
        <Placemark id="59">
            <name>Бомбоубежище №27 (ru)</name>
            <description/>
            <Point id="58">
                <coordinates>61.4980449,55.1119792,0.0</coordinates>
            </Point>
        </Placemark>
        <Placemark id="61">
            <name>Убежище ТЭЦ-1 № 2 (ru)</name>
            <description/>
            <Point id="60">
                <coordinates>61.4724955,55.1332447,0.0</coordinates>
            </Point>
        </Placemark>
        <Placemark id="63">
            <name>Поддомное убежище ГО (ru)</name>
            <description/>
            <Point id="62">
                <coordinates>61.4665155,55.112507,0.0</coordinates>
            </Point>
        </Placemark>
        <Placemark id="65">
            <name>Заброшенное убежище № 74/0106-35 (ru)</name>
            <description/>
            <Point id="64">
                <coordinates>61.458929,55.167176,0.0</coordinates>
            </Point>
        </Placemark>
        <Placemark id="67">
            <name>Заброшенное убежище (ru)</name>
            <description/>
            <Point id="66">
                <coordinates>61.3046027,55.1505515,0.0</coordinates>
            </Point>
        </Placemark>
        <Placemark id="69">
            <name>Бомбоубежище (ru)</name>
            <description/>
            <Point id="68">
                <coordinates>61.2542375,55.0121885,0.0</coordinates>
            </Point>
        </Placemark>
        <Placemark id="71">
            <name>Заброшенное убежище № 2 (ru)</name>
            <description/>
            <Point id="70">
                <coordinates>61.4611525,55.1590953,0.0</coordinates>
            </Point>
        </Placemark>
        <Placemark id="73">
            <name>Заброшенное убежище № 25 (ru)</name>
            <description/>
            <Point id="72">
                <coordinates>61.459147,55.159224,0.0</coordinates>
            </Point>
        </Placemark>
        <Placemark id="75">
            <name>Бомбоубежище (ru)</name>
            <description/>
            <Point id="74">
                <coordinates>61.5056588,55.1106229,0.0</coordinates>
            </Point>
        </Placemark>
        <Placemark id="77">
            <name>Бомбоубежище (ru)</name>
            <description/>
            <Point id="76">
                <coordinates>61.493825,55.1175658,0.0</coordinates>
            </Point>
        </Placemark>
        <Placemark id="79">
            <name>Убежище ГО № 74/0105-56 (ru)</name>
            <description/>
            <Point id="78">
                <coordinates>61.4080809,55.1563622,0.0</coordinates>
            </Point>
        </Placemark>
        <Placemark id="81">
            <name>Убежище № 74/0105-34 (ru)</name>
            <description/>
            <Point id="80">
                <coordinates>61.404228,55.1592898,0.0</coordinates>
            </Point>
        </Placemark>
        <Placemark id="83">
            <name>Бомбоубежище (ru)</name>
            <description/>
            <Point id="82">
                <coordinates>61.3769,55.1976938,0.0</coordinates>
            </Point>
        </Placemark>
        <Placemark id="85">
            <name>Убежище ГО (ru)</name>
            <description/>
            <Point id="84">
                <coordinates>61.6230533,55.1121266,0.0</coordinates>
            </Point>
        </Placemark>
        <Placemark id="87">
            <name>Заброшенное бомбоубежище АБК Копейского машиностроительного завода (ru)</name>
            <description/>
            <Point id="86">
                <coordinates>61.6218624,55.105177,0.0</coordinates>
            </Point>
        </Placemark>
        <Placemark id="89">
            <name>Поддомное убежище ГО (ru)</name>
            <description/>
            <Point id="88">
                <coordinates>61.4353724,55.1420052,0.0</coordinates>
            </Point>
        </Placemark>
        <Placemark id="91">
            <name>Бомбоубежище (ru)</name>
            <description/>
            <Point id="90">
                <coordinates>61.4902092,55.1120796,0.0</coordinates>
            </Point>
        </Placemark>
        <Placemark id="93">
            <name>Заброшенное бомбоубежище (ru)</name>
            <description/>
            <Point id="92">
                <coordinates>61.4442575,55.2346181,0.0</coordinates>
            </Point>
        </Placemark>
        <Placemark id="95">
            <name>Бомбоубежище ДК железнодорожников (ru)</name>
            <description/>
            <Point id="94">
                <coordinates>61.4079362,55.1523808,0.0</coordinates>
            </Point>
        </Placemark>
        <Placemark id="97">
            <name>Затопленное бомбоубежище под больницей (ru)</name>
            <description/>
            <Point id="96">
                <coordinates>61.5886017,55.1199584,0.0</coordinates>
            </Point>
        </Placemark>
        <Placemark id="99">
            <name>Бомбоубежище областной станции переливания крови (ru)</name>
            <description/>
            <Point id="98">
                <coordinates>61.3730245,55.1390548,0.0</coordinates>
            </Point>
        </Placemark>
        <Placemark id="101">
            <name>Убежище № 74/0107-12 ФГУП «Экран» (ru)</name>
            <description/>
            <Point id="100">
                <coordinates>61.4095535,55.1736798,0.0</coordinates>
            </Point>
        </Placemark>
        <Placemark id="103">
            <name>Убежище кондитерской фабрики (ru)</name>
            <description/>
            <Point id="102">
                <coordinates>61.3203901,55.2055866,0.0</coordinates>
            </Point>
        </Placemark>
        <Placemark id="105">
            <name>Бомбоубежище (ru)</name>
            <description/>
            <Point id="104">
                <coordinates>61.4722246,55.117123,0.0</coordinates>
            </Point>
        </Placemark>
        <Placemark id="107">
            <name>Убежище заводоуправления (ru)</name>
            <description/>
            <Point id="106">
                <coordinates>61.5854769,55.1187905,0.0</coordinates>
            </Point>
        </Placemark>
        <Placemark id="109">
            <name>Бомбоубежище (ru)</name>
            <description/>
            <Point id="108">
                <coordinates>61.4829069,55.1168113,0.0</coordinates>
            </Point>
        </Placemark>
        <Placemark id="111">
            <name>Бомбоубежище (ru)</name>
            <description/>
            <Point id="110">
                <coordinates>61.4864249,55.1173441,0.0</coordinates>
            </Point>
        </Placemark>
        <Placemark id="113">
            <name>Бомбоубежище (ru)</name>
            <description/>
            <Point id="112">
                <coordinates>61.3831579,55.1571989,0.0</coordinates>
            </Point>
        </Placemark>
        <Placemark id="115">
            <name>Заброшенное убежище ГО (ru)</name>
            <description/>
            <Point id="114">
                <coordinates>61.368855,55.1921948,0.0</coordinates>
            </Point>
        </Placemark>
        <Placemark id="117">
            <name>Убежище ГО (ru)</name>
            <description/>
            <Point id="116">
                <coordinates>61.4479453,55.1152407,0.0</coordinates>
            </Point>
        </Placemark>
        <Placemark id="119">
            <name>Убежище (ru)</name>
            <description/>
            <Point id="118">
                <coordinates>61.4164964,55.1345342,0.0</coordinates>
            </Point>
        </Placemark>
        <Placemark id="121">
            <name>Заброшенное бомбоубежище (ru)</name>
            <description/>
            <Point id="120">
                <coordinates>61.3915774,55.1929005,0.0</coordinates>
            </Point>
        </Placemark>
        <Placemark id="123">
            <name>Бомбоубежище (ru)</name>
            <description/>
            <Point id="122">
                <coordinates>61.4082178,55.2499844,0.0</coordinates>
            </Point>
        </Placemark>
        <Placemark id="125">
            <name>Убежище 74/107-15 ПАО «Ростелеком» (ru)</name>
            <description/>
            <Point id="124">
                <coordinates>61.4031909,55.1651327,0.0</coordinates>
            </Point>
        </Placemark>
        <Placemark id="127">
            <name>Бомбоубежище (ru)</name>
            <description/>
            <Point id="126">
                <coordinates>61.4944652,55.1194348,0.0</coordinates>
            </Point>
        </Placemark>
        <Placemark id="129">
            <name>Убежище ГО (ru)</name>
            <description/>
            <Point id="128">
                <coordinates>61.486667,55.1060692,0.0</coordinates>
            </Point>
        </Placemark>
        <Placemark id="131">
            <name>убежище МСЦ-3 (ru)</name>
            <description/>
            <Point id="130">
                <coordinates>61.4679774,55.150504,0.0</coordinates>
            </Point>
        </Placemark>
        <Placemark id="133">
            <name>Затопленное убежище ГО (ru)</name>
            <description/>
            <Point id="132">
                <coordinates>61.3774274,55.2434213,0.0</coordinates>
            </Point>
        </Placemark>
        <Placemark id="135">
            <name>Убежище ГО (ru)</name>
            <description/>
            <Point id="134">
                <coordinates>61.4875628,55.1047842,0.0</coordinates>
            </Point>
        </Placemark>
        <Placemark id="137">
            <name>Поддомное убежище ГО (ru)</name>
            <description/>
            <Point id="136">
                <coordinates>61.4367176,55.1649667,0.0</coordinates>
            </Point>
        </Placemark>
        <Placemark id="139">
            <name>Убежище ГО (ru)</name>
            <description/>
            <Point id="138">
                <coordinates>61.4849826,55.1023083,0.0</coordinates>
            </Point>
        </Placemark>
        <Placemark id="141">
            <name>Поддомное убежище ГО (ru)</name>
            <description/>
            <Point id="140">
                <coordinates>61.468491,55.1128069,0.0</coordinates>
            </Point>
        </Placemark>
        <Placemark id="143">
            <name>Укрытие (ru)</name>
            <description/>
            <Point id="142">
                <coordinates>61.4100873,55.1522887,0.0</coordinates>
            </Point>
        </Placemark>
        <Placemark id="145">
            <name>Убежище ГО (ru)</name>
            <description/>
            <Point id="144">
                <coordinates>61.4029955,55.2475864,0.0</coordinates>
            </Point>
        </Placemark>
        <Placemark id="147">
            <name>Поддомное убежище ГО (ru)</name>
            <description/>
            <Point id="146">
                <coordinates>61.4689885,55.1162961,0.0</coordinates>
            </Point>
        </Placemark>
        <Placemark id="149">
            <name>Поддомное убежище ГО (ru)</name>
            <description/>
            <Point id="148">
                <coordinates>61.4352289,55.1649368,0.0</coordinates>
            </Point>
        </Placemark>
        <Placemark id="151">
            <name>Заброшенный узел связи (ru)</name>
            <description/>
            <Point id="150">
                <coordinates>61.4043017,55.1595845,0.0</coordinates>
            </Point>
        </Placemark>
        <Placemark id="153">
            <name>Убежище Челябоблкоммунэнерго (Теплоснабжение) (ru)</name>
            <description/>
            <Point id="152">
                <coordinates>61.5928597,55.1045448,0.0</coordinates>
            </Point>
        </Placemark>
        <Placemark id="155">
            <name>Бомбоубежище под заводоуправлением (ru)</name>
            <description/>
            <Point id="154">
                <coordinates>61.3560729,55.1932603,0.0</coordinates>
            </Point>
        </Placemark>
        <Placemark id="157">
            <name>Поддомное бомбоубежище (ru)</name>
            <description/>
            <Point id="156">
                <coordinates>61.3823599,55.1457126,0.0</coordinates>
            </Point>
        </Placemark>
        <Placemark id="159">
            <name>Заброшенное поддомное бомбоубежище (ru)</name>
            <description/>
            <Point id="158">
                <coordinates>61.4247669,55.1858732,0.0</coordinates>
            </Point>
        </Placemark>
        <Placemark id="161">
            <name>Поддомное бомбоубежище (ru)</name>
            <description/>
            <Point id="160">
                <coordinates>61.3739646,55.1602207,0.0</coordinates>
            </Point>
        </Placemark>
        <Placemark id="163">
            <name>Бомбоубежище №28 (ru)</name>
            <description/>
            <Point id="162">
                <coordinates>61.4902383,55.113496,0.0</coordinates>
            </Point>
        </Placemark>
        <Placemark id="165">
            <name>Убежище ГО (ru)</name>
            <description/>
            <Point id="164">
                <coordinates>61.4894096,55.1026428,0.0</coordinates>
            </Point>
        </Placemark>
        <Placemark id="167">
            <name>Бомбоубежище (ru)</name>
            <description/>
            <Point id="166">
                <coordinates>61.4919193,55.1138837,0.0</coordinates>
            </Point>
        </Placemark>
        <Placemark id="169">
            <name>Поддомное бомбоубежище (ru)</name>
            <description/>
            <Point id="168">
                <coordinates>61.3729226,55.1470461,0.0</coordinates>
            </Point>
        </Placemark>
        <Placemark id="171">
            <name>Поддомное убежище ГО (ru)</name>
            <description/>
            <Point id="170">
                <coordinates>61.4433722,55.1704896,0.0</coordinates>
            </Point>
        </Placemark>
        <Placemark id="173">
            <name>Убежище цеха (ru)</name>
            <description/>
            <Point id="172">
                <coordinates>61.4873912,55.1521539,0.0</coordinates>
            </Point>
        </Placemark>
        <Placemark id="175">
            <name>Поддомное бомбоубежище (ru)</name>
            <description/>
            <Point id="174">
                <coordinates>61.4080165,55.1548681,0.0</coordinates>
            </Point>
        </Placemark>
        <Placemark id="177">
            <name>Бомбоубежище РЖД (ru)</name>
            <description/>
            <Point id="176">
                <coordinates>61.620296,55.1845654,0.0</coordinates>
            </Point>
        </Placemark>
        <Placemark id="179">
            <name>Убежище 74/107-13 ПАО «Ростелеком» (ru)</name>
            <description/>
            <Point id="178">
                <coordinates>61.4017748,55.1642775,0.0</coordinates>
            </Point>
        </Placemark>
        <Placemark id="181">
            <name>Бомбоубежище детского сада (ru)</name>
            <description/>
            <Point id="180">
                <coordinates>61.3897279,55.1568158,0.0</coordinates>
            </Point>
        </Placemark>
        <Placemark id="183">
            <name>Бомбоубежище Регионального управления РЖД (ru)</name>
            <description/>
            <Point id="182">
                <coordinates>61.4174298,55.1462292,0.0</coordinates>
            </Point>
        </Placemark>
        <Placemark id="185">
            <name>Убежище гражданской обороны (ru)</name>
            <description/>
            <Point id="184">
                <coordinates>61.4149743,55.1391108,0.0</coordinates>
            </Point>
        </Placemark>
        <Placemark id="187">
            <name>Заброшенное БВУ (ru)</name>
            <description/>
            <Point id="186">
                <coordinates>61.3746982,55.1153466,0.0</coordinates>
            </Point>
        </Placemark>
        <Placemark id="189">
            <name>Убежище (ru)</name>
            <description/>
            <Point id="188">
                <coordinates>61.4392173,55.1382783,0.0</coordinates>
            </Point>
        </Placemark>
        <Placemark id="191">
            <name>Газоубежище (ru)</name>
            <description/>
            <Point id="190">
                <coordinates>61.4655499,55.1305298,0.0</coordinates>
            </Point>
        </Placemark>
        <Placemark id="193">
            <name>Бомбоубежище (ru)</name>
            <description/>
            <Point id="192">
                <coordinates>61.4016759,55.1567147,0.0</coordinates>
            </Point>
        </Placemark>
        <Placemark id="195">
            <name>Убежище ГО (ru)</name>
            <description/>
            <Point id="194">
                <coordinates>61.4574463,55.1355361,0.0</coordinates>
            </Point>
        </Placemark>
        <Placemark id="197">
            <name>Убежище гражданской обороны Колледжа (ru)</name>
            <description/>
            <Point id="196">
                <coordinates>61.41241,55.1922866,0.0</coordinates>
            </Point>
        </Placemark>
        <Placemark id="199">
            <name>Поддомное бомбоубежище (ru)</name>
            <description/>
            <Point id="198">
                <coordinates>61.3919166,55.1888138,0.0</coordinates>
            </Point>
        </Placemark>
        <Placemark id="201">
            <name>Заброшенное бомбоубежище (ru)</name>
            <description/>
            <Point id="200">
                <coordinates>61.3551543,55.2043321,0.0</coordinates>
            </Point>
        </Placemark>
        <Placemark id="203">
            <name>Убежище ГО (ru)</name>
            <description/>
            <Point id="202">
                <coordinates>61.4602405,55.1337844,0.0</coordinates>
            </Point>
        </Placemark>
        <Placemark id="205">
            <name>Затопленное убежище ГО (ru)</name>
            <description/>
            <Point id="204">
                <coordinates>61.419196,55.1840287,0.0</coordinates>
            </Point>
        </Placemark>
        <Placemark id="207">
            <name>Бомбоубежище (ru)</name>
            <description/>
            <Point id="206">
                <coordinates>61.4079629,55.2502031,0.0</coordinates>
            </Point>
        </Placemark>
        <Placemark id="209">
            <name>Бомбоубежище (ru)</name>
            <description/>
            <Point id="208">
                <coordinates>61.415588,55.1614131,0.0</coordinates>
            </Point>
        </Placemark>
        <Placemark id="211">
            <name>Убежище гражданской обороны быстровозводимого типа (ru)</name>
            <description/>
            <Point id="210">
                <coordinates>61.3591856,55.199648,0.0</coordinates>
            </Point>
        </Placemark>
        <Placemark id="213">
            <name>Убежище ГО (ru)</name>
            <description/>
            <Point id="212">
                <coordinates>61.4708956,55.119341,0.0</coordinates>
            </Point>
        </Placemark>
        <Placemark id="215">
            <name>Убежище гражданской обороны (ru)</name>
            <description/>
            <Point id="214">
                <coordinates>61.4056398,55.1600759,0.0</coordinates>
            </Point>
        </Placemark>
        <Placemark id="217">
            <name>Бомбоубежище Института путей сообщения (ru)</name>
            <description/>
            <Point id="216">
                <coordinates>61.4092423,55.1521156,0.0</coordinates>
            </Point>
        </Placemark>
        <Placemark id="219">
            <name>Поддомное бомбоубежище (ru)</name>
            <description/>
            <Point id="218">
                <coordinates>61.4167164,55.1491491,0.0</coordinates>
            </Point>
        </Placemark>
        <Placemark id="221">
            <name>Защитное сооружение № 73 (ru)</name>
            <description/>
            <Point id="220">
                <coordinates>61.4696215,55.1173975,0.0</coordinates>
            </Point>
        </Placemark>
        <Placemark id="223">
            <name>Убежище ГО (ru)</name>
            <description/>
            <Point id="222">
                <coordinates>61.4691763,55.127883,0.0</coordinates>
            </Point>
        </Placemark>
        <Placemark id="225">
            <name>Заброшенное защитное сооружение ГО (убежище) (ru)</name>
            <description/>
            <Point id="224">
                <coordinates>61.6579817,55.1306064,0.0</coordinates>
            </Point>
        </Placemark>
        <Placemark id="227">
            <name>Бомбоубежище лицея № 35 (ru)</name>
            <description/>
            <Point id="226">
                <coordinates>61.328245,55.1978578,0.0</coordinates>
            </Point>
        </Placemark>
        <Placemark id="229">
            <name>Убежище ГО (ru)</name>
            <description/>
            <Point id="228">
                <coordinates>61.4665303,55.1311079,0.0</coordinates>
            </Point>
        </Placemark>
        <Placemark id="231">
            <name>Бомбоубежище (ru)</name>
            <description/>
            <Point id="230">
                <coordinates>61.3977946,55.2459282,0.0</coordinates>
            </Point>
        </Placemark>
        <Placemark id="233">
            <name>Убежище ГО (ru)</name>
            <description/>
            <Point id="232">
                <coordinates>61.4712121,55.1198456,0.0</coordinates>
            </Point>
        </Placemark>
        <Placemark id="235">
            <name>Поддомное бомбоубежище (ru)</name>
            <description/>
            <Point id="234">
                <coordinates>61.3928782,55.248691,0.0</coordinates>
            </Point>
        </Placemark>
        <Placemark id="237">
            <name>Бомбоубежище (ru)</name>
            <description/>
            <Point id="236">
                <coordinates>61.3737742,55.129431,0.0</coordinates>
            </Point>
        </Placemark>
        <Placemark id="239">
            <name>Бомбоубежище (ru)</name>
            <description/>
            <Point id="238">
                <coordinates>61.369787,55.1138831,0.0</coordinates>
            </Point>
        </Placemark>
        <Placemark id="241">
            <name>Убежище ГО (ru)</name>
            <description/>
            <Point id="240">
                <coordinates>61.4721079,55.1211709,0.0</coordinates>
            </Point>
        </Placemark>
        <Placemark id="243">
            <name>Заброшенное бомбоубежище колонии (ru)</name>
            <description/>
            <Point id="242">
                <coordinates>61.5609843,55.1040699,0.0</coordinates>
            </Point>
        </Placemark>
        <Placemark id="245">
            <name>Заброшенное поддомное бомбоубежище (ru)</name>
            <description/>
            <Point id="244">
                <coordinates>61.4074238,55.1583298,0.0</coordinates>
            </Point>
        </Placemark>
        <Placemark id="247">
            <name>Убежище гражданской обороны (ru)</name>
            <description/>
            <Point id="246">
                <coordinates>61.3667585,55.1290433,0.0</coordinates>
            </Point>
        </Placemark>
        <Placemark id="249">
            <name>Убежище ГО (ru)</name>
            <description/>
            <Point id="248">
                <coordinates>61.4837474,55.102926,0.0</coordinates>
            </Point>
        </Placemark>
        <Placemark id="251">
            <name>Поддомное бомбоубежище (ru)</name>
            <description/>
            <Point id="250">
                <coordinates>61.4380593,55.1619787,0.0</coordinates>
            </Point>
        </Placemark>
        <Placemark id="253">
            <name>Поддомное убежище ГО (ru)</name>
            <description/>
            <Point id="252">
                <coordinates>61.4165835,55.1502243,0.0</coordinates>
            </Point>
        </Placemark>
        <Placemark id="255">
            <name>Убежище ГО (ru)</name>
            <description/>
            <Point id="254">
                <coordinates>61.391855,55.1828694,0.0</coordinates>
            </Point>
        </Placemark>
        <Placemark id="257">
            <name>Бомбоубежище (ru)</name>
            <description/>
            <Point id="256">
                <coordinates>61.3973226,55.1123329,0.0</coordinates>
            </Point>
        </Placemark>
        <Placemark id="259">
            <name>Убежище № 74/0105-36 (ru)</name>
            <description/>
            <Point id="258">
                <coordinates>61.4056871,55.1580372,0.0</coordinates>
            </Point>
        </Placemark>
        <Placemark id="261">
            <name>Поддомное убежище ГО (ru)</name>
            <description/>
            <Point id="260">
                <coordinates>61.3707259,55.1165554,0.0</coordinates>
            </Point>
        </Placemark>
        <Placemark id="263">
            <name>Заброшенное бомбоубежище (ru)</name>
            <description/>
            <Point id="262">
                <coordinates>61.4099222,55.1970555,0.0</coordinates>
            </Point>
        </Placemark>
        <Placemark id="265">
            <name>Бомбоубежище (ru)</name>
            <description/>
            <Point id="264">
                <coordinates>61.469859,55.117817,0.0</coordinates>
            </Point>
        </Placemark>
        <Placemark id="267">
            <name>Поддомное бомбоубежище (ru)</name>
            <description/>
            <Point id="266">
                <coordinates>61.4409528,55.1380905,0.0</coordinates>
            </Point>
        </Placemark>
        <Placemark id="269">
            <name>Убежище (ru)</name>
            <description/>
            <Point id="268">
                <coordinates>61.4702197,55.1273608,0.0</coordinates>
            </Point>
        </Placemark>
        <Placemark id="271">
            <name>Поддомное бомбоубежище (ru)</name>
            <description/>
            <Point id="270">
                <coordinates>61.468318,55.1153037,0.0</coordinates>
            </Point>
        </Placemark>
        <Placemark id="273">
            <name>Убежище ГО (ru)</name>
            <description/>
            <Point id="272">
                <coordinates>61.4721375,55.1215451,0.0</coordinates>
            </Point>
        </Placemark>
        <Placemark id="275">
            <name>Поддомное бомбоубежище (ru)</name>
            <description/>
            <Point id="274">
                <coordinates>61.3506643,55.1168867,0.0</coordinates>
            </Point>
        </Placemark>
        <Placemark id="277">
            <name>Поддомное бомбоубежище (ru)</name>
            <description/>
            <Point id="276">
                <coordinates>61.3946599,55.1847056,0.0</coordinates>
            </Point>
        </Placemark>
        <Placemark id="279">
            <name>Бомбоубежище РЖД (ru)</name>
            <description/>
            <Point id="278">
                <coordinates>61.4175613,55.1490832,0.0</coordinates>
            </Point>
        </Placemark>
        <Placemark id="281">
            <name>Убежище ГО (ru)</name>
            <description/>
            <Point id="280">
                <coordinates>61.4624045,55.133733,0.0</coordinates>
            </Point>
        </Placemark>
        <Placemark id="283">
            <name>Убежище ГО (ru)</name>
            <description/>
            <Point id="282">
                <coordinates>61.4488877,55.1151761,0.0</coordinates>
            </Point>
        </Placemark>
        <Placemark id="285">
            <name>Бомбоубежище (ru)</name>
            <description/>
            <Point id="284">
                <coordinates>61.3994697,55.2454779,0.0</coordinates>
            </Point>
        </Placemark>
        <Placemark id="287">
            <name>Поддомное бомбоубежище (ru)</name>
            <description/>
            <Point id="286">
                <coordinates>61.4422349,55.142802,0.0</coordinates>
            </Point>
        </Placemark>
        <Placemark id="289">
            <name>убежище цеха (ru)</name>
            <description/>
            <Point id="288">
                <coordinates>61.4821985,55.1553731,0.0</coordinates>
            </Point>
        </Placemark>
        <Placemark id="291">
            <name>Убежище ГО (ru)</name>
            <description/>
            <Point id="290">
                <coordinates>61.3925027,55.1412663,0.0</coordinates>
            </Point>
        </Placemark>
        <Placemark id="293">
            <name>Поддомное бомбоубежище (ru)</name>
            <description/>
            <Point id="292">
                <coordinates>61.4673833,55.1141009,0.0</coordinates>
            </Point>
        </Placemark>
        <Placemark id="295">
            <name>Бомбоубежище под общежитием (ru)</name>
            <description/>
            <Point id="294">
                <coordinates>61.3673128,55.1601779,0.0</coordinates>
            </Point>
        </Placemark>
        <Placemark id="297">
            <name>Убежище ГО (ru)</name>
            <description/>
            <Point id="296">
                <coordinates>61.3886537,55.1422949,0.0</coordinates>
            </Point>
        </Placemark>
        <Placemark id="299">
            <name>Спуск в бомбоубежище (ru)</name>
            <description/>
            <Point id="298">
                <coordinates>61.3736226,55.0451539,0.0</coordinates>
            </Point>
        </Placemark>
        <Placemark id="301">
            <name>Поддомное бомбоубежище (ru)</name>
            <description/>
            <Point id="300">
                <coordinates>61.4703686,55.1188501,0.0</coordinates>
            </Point>
        </Placemark>
        <Placemark id="303">
            <name>Поддомное убежище ГО (ru)</name>
            <description/>
            <Point id="302">
                <coordinates>61.4302937,55.1862392,0.0</coordinates>
            </Point>
        </Placemark>
        <Placemark id="305">
            <name>Заброшенное бомбоубежище (ru)</name>
            <description/>
            <Point id="304">
                <coordinates>61.6429445,55.1204078,0.0</coordinates>
            </Point>
        </Placemark>
        <Placemark id="307">
            <name>Поддомное бомбоубежище (ru)</name>
            <description/>
            <Point id="306">
                <coordinates>61.3833771,55.1465768,0.0</coordinates>
            </Point>
        </Placemark>
        <Placemark id="309">
            <name>Бомбоубежище (ru)</name>
            <description/>
            <Point id="308">
                <coordinates>61.3909255,55.1646703,0.0</coordinates>
            </Point>
        </Placemark>
        <Placemark id="311">
            <name>Бомбоубежище станции Синеглазово (ru)</name>
            <description/>
            <Point id="310">
                <coordinates>61.3666099,55.0426629,0.0</coordinates>
            </Point>
        </Placemark>
        <Placemark id="313">
            <name>Убежище гражданской обороны под станцией (ru)</name>
            <description/>
            <Point id="312">
                <coordinates>61.4141896,55.191942,0.0</coordinates>
            </Point>
        </Placemark>
        <Placemark id="315">
            <name>Поддомное бомбоубежище (ru)</name>
            <description/>
            <Point id="314">
                <coordinates>61.3875151,55.1496905,0.0</coordinates>
            </Point>
        </Placemark>
        <Placemark id="317">
            <name>БВУ (ru)</name>
            <description/>
            <Point id="316">
                <coordinates>61.3679739,55.1161396,0.0</coordinates>
            </Point>
        </Placemark>
        <Placemark id="319">
            <name>Убежище РЖД (ru)</name>
            <description/>
            <Point id="318">
                <coordinates>61.4193329,55.1465365,0.0</coordinates>
            </Point>
        </Placemark>
        <Placemark id="321">
            <name>Убежище № 74/0005-52 (ru)</name>
            <description/>
            <Point id="320">
                <coordinates>61.4170811,55.1502879,0.0</coordinates>
            </Point>
        </Placemark>
        <Placemark id="323">
            <name>Бомбоубежище поддомного типа (ru)</name>
            <description/>
            <Point id="322">
                <coordinates>61.381857,55.1626065,0.0</coordinates>
            </Point>
        </Placemark>
        <Placemark id="325">
            <name>Убежище ГО (ru)</name>
            <description/>
            <Point id="324">
                <coordinates>61.4155643,55.1463395,0.0</coordinates>
            </Point>
        </Placemark>
        <Placemark id="327">
            <name>Поддомное бомбоубежище (ru)</name>
            <description/>
            <Point id="326">
                <coordinates>61.375991,55.1206893,0.0</coordinates>
            </Point>
        </Placemark>
        <Placemark id="329">
            <name>Бомбоубежище (ru)</name>
            <description/>
            <Point id="328">
                <coordinates>61.3975767,55.2389565,0.0</coordinates>
            </Point>
        </Placemark>
        <Placemark id="331">
            <name>Поддомное бомбоубежище (ru)</name>
            <description/>
            <Point id="330">
                <coordinates>61.412119,55.1578625,0.0</coordinates>
            </Point>
        </Placemark>
        <Placemark id="333">
            <name>Затопленное бомбоубежище (ru)</name>
            <description/>
            <Point id="332">
                <coordinates>61.599305,55.1029643,0.0</coordinates>
            </Point>
        </Placemark>
        <Placemark id="335">
            <name>Бомбоубежище (ru)</name>
            <description/>
            <Point id="334">
                <coordinates>61.3647136,55.1226257,0.0</coordinates>
            </Point>
        </Placemark>
        <Placemark id="337">
            <name>Бомбоубежище (ru)</name>
            <description/>
            <Point id="336">
                <coordinates>61.4620517,55.1326071,0.0</coordinates>
            </Point>
        </Placemark>
        <Placemark id="339">
            <name>Вход в убежище  для сотрудников Т-8 (ru)</name>
            <description/>
            <Point id="338">
                <coordinates>61.456742,55.1503664,0.0</coordinates>
            </Point>
        </Placemark>
        <Placemark id="341">
            <name>Бомбоубежище ЗПУ Копейска (ru)</name>
            <description/>
            <Point id="340">
                <coordinates>61.5394542,55.1160898,0.0</coordinates>
            </Point>
        </Placemark>
    </Document>
</kml>
