<?xml version="1.0" encoding="UTF-8"?>
<kml xmlns="http://www.opengis.net/kml/2.2" xmlns:gx="http://www.google.com/kml/ext/2.2">
    <Document id="331">
        <Placemark id="333">
            <name>Former soviet S-200 (SA-5 GAMMON) medium to high- altitude surface-to-air missile (SAM) system site (abandoned)</name>
            <description/>
            <Point id="332">
                <coordinates>113.4635995,51.8356162,0.0</coordinates>
            </Point>
        </Placemark>
        <Placemark id="335">
            <name>Former territorial center of radio broadcasting and radio communications No. 12</name>
            <description/>
            <Point id="334">
                <coordinates>113.6449987,51.9246148,0.0</coordinates>
            </Point>
        </Placemark>
        <Placemark id="337">
            <name>Заброшенный детский лагерь «Ракета» (ru)</name>
            <description/>
            <Point id="336">
                <coordinates>113.6262166,51.9207723,0.0</coordinates>
            </Point>
        </Placemark>
        <Placemark id="339">
            <name>Dywizjon nr 1 (pl)</name>
            <description/>
            <Point id="338">
                <coordinates>113.4571624,51.8328425,0.0</coordinates>
            </Point>
        </Placemark>
        <Placemark id="341">
            <name>Dawny dywizjon nr 2 (pl)</name>
            <description/>
            <Point id="340">
                <coordinates>113.4606262,51.8355136,0.0</coordinates>
            </Point>
        </Placemark>
        <Placemark id="343">
            <name>Очистные сооружения (ru)</name>
            <description/>
            <Point id="342">
                <coordinates>113.645082,51.9211817,0.0</coordinates>
            </Point>
        </Placemark>
        <Placemark id="345">
            <name>Бывшие стартовые позиции С-75 (ru)</name>
            <description/>
            <Point id="344">
                <coordinates>113.6871667,51.9147886,0.0</coordinates>
            </Point>
        </Placemark>
        <Placemark id="347">
            <name>Шпалорезка (ru)</name>
            <description/>
            <Point id="346">
                <coordinates>113.5340487,51.9158037,0.0</coordinates>
            </Point>
        </Placemark>
        <Placemark id="349">
            <name>Развалины старой части ПВО (ru)</name>
            <description/>
            <Point id="348">
                <coordinates>113.6916679,51.9161483,0.0</coordinates>
            </Point>
        </Placemark>
        <Placemark id="351">
            <name>Парк для картинга (ru)</name>
            <description/>
            <Point id="350">
                <coordinates>113.6291375,51.9190676,0.0</coordinates>
            </Point>
        </Placemark>
        <Placemark id="353">
            <name>Территория автопарка (ru)</name>
            <description/>
            <Point id="352">
                <coordinates>113.4717656,51.8383986,0.0</coordinates>
            </Point>
        </Placemark>
        <Placemark id="355">
            <name>Казарма (ru)</name>
            <description/>
            <Point id="354">
                <coordinates>113.4672662,51.8378409,0.0</coordinates>
            </Point>
        </Placemark>
        <Placemark id="357">
            <name>Здание бывшей трансформаторной подстанции (ru)</name>
            <description/>
            <Point id="356">
                <coordinates>113.6429066,51.9244991,0.0</coordinates>
            </Point>
        </Placemark>
        <Placemark id="359">
            <name>Здание бывшего радиоцентра (ru)</name>
            <description/>
            <Point id="358">
                <coordinates>113.6448042,51.9247563,0.0</coordinates>
            </Point>
        </Placemark>
        <Placemark id="361">
            <name>Плац (ru)</name>
            <description/>
            <Point id="360">
                <coordinates>113.4672394,51.838053,0.0</coordinates>
            </Point>
        </Placemark>
        <Placemark id="363">
            <name>ДОСы (ru)</name>
            <description/>
            <Point id="362">
                <coordinates>113.4659493,51.8368514,0.0</coordinates>
            </Point>
        </Placemark>
        <Placemark id="365">
            <name>Столовая (ru)</name>
            <description/>
            <Point id="364">
                <coordinates>113.4673749,51.8369501,0.0</coordinates>
            </Point>
        </Placemark>
        <Placemark id="367">
            <name>Dawna pozycja startowa (pl)</name>
            <description/>
            <Point id="366">
                <coordinates>113.6870131,51.915391,0.0</coordinates>
            </Point>
        </Placemark>
        <Placemark id="369">
            <name>Dawna pozycja startowa (pl)</name>
            <description/>
            <Point id="368">
                <coordinates>113.6861923,51.9150072,0.0</coordinates>
            </Point>
        </Placemark>
        <Placemark id="371">
            <name>Dawna pozycja startowa (pl)</name>
            <description/>
            <Point id="370">
                <coordinates>113.6880055,51.9151594,0.0</coordinates>
            </Point>
        </Placemark>
        <Placemark id="373">
            <name>Dawna pozycja startowa (pl)</name>
            <description/>
            <Point id="372">
                <coordinates>113.6881557,51.9144909,0.0</coordinates>
            </Point>
        </Placemark>
        <Placemark id="375">
            <name>Dawna pozycja startowa (pl)</name>
            <description/>
            <Point id="374">
                <coordinates>113.6872492,51.9141634,0.0</coordinates>
            </Point>
        </Placemark>
        <Placemark id="377">
            <name>Dawna pozycja startowa (pl)</name>
            <description/>
            <Point id="376">
                <coordinates>113.6863586,51.9143851,0.0</coordinates>
            </Point>
        </Placemark>
        <Placemark id="379">
            <name>Бывшая гарнизонная гаупвахта (ru)</name>
            <description/>
            <Point id="378">
                <coordinates>113.1613415,51.9024179,0.0</coordinates>
            </Point>
        </Placemark>
        <Placemark id="381">
            <name>Бассейн (ru)</name>
            <description/>
            <Point id="380">
                <coordinates>113.6286212,51.918271,0.0</coordinates>
            </Point>
        </Placemark>
        <Placemark id="383">
            <name>Прод.склад (ru)</name>
            <description/>
            <Point id="382">
                <coordinates>113.4676847,51.8362698,0.0</coordinates>
            </Point>
        </Placemark>
        <Placemark id="385">
            <name>Кочегарка (ru)</name>
            <description/>
            <Point id="384">
                <coordinates>113.4643547,51.8366965,0.0</coordinates>
            </Point>
        </Placemark>
        <Placemark id="387">
            <name>караулка (ru)</name>
            <description/>
            <Point id="386">
                <coordinates>113.4659265,51.8370645,0.0</coordinates>
            </Point>
        </Placemark>
        <Placemark id="389">
            <name>Здание с бассейном (ru)</name>
            <description/>
            <Point id="388">
                <coordinates>113.6049981,51.9528034,0.0</coordinates>
            </Point>
        </Placemark>
    </Document>
</kml>
