<?xml version="1.0" encoding="UTF-8"?>
<kml xmlns="http://www.opengis.net/kml/2.2" xmlns:gx="http://www.google.com/kml/ext/2.2">
    <Document id="329">
        <Placemark id="331">
            <name>Заброшенный плодопитомник (ru)</name>
            <description/>
            <Point id="330">
                <coordinates>51.8572068,55.6221968,0.0</coordinates>
            </Point>
        </Placemark>
        <Placemark id="333">
            <name>Сады Горзеленхоза (ru)</name>
            <description/>
            <Point id="332">
                <coordinates>51.870489,55.6399018,0.0</coordinates>
            </Point>
        </Placemark>
        <Placemark id="335">
            <name>Недостроенная тюрьма Зона № 1 (ru)</name>
            <description/>
            <Point id="334">
                <coordinates>51.8280995,55.5892839,0.0</coordinates>
            </Point>
        </Placemark>
        <Placemark id="337">
            <name>СДТ «Труд» (ru)</name>
            <description/>
            <Point id="336">
                <coordinates>51.8569277,55.5830989,0.0</coordinates>
            </Point>
        </Placemark>
        <Placemark id="339">
            <name>Заброшенный коровник (ru)</name>
            <description/>
            <Point id="338">
                <coordinates>51.7675459,55.5922699,0.0</coordinates>
            </Point>
        </Placemark>
        <Placemark id="341">
            <name>Заброшенная территория (ru)</name>
            <description/>
            <Point id="340">
                <coordinates>51.8412476,55.5873013,0.0</coordinates>
            </Point>
        </Placemark>
        <Placemark id="343">
            <name>Бывший песчаный карьер (ru)</name>
            <description/>
            <Point id="342">
                <coordinates>51.7480623,55.6505824,0.0</coordinates>
            </Point>
        </Placemark>
        <Placemark id="345">
            <name>Заброшенная часть садоводческого товарищества (ru)</name>
            <description/>
            <Point id="344">
                <coordinates>51.7485612,55.6054023,0.0</coordinates>
            </Point>
        </Placemark>
        <Placemark id="347">
            <name>Заброшенный пруд-накопитель (ru)</name>
            <description/>
            <Point id="346">
                <coordinates>51.7127644,55.6328624,0.0</coordinates>
            </Point>
        </Placemark>
        <Placemark id="349">
            <name>Карьер (ru)</name>
            <description/>
            <Point id="348">
                <coordinates>51.7199044,55.5588839,0.0</coordinates>
            </Point>
        </Placemark>
        <Placemark id="351">
            <name>Бывший аэропорт Яковлево (ru)</name>
            <description/>
            <Point id="350">
                <coordinates>51.6076648,55.7512786,0.0</coordinates>
            </Point>
        </Placemark>
        <Placemark id="353">
            <name>Заброшенный каменный карьер (ru)</name>
            <description/>
            <Point id="352">
                <coordinates>51.9122939,55.6442316,0.0</coordinates>
            </Point>
        </Placemark>
        <Placemark id="355">
            <name>Заброшенный пруд-накопитель (ru)</name>
            <description/>
            <Point id="354">
                <coordinates>51.712287,55.6344128,0.0</coordinates>
            </Point>
        </Placemark>
        <Placemark id="357">
            <name>Заброшенная часть пляжа (ru)</name>
            <description/>
            <Point id="356">
                <coordinates>51.8063628,55.691169,0.0</coordinates>
            </Point>
        </Placemark>
        <Placemark id="359">
            <name>Карьер (ru)</name>
            <description/>
            <Point id="358">
                <coordinates>51.8953889,55.6476406,0.0</coordinates>
            </Point>
        </Placemark>
        <Placemark id="361">
            <name>Недостроенные здания кирпичного завода (ru)</name>
            <description/>
            <Point id="360">
                <coordinates>51.7972486,55.6142256,0.0</coordinates>
            </Point>
        </Placemark>
        <Placemark id="363">
            <name>Котлован под строительство бассейна (ru)</name>
            <description/>
            <Point id="362">
                <coordinates>51.8170776,55.6429571,0.0</coordinates>
            </Point>
        </Placemark>
        <Placemark id="365">
            <name>Заброшенная стройка (ru)</name>
            <description/>
            <Point id="364">
                <coordinates>51.8055179,55.6585046,0.0</coordinates>
            </Point>
        </Placemark>
        <Placemark id="367">
            <name>Бывшая штрафстоянка ГАИ (ru)</name>
            <description/>
            <Point id="366">
                <coordinates>51.8521455,55.6410211,0.0</coordinates>
            </Point>
        </Placemark>
        <Placemark id="369">
            <name>ВПП (ru)</name>
            <description/>
            <Point id="368">
                <coordinates>51.607654,55.7512515,0.0</coordinates>
            </Point>
        </Placemark>
        <Placemark id="371">
            <name>Пасека (ru)</name>
            <description/>
            <Point id="370">
                <coordinates>51.8498511,55.6636492,0.0</coordinates>
            </Point>
        </Placemark>
        <Placemark id="373">
            <name>Заброшенное строительство (ru)</name>
            <description/>
            <Point id="372">
                <coordinates>51.813173,55.6450134,0.0</coordinates>
            </Point>
        </Placemark>
        <Placemark id="375">
            <name>Заброшенное ЗС ГО птицефабрики «Красный ключ» (ru)</name>
            <description/>
            <Point id="374">
                <coordinates>51.8251128,55.6812146,0.0</coordinates>
            </Point>
        </Placemark>
        <Placemark id="377">
            <name>Бывшая свиноферма (ru)</name>
            <description/>
            <Point id="376">
                <coordinates>51.8795321,55.6399508,0.0</coordinates>
            </Point>
        </Placemark>
        <Placemark id="379">
            <name>Недостроенное здание (ru)</name>
            <description/>
            <Point id="378">
                <coordinates>51.7366059,55.6477416,0.0</coordinates>
            </Point>
        </Placemark>
        <Placemark id="381">
            <name>Заброшенная конюшня (ru)</name>
            <description/>
            <Point id="380">
                <coordinates>51.8238105,55.6783481,0.0</coordinates>
            </Point>
        </Placemark>
        <Placemark id="383">
            <name>Заброшенное строение (ru)</name>
            <description/>
            <Point id="382">
                <coordinates>51.8294598,55.6323352,0.0</coordinates>
            </Point>
        </Placemark>
        <Placemark id="385">
            <name>Заброшенное здание (ru)</name>
            <description/>
            <Point id="384">
                <coordinates>51.7953214,55.6135545,0.0</coordinates>
            </Point>
        </Placemark>
        <Placemark id="387">
            <name>Долгострой (ru)</name>
            <description/>
            <Point id="386">
                <coordinates>51.7883459,55.6249306,0.0</coordinates>
            </Point>
        </Placemark>
        <Placemark id="389">
            <name>Заброшенный полицейский участок (ru)</name>
            <description/>
            <Point id="388">
                <coordinates>51.8381121,55.6397432,0.0</coordinates>
            </Point>
        </Placemark>
        <Placemark id="391">
            <name>Дом купца Стахеева (ru)</name>
            <description/>
            <Point id="390">
                <coordinates>51.8148573,55.6849488,0.0</coordinates>
            </Point>
        </Placemark>
        <Placemark id="393">
            <name>Заброшенный подъезд (ru)</name>
            <description/>
            <Point id="392">
                <coordinates>51.8052583,55.6196515,0.0</coordinates>
            </Point>
        </Placemark>
        <Placemark id="395">
            <name>Заброшенное здание (ru)</name>
            <description/>
            <Point id="394">
                <coordinates>51.838619,55.6394792,0.0</coordinates>
            </Point>
        </Placemark>
        <Placemark id="397">
            <name>Заброшенный КПП (ru)</name>
            <description/>
            <Point id="396">
                <coordinates>51.826195,55.6800645,0.0</coordinates>
            </Point>
        </Placemark>
        <Placemark id="399">
            <name>Заброшенное кафе (ru)</name>
            <description/>
            <Point id="398">
                <coordinates>52.0206844,55.7507424,0.0</coordinates>
            </Point>
        </Placemark>
        <Placemark id="401">
            <name>Заброшенное здание (ru)</name>
            <description/>
            <Point id="400">
                <coordinates>51.8290711,55.679768,0.0</coordinates>
            </Point>
        </Placemark>
        <Placemark id="403">
            <name>Заброшенное здание (ru)</name>
            <description/>
            <Point id="402">
                <coordinates>51.8129748,55.65538,0.0</coordinates>
            </Point>
        </Placemark>
        <Placemark id="405">
            <name>Центральное здание речного порта (ru)</name>
            <description/>
            <Point id="404">
                <coordinates>51.5154397,55.5456281,0.0</coordinates>
            </Point>
        </Placemark>
        <Placemark id="407">
            <name>Недостроенное здание (ru)</name>
            <description/>
            <Point id="406">
                <coordinates>51.6443426,55.6326937,0.0</coordinates>
            </Point>
        </Placemark>
        <Placemark id="409">
            <name>Заброшенный бассейн (ru)</name>
            <description/>
            <Point id="408">
                <coordinates>51.8121548,55.6239839,0.0</coordinates>
            </Point>
        </Placemark>
        <Placemark id="411">
            <name>Заброшенный дом (ru)</name>
            <description/>
            <Point id="410">
                <coordinates>51.7624653,55.6112429,0.0</coordinates>
            </Point>
        </Placemark>
        <Placemark id="413">
            <name>Заброшенное здание (ru)</name>
            <description/>
            <Point id="412">
                <coordinates>51.8819156,55.6377362,0.0</coordinates>
            </Point>
        </Placemark>
        <Placemark id="415">
            <name>Резервуар (ru)</name>
            <description/>
            <Point id="414">
                <coordinates>51.9831577,55.6050491,0.0</coordinates>
            </Point>
        </Placemark>
        <Placemark id="417">
            <name>Резервуар (ru)</name>
            <description/>
            <Point id="416">
                <coordinates>51.9826669,55.6053506,0.0</coordinates>
            </Point>
        </Placemark>
        <Placemark id="419">
            <name>Резервуар (ru)</name>
            <description/>
            <Point id="418">
                <coordinates>51.9831524,55.6053431,0.0</coordinates>
            </Point>
        </Placemark>
        <Placemark id="421">
            <name>Резервуар (ru)</name>
            <description/>
            <Point id="420">
                <coordinates>51.9836513,55.6053446,0.0</coordinates>
            </Point>
        </Placemark>
        <Placemark id="423">
            <name>Резервуар (ru)</name>
            <description/>
            <Point id="422">
                <coordinates>51.9846651,55.6056219,0.0</coordinates>
            </Point>
        </Placemark>
        <Placemark id="425">
            <name>Резервуар (ru)</name>
            <description/>
            <Point id="424">
                <coordinates>51.9841636,55.6056219,0.0</coordinates>
            </Point>
        </Placemark>
        <Placemark id="427">
            <name>Резервуар (ru)</name>
            <description/>
            <Point id="426">
                <coordinates>51.983662,55.6056294,0.0</coordinates>
            </Point>
        </Placemark>
        <Placemark id="429">
            <name>Резервуар (ru)</name>
            <description/>
            <Point id="428">
                <coordinates>51.9831792,55.6056309,0.0</coordinates>
            </Point>
        </Placemark>
        <Placemark id="431">
            <name>Резервуар (ru)</name>
            <description/>
            <Point id="430">
                <coordinates>51.9826669,55.60564,0.0</coordinates>
            </Point>
        </Placemark>
        <Placemark id="433">
            <name>Разрушенная пристань (ru)</name>
            <description/>
            <Point id="432">
                <coordinates>51.5159989,55.5453413,0.0</coordinates>
            </Point>
        </Placemark>
        <Placemark id="435">
            <name>Заброшенный пост ДПС (ru)</name>
            <description/>
            <Point id="434">
                <coordinates>51.6967712,55.5615103,0.0</coordinates>
            </Point>
        </Placemark>
        <Placemark id="437">
            <name>Летний кинотеатр (ru)</name>
            <description/>
            <Point id="436">
                <coordinates>51.8277267,55.6420186,0.0</coordinates>
            </Point>
        </Placemark>
        <Placemark id="439">
            <name>Бывший жилой дом (ru)</name>
            <description/>
            <Point id="438">
                <coordinates>51.8871834,55.6381378,0.0</coordinates>
            </Point>
        </Placemark>
        <Placemark id="441">
            <name>Заброшенная проходная (ru)</name>
            <description/>
            <Point id="440">
                <coordinates>51.8498407,55.6401582,0.0</coordinates>
            </Point>
        </Placemark>
        <Placemark id="443">
            <name>Заброшенный родник (ru)</name>
            <description/>
            <Point id="442">
                <coordinates>51.8563971,55.6618297,0.0</coordinates>
            </Point>
        </Placemark>
        <Placemark id="445">
            <name>Заброшенное здание (ru)</name>
            <description/>
            <Point id="444">
                <coordinates>51.8484872,55.6413945,0.0</coordinates>
            </Point>
        </Placemark>
        <Placemark id="447">
            <name>Заброшенный склад (ru)</name>
            <description/>
            <Point id="446">
                <coordinates>51.8236082,55.653641,0.0</coordinates>
            </Point>
        </Placemark>
        <Placemark id="449">
            <name>Резервуар (ru)</name>
            <description/>
            <Point id="448">
                <coordinates>51.979754,55.6046597,0.0</coordinates>
            </Point>
        </Placemark>
        <Placemark id="451">
            <name>Резервуар (ru)</name>
            <description/>
            <Point id="450">
                <coordinates>51.979754,55.6045143,0.0</coordinates>
            </Point>
        </Placemark>
        <Placemark id="453">
            <name>Водонапорная башня (ru)</name>
            <description/>
            <Point id="452">
                <coordinates>51.6721182,55.6416614,0.0</coordinates>
            </Point>
        </Placemark>
        <Placemark id="455">
            <name>Магазин (ru)</name>
            <description/>
            <Point id="454">
                <coordinates>51.8834734,55.6372882,0.0</coordinates>
            </Point>
        </Placemark>
        <Placemark id="457">
            <name>Бывший Сельсовет (ru)</name>
            <description/>
            <Point id="456">
                <coordinates>51.8157964,55.6845499,0.0</coordinates>
            </Point>
        </Placemark>
        <Placemark id="459">
            <name>Заброшенный продуктовый магазин «Факторiя» (ru)</name>
            <description/>
            <Point id="458">
                <coordinates>51.8373117,55.658728,0.0</coordinates>
            </Point>
        </Placemark>
        <Placemark id="461">
            <name>Заброшенное стрельбище (ru)</name>
            <description/>
            <Point id="460">
                <coordinates>51.8387652,55.6398501,0.0</coordinates>
            </Point>
        </Placemark>
        <Placemark id="463">
            <name>Заброшенное здание (ru)</name>
            <description/>
            <Point id="462">
                <coordinates>51.8374939,55.6395913,0.0</coordinates>
            </Point>
        </Placemark>
        <Placemark id="465">
            <name>титул 109/11 (ru)</name>
            <description/>
            <Point id="464">
                <coordinates>51.9204492,55.5745941,0.0</coordinates>
            </Point>
        </Placemark>
        <Placemark id="467">
            <name>Заброшенная насосная (ru)</name>
            <description/>
            <Point id="466">
                <coordinates>51.8173947,55.6794112,0.0</coordinates>
            </Point>
        </Placemark>
        <Placemark id="469">
            <name>Заброшенная водонапорная башня (ru)</name>
            <description/>
            <Point id="468">
                <coordinates>51.8171169,55.6794698,0.0</coordinates>
            </Point>
        </Placemark>
        <Placemark id="471">
            <name>Скамейка с навесом (ru)</name>
            <description/>
            <Point id="470">
                <coordinates>51.767138,55.6366914,0.0</coordinates>
            </Point>
        </Placemark>
    </Document>
</kml>
