<?xml version="1.0" encoding="UTF-8"?>
<kml xmlns="http://www.opengis.net/kml/2.2" xmlns:gx="http://www.google.com/kml/ext/2.2">
    <Document id="135">
        <Placemark id="137">
            <name>Разобранная двухпутная вставка (ru)</name>
            <description/>
            <Point id="136">
                <coordinates>83.2945096,54.3441535,0.0</coordinates>
            </Point>
        </Placemark>
        <Placemark id="139">
            <name>Разобранная двухпутная вставка (ru)</name>
            <description/>
            <Point id="138">
                <coordinates>83.3448586,54.4249553,0.0</coordinates>
            </Point>
        </Placemark>
        <Placemark id="141">
            <name>Пруд (ru)</name>
            <description/>
            <Point id="140">
                <coordinates>83.2987555,54.2894961,0.0</coordinates>
            </Point>
        </Placemark>
        <Placemark id="143">
            <name>Заброшенный керамокомбинат (ru)</name>
            <description/>
            <Point id="142">
                <coordinates>83.3550264,54.4456591,0.0</coordinates>
            </Point>
        </Placemark>
        <Placemark id="145">
            <name>Заросший пляж (ru)</name>
            <description/>
            <Point id="144">
                <coordinates>83.3467429,54.4599008,0.0</coordinates>
            </Point>
        </Placemark>
        <Placemark id="147">
            <name>Заброшенная котельная (ru)</name>
            <description/>
            <Point id="146">
                <coordinates>83.3169933,54.3692923,0.0</coordinates>
            </Point>
        </Placemark>
        <Placemark id="149">
            <name>Заброшенный склад завода (ru)</name>
            <description/>
            <Point id="148">
                <coordinates>83.3172682,54.3701408,0.0</coordinates>
            </Point>
        </Placemark>
        <Placemark id="151">
            <name>Бетонная будка (ru)</name>
            <description/>
            <Point id="150">
                <coordinates>83.2977207,54.2749404,0.0</coordinates>
            </Point>
        </Placemark>
        <Placemark id="153">
            <name>Сгоревший продуктовый магазин (ru)</name>
            <description/>
            <Point id="152">
                <coordinates>83.1811849,54.342368,0.0</coordinates>
            </Point>
        </Placemark>
        <Placemark id="155">
            <name>Железнодорожный светофор (ru)</name>
            <description/>
            <Point id="154">
                <coordinates>83.3496931,54.2196378,0.0</coordinates>
            </Point>
        </Placemark>
    </Document>
</kml>
