<?xml version="1.0" encoding="UTF-8"?>
<kml xmlns="http://www.opengis.net/kml/2.2" xmlns:gx="http://www.google.com/kml/ext/2.2">
    <Document id="403">
        <Placemark id="405">
            <name>Заброшенная промзона (ru)</name>
            <description/>
            <Point id="404">
                <coordinates>113.3501314,52.094668,0.0</coordinates>
            </Point>
        </Placemark>
        <Placemark id="407">
            <name>Полигон гарнизона Каштак (ru)</name>
            <description/>
            <Point id="406">
                <coordinates>113.5075013,52.0904915,0.0</coordinates>
            </Point>
        </Placemark>
        <Placemark id="409">
            <name>Расформированная войсковая часть 77128 (ru)</name>
            <description/>
            <Point id="408">
                <coordinates>113.5360352,52.1512182,0.0</coordinates>
            </Point>
        </Placemark>
        <Placemark id="411">
            <name>Войсковая часть 45321 (ru)</name>
            <description/>
            <Point id="410">
                <coordinates>113.5832477,52.1527136,0.0</coordinates>
            </Point>
        </Placemark>
        <Placemark id="413">
            <name>Войсковое стрельбище 383 УМСП в 80-х - 90-х (ru)</name>
            <description/>
            <Point id="412">
                <coordinates>113.503661,52.0875331,0.0</coordinates>
            </Point>
        </Placemark>
        <Placemark id="415">
            <name>Руины бывшего танкового завода (ru)</name>
            <description/>
            <Point id="414">
                <coordinates>113.3076666,51.9992093,0.0</coordinates>
            </Point>
        </Placemark>
        <Placemark id="417">
            <name>Заброшенная танковая директриса 200 УТП (ru)</name>
            <description/>
            <Point id="416">
                <coordinates>113.5072994,52.0942717,0.0</coordinates>
            </Point>
        </Placemark>
        <Placemark id="419">
            <name>Заброшенная директриса БМП 383 УМСП (ru)</name>
            <description/>
            <Point id="418">
                <coordinates>113.5059006,52.0890642,0.0</coordinates>
            </Point>
        </Placemark>
        <Placemark id="421">
            <name>Бывшая войсковая часть № 16980 (ru)</name>
            <description/>
            <Point id="420">
                <coordinates>113.5590702,51.9921906,0.0</coordinates>
            </Point>
        </Placemark>
        <Placemark id="423">
            <name>Разрушенный завод ЖБК (ru)</name>
            <description/>
            <Point id="422">
                <coordinates>113.3513116,52.0931739,0.0</coordinates>
            </Point>
        </Placemark>
        <Placemark id="425">
            <name>Территория бывшего военно-строительного отряда (ru)</name>
            <description/>
            <Point id="424">
                <coordinates>113.3767927,52.0955848,0.0</coordinates>
            </Point>
        </Placemark>
        <Placemark id="427">
            <name>Заброшенный строительный комбинат № 243 — 243 Строительный комбинат Министерства обороны РФ (ru)</name>
            <description/>
            <Point id="426">
                <coordinates>113.4652618,52.0747056,0.0</coordinates>
            </Point>
        </Placemark>
        <Placemark id="429">
            <name>Заброшенный завод железобетонных изделий Министерства обороны СССР (ru)</name>
            <description/>
            <Point id="428">
                <coordinates>113.4982619,52.0812615,0.0</coordinates>
            </Point>
        </Placemark>
        <Placemark id="431">
            <name>Мишенное поле ТОГ-78 (ru)</name>
            <description/>
            <Point id="430">
                <coordinates>113.5025371,52.0934873,0.0</coordinates>
            </Point>
        </Placemark>
        <Placemark id="433">
            <name>Руины (ru)</name>
            <description/>
            <Point id="432">
                <coordinates>113.2848894,52.0869,0.0</coordinates>
            </Point>
        </Placemark>
        <Placemark id="435">
            <name>бывший детский лагерь (ru)</name>
            <description/>
            <Point id="434">
                <coordinates>113.5376607,51.9672905,0.0</coordinates>
            </Point>
        </Placemark>
        <Placemark id="437">
            <name>Расформированная и снесённая 101-я Отдельная Хинганская ордена Ленина бригада связи — войсковая часть 38151 (ru)</name>
            <description/>
            <Point id="436">
                <coordinates>113.528945,52.0252374,0.0</coordinates>
            </Point>
        </Placemark>
        <Placemark id="439">
            <name>Разрушенный комбинат ЖБК (ru)</name>
            <description/>
            <Point id="438">
                <coordinates>113.3482754,52.0969442,0.0</coordinates>
            </Point>
        </Placemark>
        <Placemark id="441">
            <name>Разрушенный домостроительный комбинат (ru)</name>
            <description/>
            <Point id="440">
                <coordinates>113.3484256,52.0917106,0.0</coordinates>
            </Point>
        </Placemark>
        <Placemark id="443">
            <name>Расформированный отдельный батальон связи — войсковая часть 22651 (ru)</name>
            <description/>
            <Point id="442">
                <coordinates>113.4917111,52.0629966,0.0</coordinates>
            </Point>
        </Placemark>
        <Placemark id="445">
            <name>Демонтированный железнодорожный путь (ru)</name>
            <description/>
            <Point id="444">
                <coordinates>113.3655756,52.0740873,0.0</coordinates>
            </Point>
        </Placemark>
        <Placemark id="447">
            <name>Заброшенная пожарная станция (ru)</name>
            <description/>
            <Point id="446">
                <coordinates>113.3455663,52.0144111,0.0</coordinates>
            </Point>
        </Placemark>
        <Placemark id="449">
            <name>Заброшенное производство (ru)</name>
            <description/>
            <Point id="448">
                <coordinates>113.4820532,52.0058079,0.0</coordinates>
            </Point>
        </Placemark>
        <Placemark id="451">
            <name>Радиопередающая вышка (ru)</name>
            <description/>
            <Point id="450">
                <coordinates>113.3360766,52.0324193,0.0</coordinates>
            </Point>
        </Placemark>
        <Placemark id="453">
            <name>Заброшенный кирпичный завод (ru)</name>
            <description/>
            <Point id="452">
                <coordinates>113.4293318,52.0347097,0.0</coordinates>
            </Point>
        </Placemark>
        <Placemark id="455">
            <name>Руины (ru)</name>
            <description/>
            <Point id="454">
                <coordinates>113.2561253,52.0367556,0.0</coordinates>
            </Point>
        </Placemark>
        <Placemark id="457">
            <name>Старое стрельбище (ru)</name>
            <description/>
            <Point id="456">
                <coordinates>113.4961565,52.1487838,0.0</coordinates>
            </Point>
        </Placemark>
        <Placemark id="459">
            <name>СТО &quot;Ридер&quot; (ru)</name>
            <description/>
            <Point id="458">
                <coordinates>113.3174514,52.01156,0.0</coordinates>
            </Point>
        </Placemark>
        <Placemark id="461">
            <name>Развалины (ru)</name>
            <description/>
            <Point id="460">
                <coordinates>113.464651,51.9944328,0.0</coordinates>
            </Point>
        </Placemark>
        <Placemark id="463">
            <name>Остатки размещения подсобного хозяйства танкового полка (ru)</name>
            <description/>
            <Point id="462">
                <coordinates>113.4979756,52.0969993,0.0</coordinates>
            </Point>
        </Placemark>
        <Placemark id="465">
            <name>Заброшенный бетонный завод (ru)</name>
            <description/>
            <Point id="464">
                <coordinates>113.5125661,52.0133744,0.0</coordinates>
            </Point>
        </Placemark>
        <Placemark id="467">
            <name>Недействующее ОАО «Машзавод» (ru)</name>
            <description/>
            <Point id="466">
                <coordinates>113.5061544,52.0459608,0.0</coordinates>
            </Point>
        </Placemark>
        <Placemark id="469">
            <name>Заброшенный обьект (ru)</name>
            <description/>
            <Point id="468">
                <coordinates>113.2586252,52.0369553,0.0</coordinates>
            </Point>
        </Placemark>
        <Placemark id="471">
            <name>Заброшка (ru)</name>
            <description/>
            <Point id="470">
                <coordinates>113.355292,52.0917773,0.0</coordinates>
            </Point>
        </Placemark>
        <Placemark id="473">
            <name>4-я очередь Читинской ТЭЦ-1 (ru)</name>
            <description/>
            <Point id="472">
                <coordinates>113.3536225,52.0528154,0.0</coordinates>
            </Point>
        </Placemark>
        <Placemark id="475">
            <name>Бывшая свиноферма (Свинка) (ru)</name>
            <description/>
            <Point id="474">
                <coordinates>113.5646706,52.1325396,0.0</coordinates>
            </Point>
        </Placemark>
        <Placemark id="477">
            <name>Бывшая територия базирования звена МИГ-21 (ru)</name>
            <description/>
            <Point id="476">
                <coordinates>113.324849,52.0263035,0.0</coordinates>
            </Point>
        </Placemark>
        <Placemark id="479">
            <name>Китайский рынок (ru)</name>
            <description/>
            <Point id="478">
                <coordinates>113.4755449,52.0438682,0.0</coordinates>
            </Point>
        </Placemark>
        <Placemark id="481">
            <name>Заброшенное производство (ru)</name>
            <description/>
            <Point id="480">
                <coordinates>113.3509093,52.0519494,0.0</coordinates>
            </Point>
        </Placemark>
        <Placemark id="483">
            <name>Развалины продовольсвенных складов (ru)</name>
            <description/>
            <Point id="482">
                <coordinates>113.5623036,51.988973,0.0</coordinates>
            </Point>
        </Placemark>
        <Placemark id="485">
            <name>Заброшенный производственный обьект (ru)</name>
            <description/>
            <Point id="484">
                <coordinates>113.3474264,52.0565023,0.0</coordinates>
            </Point>
        </Placemark>
        <Placemark id="487">
            <name>Заброшенный участок (ru)</name>
            <description/>
            <Point id="486">
                <coordinates>113.4532095,52.1465951,0.0</coordinates>
            </Point>
        </Placemark>
        <Placemark id="489">
            <name>Руины (ru)</name>
            <description/>
            <Point id="488">
                <coordinates>113.2841652,52.0047445,0.0</coordinates>
            </Point>
        </Placemark>
        <Placemark id="491">
            <name>Старая дорога (ru)</name>
            <description/>
            <Point id="490">
                <coordinates>113.3187818,52.0048444,0.0</coordinates>
            </Point>
        </Placemark>
        <Placemark id="493">
            <name>Заброшенная стройплощадка (ru)</name>
            <description/>
            <Point id="492">
                <coordinates>113.3992185,52.0620113,0.0</coordinates>
            </Point>
        </Placemark>
        <Placemark id="495">
            <name>Бывший парк батальона связи (ru)</name>
            <description/>
            <Point id="494">
                <coordinates>113.560465,51.9903112,0.0</coordinates>
            </Point>
        </Placemark>
        <Placemark id="497">
            <name>Автопарк (ru)</name>
            <description/>
            <Point id="496">
                <coordinates>113.5394704,52.1483531,0.0</coordinates>
            </Point>
        </Placemark>
        <Placemark id="499">
            <name>Поле с антеннами дальней связи (ru)</name>
            <description/>
            <Point id="498">
                <coordinates>113.5411477,52.1512245,0.0</coordinates>
            </Point>
        </Placemark>
        <Placemark id="501">
            <name>Заброшенные резервуары (ru)</name>
            <description/>
            <Point id="500">
                <coordinates>113.3822052,52.0873005,0.0</coordinates>
            </Point>
        </Placemark>
        <Placemark id="503">
            <name>Остатки пребывания склада Ракетно-Артиллерийского Вооружения полка (ru)</name>
            <description/>
            <Point id="502">
                <coordinates>113.4934022,52.0946409,0.0</coordinates>
            </Point>
        </Placemark>
        <Placemark id="505">
            <name>Заброшенное убежище гражданской обороны № 2 бывшего Читинского камвольно-суконного комбината (ru)</name>
            <description/>
            <Point id="504">
                <coordinates>113.3910082,52.0858963,0.0</coordinates>
            </Point>
        </Placemark>
        <Placemark id="507">
            <name>Заброшенный запасной командный пункт «Сооружение» Сибирского военного округа РФ (ru)</name>
            <description/>
            <Point id="506">
                <coordinates>113.5358825,52.1525378,0.0</coordinates>
            </Point>
        </Placemark>
        <Placemark id="509">
            <name>Заброшенный цех (ru)</name>
            <description/>
            <Point id="508">
                <coordinates>113.5132875,52.0133381,0.0</coordinates>
            </Point>
        </Placemark>
        <Placemark id="511">
            <name>Заброшенная АЗС (ru)</name>
            <description/>
            <Point id="510">
                <coordinates>113.4243535,52.0593942,0.0</coordinates>
            </Point>
        </Placemark>
        <Placemark id="513">
            <name>Заброшенная строительная площадка (ru)</name>
            <description/>
            <Point id="512">
                <coordinates>113.5277607,52.0458346,0.0</coordinates>
            </Point>
        </Placemark>
        <Placemark id="515">
            <name>Недостроенный железнодорожный мост (ru)</name>
            <description/>
            <Point id="514">
                <coordinates>113.5364836,51.989136,0.0</coordinates>
            </Point>
        </Placemark>
        <Placemark id="517">
            <name>Кладбище (ru)</name>
            <description/>
            <Point id="516">
                <coordinates>113.4151509,52.0632218,0.0</coordinates>
            </Point>
        </Placemark>
        <Placemark id="519">
            <name>Заброшенный цех (ru)</name>
            <description/>
            <Point id="518">
                <coordinates>113.3552303,52.0915162,0.0</coordinates>
            </Point>
        </Placemark>
        <Placemark id="521">
            <name>Заброшенное подземное военное сооружение (ru)</name>
            <description/>
            <Point id="520">
                <coordinates>113.543221,52.0366731,0.0</coordinates>
            </Point>
        </Placemark>
        <Placemark id="523">
            <name>Заброшенный корпус (ru)</name>
            <description/>
            <Point id="522">
                <coordinates>113.3843765,52.0872807,0.0</coordinates>
            </Point>
        </Placemark>
        <Placemark id="525">
            <name>Недостроенный корпус (ru)</name>
            <description/>
            <Point id="524">
                <coordinates>113.3533844,52.0531076,0.0</coordinates>
            </Point>
        </Placemark>
        <Placemark id="527">
            <name>Руины (ru)</name>
            <description/>
            <Point id="526">
                <coordinates>113.3111697,52.0199409,0.0</coordinates>
            </Point>
        </Placemark>
        <Placemark id="529">
            <name>Заброшенное производство (ru)</name>
            <description/>
            <Point id="528">
                <coordinates>113.2500824,52.0433187,0.0</coordinates>
            </Point>
        </Placemark>
        <Placemark id="531">
            <name>Территория заброшенного недостроенного завода (ru)</name>
            <description/>
            <Point id="530">
                <coordinates>113.483,52.066574,0.0</coordinates>
            </Point>
        </Placemark>
        <Placemark id="533">
            <name>Заброшенный цех (ru)</name>
            <description/>
            <Point id="532">
                <coordinates>113.3530417,52.0606558,0.0</coordinates>
            </Point>
        </Placemark>
        <Placemark id="535">
            <name>Старая котельная (ru)</name>
            <description/>
            <Point id="534">
                <coordinates>113.593943,51.9933693,0.0</coordinates>
            </Point>
        </Placemark>
        <Placemark id="537">
            <name>Заброшенное убежище гражданской обороны № 1 бывшего Читинского камвольно-суконного комбината (ru)</name>
            <description/>
            <Point id="536">
                <coordinates>113.3878084,52.08749,0.0</coordinates>
            </Point>
        </Placemark>
        <Placemark id="539">
            <name>Заброшенный завод (ru)</name>
            <description/>
            <Point id="538">
                <coordinates>113.249896,52.0447161,0.0</coordinates>
            </Point>
        </Placemark>
        <Placemark id="541">
            <name>Танковый огневой городок ТОГ-78 200-го УТП (ru)</name>
            <description/>
            <Point id="540">
                <coordinates>113.4969527,52.0936422,0.0</coordinates>
            </Point>
        </Placemark>
        <Placemark id="543">
            <name>Котельная в 80-х - 90-х (ru)</name>
            <description/>
            <Point id="542">
                <coordinates>113.5988554,51.9906778,0.0</coordinates>
            </Point>
        </Placemark>
        <Placemark id="545">
            <name>Бывший караульный городок в/ч 04027. (ru)</name>
            <description/>
            <Point id="544">
                <coordinates>113.558861,51.9919249,0.0</coordinates>
            </Point>
        </Placemark>
        <Placemark id="547">
            <name>Заброшенный недостроенный многоквартирный жилой дом (ru)</name>
            <description/>
            <Point id="546">
                <coordinates>113.5269497,52.0226617,0.0</coordinates>
            </Point>
        </Placemark>
        <Placemark id="549">
            <name>Вычислительный центр (ru)</name>
            <description/>
            <Point id="548">
                <coordinates>113.5372397,52.1511948,0.0</coordinates>
            </Point>
        </Placemark>
        <Placemark id="551">
            <name>Центр реабилитации «Областная психиатрическая больница № 1» (ru)</name>
            <description/>
            <Point id="550">
                <coordinates>113.3932583,52.0696602,0.0</coordinates>
            </Point>
        </Placemark>
        <Placemark id="553">
            <name>Бывший собачник (ru)</name>
            <description/>
            <Point id="552">
                <coordinates>113.2910455,52.0140834,0.0</coordinates>
            </Point>
        </Placemark>
        <Placemark id="555">
            <name>Разрушенное здание (ru)</name>
            <description/>
            <Point id="554">
                <coordinates>113.5067361,52.0271703,0.0</coordinates>
            </Point>
        </Placemark>
        <Placemark id="557">
            <name>Заброшенная прокуратура (ru)</name>
            <description/>
            <Point id="556">
                <coordinates>113.5047159,52.0269481,0.0</coordinates>
            </Point>
        </Placemark>
        <Placemark id="559">
            <name>Заброшенное строение.... (ru)</name>
            <description/>
            <Point id="558">
                <coordinates>113.4763535,52.0402848,0.0</coordinates>
            </Point>
        </Placemark>
        <Placemark id="561">
            <name>Заброшенный дом (ru)</name>
            <description/>
            <Point id="560">
                <coordinates>113.3045499,52.0210518,0.0</coordinates>
            </Point>
        </Placemark>
        <Placemark id="563">
            <name>Недострой (ru)</name>
            <description/>
            <Point id="562">
                <coordinates>113.5249095,52.0393493,0.0</coordinates>
            </Point>
        </Placemark>
        <Placemark id="565">
            <name>Руины (ru)</name>
            <description/>
            <Point id="564">
                <coordinates>113.2868567,51.9952832,0.0</coordinates>
            </Point>
        </Placemark>
        <Placemark id="567">
            <name>Заброшенные гаражи для военной техники (ru)</name>
            <description/>
            <Point id="566">
                <coordinates>113.5316699,52.0248423,0.0</coordinates>
            </Point>
        </Placemark>
        <Placemark id="569">
            <name>Заброшенный цех (ru)</name>
            <description/>
            <Point id="568">
                <coordinates>113.3849089,52.0884229,0.0</coordinates>
            </Point>
        </Placemark>
        <Placemark id="571">
            <name>Заброшенное недостроенное здание (ru)</name>
            <description/>
            <Point id="570">
                <coordinates>113.5216882,52.0432907,0.0</coordinates>
            </Point>
        </Placemark>
        <Placemark id="573">
            <name>Заброшенный корпус (ru)</name>
            <description/>
            <Point id="572">
                <coordinates>113.3858289,52.0870252,0.0</coordinates>
            </Point>
        </Placemark>
        <Placemark id="575">
            <name>Двухуровневые отстойники (ru)</name>
            <description/>
            <Point id="574">
                <coordinates>113.301473,51.9902506,0.0</coordinates>
            </Point>
        </Placemark>
        <Placemark id="577">
            <name>Бывшая начальная школа (ru)</name>
            <description/>
            <Point id="576">
                <coordinates>113.3479629,52.0690349,0.0</coordinates>
            </Point>
        </Placemark>
        <Placemark id="579">
            <name>Заброшенная угольная котельная (ru)</name>
            <description/>
            <Point id="578">
                <coordinates>113.5263783,52.0380698,0.0</coordinates>
            </Point>
        </Placemark>
        <Placemark id="581">
            <name>Недействующей объект очистных сооружений (ru)</name>
            <description/>
            <Point id="580">
                <coordinates>113.521074,52.0162524,0.0</coordinates>
            </Point>
        </Placemark>
        <Placemark id="583">
            <name>Место установки радио-отражателя (ru)</name>
            <description/>
            <Point id="582">
                <coordinates>113.5446304,52.0079387,0.0</coordinates>
            </Point>
        </Placemark>
        <Placemark id="585">
            <name>ulitsa Krasnoy Zvezdy, 18</name>
            <description/>
            <Point id="584">
                <coordinates>113.4868356,52.0581772,0.0</coordinates>
            </Point>
        </Placemark>
        <Placemark id="587">
            <name>Заброшенная инфекционная больница (ru)</name>
            <description/>
            <Point id="586">
                <coordinates>113.514964,52.0238874,0.0</coordinates>
            </Point>
        </Placemark>
        <Placemark id="589">
            <name>Заброшенная столовая (ru)</name>
            <description/>
            <Point id="588">
                <coordinates>113.3597592,52.0702674,0.0</coordinates>
            </Point>
        </Placemark>
        <Placemark id="591">
            <name>Пансион 2-ой женской гимназии (ru)</name>
            <description/>
            <Point id="590">
                <coordinates>113.5062179,52.0302823,0.0</coordinates>
            </Point>
        </Placemark>
        <Placemark id="593">
            <name>Заброшенный производственный цех (ru)</name>
            <description/>
            <Point id="592">
                <coordinates>113.2500662,52.0431885,0.0</coordinates>
            </Point>
        </Placemark>
        <Placemark id="595">
            <name>Заброшенное ЛОР-отделение больницы (ru)</name>
            <description/>
            <Point id="594">
                <coordinates>113.514871,52.0446271,0.0</coordinates>
            </Point>
        </Placemark>
        <Placemark id="597">
            <name>руины (ru)</name>
            <description/>
            <Point id="596">
                <coordinates>113.2502138,51.9743794,0.0</coordinates>
            </Point>
        </Placemark>
        <Placemark id="599">
            <name>здание (ru)</name>
            <description/>
            <Point id="598">
                <coordinates>113.3000311,51.9998461,0.0</coordinates>
            </Point>
        </Placemark>
        <Placemark id="601">
            <name>Заброшенное здание (ru)</name>
            <description/>
            <Point id="600">
                <coordinates>113.4755386,52.0987155,0.0</coordinates>
            </Point>
        </Placemark>
        <Placemark id="603">
            <name>Severny mikrorayon, 39</name>
            <description/>
            <Point id="602">
                <coordinates>113.4823134,52.0736553,0.0</coordinates>
            </Point>
        </Placemark>
        <Placemark id="605">
            <name>Памятник истории — «Дом Шилинга» (ru)</name>
            <description/>
            <Point id="604">
                <coordinates>113.5119847,52.0411202,0.0</coordinates>
            </Point>
        </Placemark>
        <Placemark id="607">
            <name>Недостроенная водонапорная ёмкость (ru)</name>
            <description/>
            <Point id="606">
                <coordinates>113.4816777,52.0137384,0.0</coordinates>
            </Point>
        </Placemark>
        <Placemark id="609">
            <name>Заброшенный продуктовый магазин № 35 «Валентина» (ru)</name>
            <description/>
            <Point id="608">
                <coordinates>113.4217114,52.0528216,0.0</coordinates>
            </Point>
        </Placemark>
        <Placemark id="611">
            <name>Пристройка (ru)</name>
            <description/>
            <Point id="610">
                <coordinates>113.382866,52.0716456,0.0</coordinates>
            </Point>
        </Placemark>
        <Placemark id="613">
            <name>Бывшая школа (ru)</name>
            <description/>
            <Point id="612">
                <coordinates>113.5141592,52.0132943,0.0</coordinates>
            </Point>
        </Placemark>
        <Placemark id="615">
            <name>Бывший водоочистительный резервуар (ru)</name>
            <description/>
            <Point id="614">
                <coordinates>113.5196685,52.0181913,0.0</coordinates>
            </Point>
        </Placemark>
        <Placemark id="617">
            <name>Заброшенное здание (ru)</name>
            <description/>
            <Point id="616">
                <coordinates>113.367472,52.0784065,0.0</coordinates>
            </Point>
        </Placemark>
        <Placemark id="619">
            <name>Заброшенное здание (ru)</name>
            <description/>
            <Point id="618">
                <coordinates>113.5786771,52.1487964,0.0</coordinates>
            </Point>
        </Placemark>
        <Placemark id="621">
            <name>ulitsa Devyatogo Yanvarya, 48</name>
            <description/>
            <Point id="620">
                <coordinates>113.5127069,52.0319762,0.0</coordinates>
            </Point>
        </Placemark>
        <Placemark id="623">
            <name>Бывшие классы автодрома (ru)</name>
            <description/>
            <Point id="622">
                <coordinates>113.5691178,51.9855012,0.0</coordinates>
            </Point>
        </Placemark>
        <Placemark id="625">
            <name>Заброшенная строительная площадка продуктового магазина (ru)</name>
            <description/>
            <Point id="624">
                <coordinates>113.5091756,52.0524772,0.0</coordinates>
            </Point>
        </Placemark>
        <Placemark id="627">
            <name>Недействующая котельная (ru)</name>
            <description/>
            <Point id="626">
                <coordinates>113.5119917,52.0298203,0.0</coordinates>
            </Point>
        </Placemark>
        <Placemark id="629">
            <name>Заброшенная бильярдная (ru)</name>
            <description/>
            <Point id="628">
                <coordinates>113.3590002,52.0633297,0.0</coordinates>
            </Point>
        </Placemark>
        <Placemark id="631">
            <name>Мост (ru)</name>
            <description/>
            <Point id="630">
                <coordinates>113.2768106,52.0053886,0.0</coordinates>
            </Point>
        </Placemark>
        <Placemark id="633">
            <name>Заброшенное убежище гражданской обороны (ru)</name>
            <description/>
            <Point id="632">
                <coordinates>113.2982615,52.0029795,0.0</coordinates>
            </Point>
        </Placemark>
        <Placemark id="635">
            <name>Бывший 9-пост караула (ru)</name>
            <description/>
            <Point id="634">
                <coordinates>113.4901427,52.0952226,0.0</coordinates>
            </Point>
        </Placemark>
        <Placemark id="637">
            <name>Заброшенный мицубиси-центр (ru)</name>
            <description/>
            <Point id="636">
                <coordinates>113.3250519,52.0127322,0.0</coordinates>
            </Point>
        </Placemark>
        <Placemark id="639">
            <name>Дымоотводная труба (ru)</name>
            <description/>
            <Point id="638">
                <coordinates>113.3533596,52.0520665,0.0</coordinates>
            </Point>
        </Placemark>
        <Placemark id="641">
            <name>Заброшенное серое здание (a.k.a &quot;Дом с крестами&quot;) (ru)</name>
            <description/>
            <Point id="640">
                <coordinates>113.5017206,52.0481795,0.0</coordinates>
            </Point>
        </Placemark>
        <Placemark id="643">
            <name>Бывший железнодорожный мост (ru)</name>
            <description/>
            <Point id="642">
                <coordinates>113.3469981,52.0841319,0.0</coordinates>
            </Point>
        </Placemark>
        <Placemark id="645">
            <name>Ржавая ёмкость (ru)</name>
            <description/>
            <Point id="644">
                <coordinates>113.5836665,52.0340713,0.0</coordinates>
            </Point>
        </Placemark>
        <Placemark id="647">
            <name>Градирня (ru)</name>
            <description/>
            <Point id="646">
                <coordinates>113.5025648,52.0466178,0.0</coordinates>
            </Point>
        </Placemark>
        <Placemark id="649">
            <name>Заброшенное здание (ru)</name>
            <description/>
            <Point id="648">
                <coordinates>113.5827177,52.1526697,0.0</coordinates>
            </Point>
        </Placemark>
        <Placemark id="651">
            <name>Засыпанный вход № 2 в заброшенный подземный объект (ru)</name>
            <description/>
            <Point id="650">
                <coordinates>113.5433112,52.036952,0.0</coordinates>
            </Point>
        </Placemark>
        <Placemark id="653">
            <name>Неиспользуемое торговое здание (ru)</name>
            <description/>
            <Point id="652">
                <coordinates>113.3908581,52.0688799,0.0</coordinates>
            </Point>
        </Placemark>
        <Placemark id="655">
            <name>Заброшенные военное укрепление</name>
            <description/>
            <Point id="654">
                <coordinates>113.5428454,52.0367507,0.0</coordinates>
            </Point>
        </Placemark>
        <Placemark id="657">
            <name>Вентиляционная шахта засыпанного подземного объекта (ru)</name>
            <description/>
            <Point id="656">
                <coordinates>113.5436043,52.0364001,0.0</coordinates>
            </Point>
        </Placemark>
        <Placemark id="659">
            <name>Antonov An-24RV</name>
            <description/>
            <Point id="658">
                <coordinates>113.299865,52.0220131,0.0</coordinates>
            </Point>
        </Placemark>
        <Placemark id="661">
            <name>Раздевалка (ru)</name>
            <description/>
            <Point id="660">
                <coordinates>113.4706942,52.0425869,0.0</coordinates>
            </Point>
        </Placemark>
        <Placemark id="663">
            <name>Заброшенное здание (ru)</name>
            <description/>
            <Point id="662">
                <coordinates>113.5790379,52.1506188,0.0</coordinates>
            </Point>
        </Placemark>
        <Placemark id="665">
            <name>Брошенный ларек (ru)</name>
            <description/>
            <Point id="664">
                <coordinates>113.3762535,52.0729275,0.0</coordinates>
            </Point>
        </Placemark>
        <Placemark id="667">
            <name>Заброшенное убежище гражданской обороны (ru)</name>
            <description/>
            <Point id="666">
                <coordinates>113.5803948,52.1498069,0.0</coordinates>
            </Point>
        </Placemark>
        <Placemark id="669">
            <name>Заброшенное убежище гражданской обороны (ru)</name>
            <description/>
            <Point id="668">
                <coordinates>113.5800845,52.1501521,0.0</coordinates>
            </Point>
        </Placemark>
        <Placemark id="671">
            <name>Заброшенная подстанция (ru)</name>
            <description/>
            <Point id="670">
                <coordinates>113.3508684,52.06088,0.0</coordinates>
            </Point>
        </Placemark>
        <Placemark id="673">
            <name>Водонапорная башня (ru)</name>
            <description/>
            <Point id="672">
                <coordinates>113.3857029,52.0879416,0.0</coordinates>
            </Point>
        </Placemark>
        <Placemark id="675">
            <name>памятник (ru)</name>
            <description/>
            <Point id="674">
                <coordinates>113.5403282,52.149414,0.0</coordinates>
            </Point>
        </Placemark>
        <Placemark id="677">
            <name>Разрушенный вход в заброшенное убежище гражданской обороны (ru)</name>
            <description/>
            <Point id="676">
                <coordinates>113.251013,52.0448888,0.0</coordinates>
            </Point>
        </Placemark>
        <Placemark id="679">
            <name>Заброшенный кран (ru)</name>
            <description/>
            <Point id="678">
                <coordinates>113.3523107,52.0604934,0.0</coordinates>
            </Point>
        </Placemark>
        <Placemark id="681">
            <name>Неиспользуемый продуктовый магазин (ru)</name>
            <description/>
            <Point id="680">
                <coordinates>113.3923413,52.0707544,0.0</coordinates>
            </Point>
        </Placemark>
        <Placemark id="683">
            <name>Antonov An-2R</name>
            <description/>
            <Point id="682">
                <coordinates>113.298926,52.0226429,0.0</coordinates>
            </Point>
        </Placemark>
        <Placemark id="685">
            <name>Antonov An-2R</name>
            <description/>
            <Point id="684">
                <coordinates>113.2983131,52.0228927,0.0</coordinates>
            </Point>
        </Placemark>
        <Placemark id="687">
            <name>Заброшенное здание (ru)</name>
            <description/>
            <Point id="686">
                <coordinates>113.5801376,52.1496741,0.0</coordinates>
            </Point>
        </Placemark>
        <Placemark id="689">
            <name>Водонапорная башня (ru)</name>
            <description/>
            <Point id="688">
                <coordinates>113.5446646,52.02164,0.0</coordinates>
            </Point>
        </Placemark>
        <Placemark id="691">
            <name>Заброшенный киоск разливного пива «Пивная гайка» (ru)</name>
            <description/>
            <Point id="690">
                <coordinates>113.5096572,52.0259314,0.0</coordinates>
            </Point>
        </Placemark>
        <Placemark id="693">
            <name>Заброшенное здание (ru)</name>
            <description/>
            <Point id="692">
                <coordinates>113.5788836,52.1506517,0.0</coordinates>
            </Point>
        </Placemark>
        <Placemark id="695">
            <name>Бункер (ru)</name>
            <description/>
            <Point id="694">
                <coordinates>113.5148311,52.0868868,0.0</coordinates>
            </Point>
        </Placemark>
    </Document>
</kml>
