<?xml version="1.0" encoding="UTF-8"?>
<kml xmlns="http://www.opengis.net/kml/2.2" xmlns:gx="http://www.google.com/kml/ext/2.2">
    <Document id="1173">
        <Placemark id="1175">
            <name>Бывшая в/ч 36411 (ru)</name>
            <description/>
            <Point id="1174">
                <coordinates>131.9029524,43.5307418,0.0</coordinates>
            </Point>
        </Placemark>
        <Placemark id="1177">
            <name>Войсковая часть 55690 (ru)</name>
            <description/>
            <Point id="1176">
                <coordinates>131.9029269,43.5143104,0.0</coordinates>
            </Point>
        </Placemark>
        <Placemark id="1179">
            <name>Бывшие артиллерийские склады (ru)</name>
            <description/>
            <Point id="1178">
                <coordinates>131.9823093,43.684032,0.0</coordinates>
            </Point>
        </Placemark>
        <Placemark id="1181">
            <name>В/ч 30763 (ru)</name>
            <description/>
            <Point id="1180">
                <coordinates>131.9094916,43.5175266,0.0</coordinates>
            </Point>
        </Placemark>
        <Placemark id="1183">
            <name>Антенна &quot;Заря&quot; Приморского КРТПЦ (ru)</name>
            <description/>
            <Point id="1182">
                <coordinates>131.9299221,43.541611,0.0</coordinates>
            </Point>
        </Placemark>
        <Placemark id="1185">
            <name>В/ч 41474 (ru)</name>
            <description/>
            <Point id="1184">
                <coordinates>131.9097143,43.5120045,0.0</coordinates>
            </Point>
        </Placemark>
        <Placemark id="1187">
            <name>Бывший зверосовхоз «Кедровский» (ru)</name>
            <description/>
            <Point id="1186">
                <coordinates>131.8547183,43.5996701,0.0</coordinates>
            </Point>
        </Placemark>
        <Placemark id="1189">
            <name>В/ч 54192 (ru)</name>
            <description/>
            <Point id="1188">
                <coordinates>131.9010266,43.5362779,0.0</coordinates>
            </Point>
        </Placemark>
        <Placemark id="1191">
            <name>Ситема окопов (ru)</name>
            <description/>
            <Point id="1190">
                <coordinates>132.0229437,43.6490099,0.0</coordinates>
            </Point>
        </Placemark>
        <Placemark id="1193">
            <name>Система окопов (ru)</name>
            <description/>
            <Point id="1192">
                <coordinates>132.0119198,43.6427155,0.0</coordinates>
            </Point>
        </Placemark>
        <Placemark id="1195">
            <name>Окоп (ru)</name>
            <description/>
            <Point id="1194">
                <coordinates>132.0031463,43.6309481,0.0</coordinates>
            </Point>
        </Placemark>
        <Placemark id="1197">
            <name>Окоп (ru)</name>
            <description/>
            <Point id="1196">
                <coordinates>132.0160799,43.6488333,0.0</coordinates>
            </Point>
        </Placemark>
        <Placemark id="1199">
            <name>Окоп (ru)</name>
            <description/>
            <Point id="1198">
                <coordinates>132.0236169,43.6602636,0.0</coordinates>
            </Point>
        </Placemark>
        <Placemark id="1201">
            <name>Окоп (ru)</name>
            <description/>
            <Point id="1200">
                <coordinates>132.023751,43.6635331,0.0</coordinates>
            </Point>
        </Placemark>
        <Placemark id="1203">
            <name>Окоп (ru)</name>
            <description/>
            <Point id="1202">
                <coordinates>132.0168202,43.6477076,0.0</coordinates>
            </Point>
        </Placemark>
        <Placemark id="1205">
            <name>Старые очистые сооружения (ru)</name>
            <description/>
            <Point id="1204">
                <coordinates>131.900175,43.5170498,0.0</coordinates>
            </Point>
        </Placemark>
        <Placemark id="1207">
            <name>Окоп (ru)</name>
            <description/>
            <Point id="1206">
                <coordinates>132.024663,43.6615626,0.0</coordinates>
            </Point>
        </Placemark>
        <Placemark id="1209">
            <name>Гараж (ru)</name>
            <description/>
            <Point id="1208">
                <coordinates>131.9007932,43.5360456,0.0</coordinates>
            </Point>
        </Placemark>
        <Placemark id="1211">
            <name>Окоп (ru)</name>
            <description/>
            <Point id="1210">
                <coordinates>132.0216697,43.661942,0.0</coordinates>
            </Point>
        </Placemark>
        <Placemark id="1213">
            <name>Гаражи (ru)</name>
            <description/>
            <Point id="1212">
                <coordinates>131.9013162,43.5361749,0.0</coordinates>
            </Point>
        </Placemark>
        <Placemark id="1215">
            <name>Столовая (ru)</name>
            <description/>
            <Point id="1214">
                <coordinates>131.9231284,43.5561085,0.0</coordinates>
            </Point>
        </Placemark>
        <Placemark id="1217">
            <name>Гаражи (ru)</name>
            <description/>
            <Point id="1216">
                <coordinates>131.9023221,43.5364199,0.0</coordinates>
            </Point>
        </Placemark>
        <Placemark id="1219">
            <name>Гаражи (ru)</name>
            <description/>
            <Point id="1218">
                <coordinates>131.9018245,43.5363032,0.0</coordinates>
            </Point>
        </Placemark>
        <Placemark id="1221">
            <name>Плац (ru)</name>
            <description/>
            <Point id="1220">
                <coordinates>131.9248607,43.5569963,0.0</coordinates>
            </Point>
        </Placemark>
        <Placemark id="1223">
            <name>Склады НЗ (ru)</name>
            <description/>
            <Point id="1222">
                <coordinates>131.9026171,43.5328012,0.0</coordinates>
            </Point>
        </Placemark>
        <Placemark id="1225">
            <name>Спортгородок (ru)</name>
            <description/>
            <Point id="1224">
                <coordinates>131.9237823,43.557106,0.0</coordinates>
            </Point>
        </Placemark>
        <Placemark id="1227">
            <name>ТЗ-2 (ru)</name>
            <description/>
            <Point id="1226">
                <coordinates>131.9313382,43.5389534,0.0</coordinates>
            </Point>
        </Placemark>
        <Placemark id="1229">
            <name>Склады НЗ (ru)</name>
            <description/>
            <Point id="1228">
                <coordinates>131.902129,43.5326262,0.0</coordinates>
            </Point>
        </Placemark>
        <Placemark id="1231">
            <name>ТЗ-1 (ru)</name>
            <description/>
            <Point id="1230">
                <coordinates>131.9412912,43.5384905,0.0</coordinates>
            </Point>
        </Placemark>
        <Placemark id="1233">
            <name>ТЗ-3 (ru)</name>
            <description/>
            <Point id="1232">
                <coordinates>131.9271791,43.5269387,0.0</coordinates>
            </Point>
        </Placemark>
        <Placemark id="1235">
            <name>С 125 (ru)</name>
            <description/>
            <Point id="1234">
                <coordinates>131.9266511,43.5534405,0.0</coordinates>
            </Point>
        </Placemark>
        <Placemark id="1237">
            <name>Окоп (ru)</name>
            <description/>
            <Point id="1236">
                <coordinates>132.0088568,43.6429718,0.0</coordinates>
            </Point>
        </Placemark>
        <Placemark id="1239">
            <name>Конюшня (ru)</name>
            <description/>
            <Point id="1238">
                <coordinates>131.9097276,43.5201739,0.0</coordinates>
            </Point>
        </Placemark>
        <Placemark id="1241">
            <name>Бывшее кафе «Весёлый Роджер» (ru)</name>
            <description/>
            <Point id="1240">
                <coordinates>131.9901456,43.623441,0.0</coordinates>
            </Point>
        </Placemark>
        <Placemark id="1243">
            <name>Спортзал (ru)</name>
            <description/>
            <Point id="1242">
                <coordinates>131.921746,43.5558234,0.0</coordinates>
            </Point>
        </Placemark>
        <Placemark id="1245">
            <name>Подземелье (ru)</name>
            <description/>
            <Point id="1244">
                <coordinates>131.9830734,43.6733465,0.0</coordinates>
            </Point>
        </Placemark>
        <Placemark id="1247">
            <name>Законсервированный корпус (ru)</name>
            <description/>
            <Point id="1246">
                <coordinates>132.1571988,43.696554,0.0</coordinates>
            </Point>
        </Placemark>
        <Placemark id="1249">
            <name>ул. Чапаева (ru), 37</name>
            <description/>
            <Point id="1248">
                <coordinates>131.8981726,43.5373803,0.0</coordinates>
            </Point>
        </Placemark>
        <Placemark id="1251">
            <name>Склад РАВ (ru)</name>
            <description/>
            <Point id="1250">
                <coordinates>131.9091336,43.5109891,0.0</coordinates>
            </Point>
        </Placemark>
        <Placemark id="1253">
            <name>ул. Свободы (ru), 12</name>
            <description/>
            <Point id="1252">
                <coordinates>131.9546811,43.6400103,0.0</coordinates>
            </Point>
        </Placemark>
        <Placemark id="1255">
            <name>Руины аккумуляторной станции (ru)</name>
            <description/>
            <Point id="1254">
                <coordinates>131.9028038,43.530951,0.0</coordinates>
            </Point>
        </Placemark>
        <Placemark id="1257">
            <name>Уссурийская ул. (ru), 101</name>
            <description/>
            <Point id="1256">
                <coordinates>131.9566862,43.6838848,0.0</coordinates>
            </Point>
        </Placemark>
        <Placemark id="1259">
            <name>Заброшенный дом (ru)</name>
            <description/>
            <Point id="1258">
                <coordinates>132.164828,43.633255,0.0</coordinates>
            </Point>
        </Placemark>
        <Placemark id="1261">
            <name>Развалины (ru)</name>
            <description/>
            <Point id="1260">
                <coordinates>131.9037919,43.5212606,0.0</coordinates>
            </Point>
        </Placemark>
        <Placemark id="1263">
            <name>Подземелье (ru)</name>
            <description/>
            <Point id="1262">
                <coordinates>131.9814769,43.6731868,0.0</coordinates>
            </Point>
        </Placemark>
        <Placemark id="1265">
            <name>ЗИП (ru)</name>
            <description/>
            <Point id="1264">
                <coordinates>131.9288961,43.5530688,0.0</coordinates>
            </Point>
        </Placemark>
        <Placemark id="1267">
            <name>Заброшенное здание (ru)</name>
            <description/>
            <Point id="1266">
                <coordinates>131.8241464,43.5721236,0.0</coordinates>
            </Point>
        </Placemark>
        <Placemark id="1269">
            <name>Таёжная ул. (ru), 2</name>
            <description/>
            <Point id="1268">
                <coordinates>131.80084,43.5143862,0.0</coordinates>
            </Point>
        </Placemark>
        <Placemark id="1271">
            <name>Цистерна (ru)</name>
            <description/>
            <Point id="1270">
                <coordinates>131.9392303,43.6538927,0.0</coordinates>
            </Point>
        </Placemark>
        <Placemark id="1273">
            <name>Заброшенный дом (ru)</name>
            <description/>
            <Point id="1272">
                <coordinates>132.1655635,43.633004,0.0</coordinates>
            </Point>
        </Placemark>
        <Placemark id="1275">
            <name>Водонапорная башня (ru)</name>
            <description/>
            <Point id="1274">
                <coordinates>131.9107817,43.5567338,0.0</coordinates>
            </Point>
        </Placemark>
        <Placemark id="1277">
            <name>Развалины (ru)</name>
            <description/>
            <Point id="1276">
                <coordinates>131.994928,43.6626241,0.0</coordinates>
            </Point>
        </Placemark>
        <Placemark id="1279">
            <name>Подземелье (ru)</name>
            <description/>
            <Point id="1278">
                <coordinates>131.9810905,43.6728072,0.0</coordinates>
            </Point>
        </Placemark>
        <Placemark id="1281">
            <name>Руины памятника (ru)</name>
            <description/>
            <Point id="1280">
                <coordinates>131.933156,43.657337,0.0</coordinates>
            </Point>
        </Placemark>
    </Document>
</kml>
