<?xml version="1.0" encoding="UTF-8"?>
<kml xmlns="http://www.opengis.net/kml/2.2" xmlns:gx="http://www.google.com/kml/ext/2.2">
    <Document id="881">
        <Placemark id="883">
            <name>Мост инженера Цаплина</name>
            <description/>
            <Point id="882">
                <coordinates>86.6235545,50.4567065,0.0</coordinates>
            </Point>
        </Placemark>
        <Placemark id="885">
            <name>Разрушенный склад (ru)</name>
            <description/>
            <Point id="884">
                <coordinates>85.9493976,50.2617373,0.0</coordinates>
            </Point>
        </Placemark>
        <Placemark id="887">
            <name>Заброшенная ГЭС на реке Урсул (ru)</name>
            <description/>
            <Point id="886">
                <coordinates>86.2769838,50.7255284,0.0</coordinates>
            </Point>
        </Placemark>
        <Placemark id="889">
            <name>Заброшенная Ининская ГЭС (ru)</name>
            <description/>
            <Point id="888">
                <coordinates>86.6335916,50.4565442,0.0</coordinates>
            </Point>
        </Placemark>
    </Document>
</kml>
