<?xml version="1.0" encoding="UTF-8"?>
<kml xmlns="http://www.opengis.net/kml/2.2" xmlns:gx="http://www.google.com/kml/ext/2.2">
    <Document id="725">
        <Placemark id="727">
            <name>Северная Звезда (ru)</name>
            <description/>
            <Point id="726">
                <coordinates>87.0214927,53.9393591,0.0</coordinates>
            </Point>
        </Placemark>
        <Placemark id="729">
            <name>Бывший маралий питомник (ru)</name>
            <description/>
            <Point id="728">
                <coordinates>86.1195515,54.1158356,0.0</coordinates>
            </Point>
        </Placemark>
        <Placemark id="731">
            <name>Глиняный карьер (ru)</name>
            <description/>
            <Point id="730">
                <coordinates>86.7115258,54.0433486,0.0</coordinates>
            </Point>
        </Placemark>
        <Placemark id="733">
            <name>Бывшая городская свалка г. Новокузнецка (ru)</name>
            <description/>
            <Point id="732">
                <coordinates>87.127,53.807145,0.0</coordinates>
            </Point>
        </Placemark>
        <Placemark id="735">
            <name>Аэродром Михайловка (ru)</name>
            <description/>
            <Point id="734">
                <coordinates>87.0077889,53.6593947,0.0</coordinates>
            </Point>
        </Placemark>
        <Placemark id="737">
            <name>Территория бывшего завода КПДС (ru)</name>
            <description/>
            <Point id="736">
                <coordinates>86.6407907,53.853289,0.0</coordinates>
            </Point>
        </Placemark>
        <Placemark id="739">
            <name>Клубный сад (ru)</name>
            <description/>
            <Point id="738">
                <coordinates>87.1533292,53.7784372,0.0</coordinates>
            </Point>
        </Placemark>
        <Placemark id="741">
            <name>Известковый карьер (ru)</name>
            <description/>
            <Point id="740">
                <coordinates>86.7122553,53.8059033,0.0</coordinates>
            </Point>
        </Placemark>
        <Placemark id="743">
            <name>Отработанный карьер золотодобычи (ru)</name>
            <description/>
            <Point id="742">
                <coordinates>86.159774,53.8078197,0.0</coordinates>
            </Point>
        </Placemark>
        <Placemark id="745">
            <name>Территория брошенной ИТК (ru)</name>
            <description/>
            <Point id="744">
                <coordinates>87.1402019,54.013405,0.0</coordinates>
            </Point>
        </Placemark>
        <Placemark id="747">
            <name>Территория стекольного завода (ru)</name>
            <description/>
            <Point id="746">
                <coordinates>87.1037211,53.7489573,0.0</coordinates>
            </Point>
        </Placemark>
        <Placemark id="749">
            <name>Бывшая шахта «Смычка» (ru)</name>
            <description/>
            <Point id="748">
                <coordinates>86.772892,53.8326833,0.0</coordinates>
            </Point>
        </Placemark>
        <Placemark id="751">
            <name>Заброшенное трамвайное депо № 2 (ru)</name>
            <description/>
            <Point id="750">
                <coordinates>86.8060818,53.9112793,0.0</coordinates>
            </Point>
        </Placemark>
        <Placemark id="753">
            <name>Сад деревни Тагорыш (ru)</name>
            <description/>
            <Point id="752">
                <coordinates>87.1330785,54.0756024,0.0</coordinates>
            </Point>
        </Placemark>
        <Placemark id="755">
            <name>Бывшее стрельбище (ru)</name>
            <description/>
            <Point id="754">
                <coordinates>86.8417823,53.9064457,0.0</coordinates>
            </Point>
        </Placemark>
        <Placemark id="757">
            <name>Заброшенный стадион (ru)</name>
            <description/>
            <Point id="756">
                <coordinates>86.7131976,54.0533209,0.0</coordinates>
            </Point>
        </Placemark>
        <Placemark id="759">
            <name>Заброшенный парк аттракционов (ru)</name>
            <description/>
            <Point id="758">
                <coordinates>86.5448265,54.0032643,0.0</coordinates>
            </Point>
        </Placemark>
        <Placemark id="761">
            <name>Развалины шахты «Центральная» (ru)</name>
            <description/>
            <Point id="760">
                <coordinates>86.7632656,53.8796784,0.0</coordinates>
            </Point>
        </Placemark>
        <Placemark id="763">
            <name>Заброшенное депо (ru)</name>
            <description/>
            <Point id="762">
                <coordinates>86.6376243,53.8558583,0.0</coordinates>
            </Point>
        </Placemark>
        <Placemark id="765">
            <name>Заброшенный цех (ru)</name>
            <description/>
            <Point id="764">
                <coordinates>86.7080901,53.9829719,0.0</coordinates>
            </Point>
        </Placemark>
        <Placemark id="767">
            <name>Заброшенные водоочистные сооружения (ru)</name>
            <description/>
            <Point id="766">
                <coordinates>87.0901903,53.7626765,0.0</coordinates>
            </Point>
        </Placemark>
        <Placemark id="769">
            <name>С 2021 года рабочий цех (ru)</name>
            <description/>
            <Point id="768">
                <coordinates>86.7199694,53.9828183,0.0</coordinates>
            </Point>
        </Placemark>
        <Placemark id="771">
            <name>prospekt Sovetskoy Armii, 49в</name>
            <description/>
            <Point id="770">
                <coordinates>87.1665184,53.8370373,0.0</coordinates>
            </Point>
        </Placemark>
        <Placemark id="773">
            <name>Отработанный каменный карьер (ru)</name>
            <description/>
            <Point id="772">
                <coordinates>86.3916886,53.7483254,0.0</coordinates>
            </Point>
        </Placemark>
        <Placemark id="775">
            <name>Заброшенный цех (ru)</name>
            <description/>
            <Point id="774">
                <coordinates>87.1046468,53.7495083,0.0</coordinates>
            </Point>
        </Placemark>
        <Placemark id="777">
            <name>Заброшенный корпус птицефабрики (ru)</name>
            <description/>
            <Point id="776">
                <coordinates>87.0411671,53.885693,0.0</coordinates>
            </Point>
        </Placemark>
        <Placemark id="779">
            <name>Здание (ru)</name>
            <description/>
            <Point id="778">
                <coordinates>87.1219619,53.8103501,0.0</coordinates>
            </Point>
        </Placemark>
        <Placemark id="781">
            <name>Заброшенный трамвайный мост (ru)</name>
            <description/>
            <Point id="780">
                <coordinates>87.1443465,53.8886166,0.0</coordinates>
            </Point>
        </Placemark>
        <Placemark id="783">
            <name>Заброшенный корпус (ru)</name>
            <description/>
            <Point id="782">
                <coordinates>87.0401018,53.8841128,0.0</coordinates>
            </Point>
        </Placemark>
        <Placemark id="785">
            <name>Заброшенный цех (ru)</name>
            <description/>
            <Point id="784">
                <coordinates>86.6483812,53.8669611,0.0</coordinates>
            </Point>
        </Placemark>
        <Placemark id="787">
            <name>Заброшенный мясокомбинат (ru)</name>
            <description/>
            <Point id="786">
                <coordinates>86.7673749,53.842345,0.0</coordinates>
            </Point>
        </Placemark>
        <Placemark id="789">
            <name>Территория бывшей автозаправочной станции Автоколонны №1960 (ru)</name>
            <description/>
            <Point id="788">
                <coordinates>86.7348168,53.9229406,0.0</coordinates>
            </Point>
        </Placemark>
        <Placemark id="791">
            <name>Заброшенный корпус (ru)</name>
            <description/>
            <Point id="790">
                <coordinates>87.038982,53.8824853,0.0</coordinates>
            </Point>
        </Placemark>
        <Placemark id="793">
            <name>ulitsa Sibiryakov-Gvardeytsev, 10</name>
            <description/>
            <Point id="792">
                <coordinates>87.1003073,53.7523728,0.0</coordinates>
            </Point>
        </Placemark>
        <Placemark id="795">
            <name>Mokhovaya Street, 10</name>
            <description/>
            <Point id="794">
                <coordinates>87.1801802,53.8461793,0.0</coordinates>
            </Point>
        </Placemark>
        <Placemark id="797">
            <name>Заброшенная котельная (ru)</name>
            <description/>
            <Point id="796">
                <coordinates>87.1015458,53.7464283,0.0</coordinates>
            </Point>
        </Placemark>
        <Placemark id="799">
            <name>Заброшенная шахта (ru)</name>
            <description/>
            <Point id="798">
                <coordinates>86.8177789,53.8668361,0.0</coordinates>
            </Point>
        </Placemark>
        <Placemark id="801">
            <name>Котельная (ru)</name>
            <description/>
            <Point id="800">
                <coordinates>87.0422233,53.8779662,0.0</coordinates>
            </Point>
        </Placemark>
        <Placemark id="803">
            <name>Заброшенное здание (ru)</name>
            <description/>
            <Point id="802">
                <coordinates>86.7706832,53.842162,0.0</coordinates>
            </Point>
        </Placemark>
        <Placemark id="805">
            <name>Закрытое трамвайное кольцо «Куйбышево» (ru)</name>
            <description/>
            <Point id="804">
                <coordinates>87.0636194,53.7516638,0.0</coordinates>
            </Point>
        </Placemark>
        <Placemark id="807">
            <name>Заброшенный коровник (ru)</name>
            <description/>
            <Point id="806">
                <coordinates>87.1525906,53.9074269,0.0</coordinates>
            </Point>
        </Placemark>
        <Placemark id="809">
            <name>Stanowisko startowe (pl)</name>
            <description/>
            <Point id="808">
                <coordinates>86.9712347,53.9819117,0.0</coordinates>
            </Point>
        </Placemark>
        <Placemark id="811">
            <name>Dawne stanowisko startowe (pl)</name>
            <description/>
            <Point id="810">
                <coordinates>86.9702262,53.9823975,0.0</coordinates>
            </Point>
        </Placemark>
        <Placemark id="813">
            <name>Dawne stanowisko startowe (pl)</name>
            <description/>
            <Point id="812">
                <coordinates>86.9702636,53.9831459,0.0</coordinates>
            </Point>
        </Placemark>
        <Placemark id="815">
            <name>Dawne stanowisko startowe (pl)</name>
            <description/>
            <Point id="814">
                <coordinates>86.9715347,53.9834274,0.0</coordinates>
            </Point>
        </Placemark>
        <Placemark id="817">
            <name>Dawne stanowisko startowe (pl)</name>
            <description/>
            <Point id="816">
                <coordinates>86.9724144,53.9822666,0.0</coordinates>
            </Point>
        </Placemark>
        <Placemark id="819">
            <name>Dawne stanowisko startowe (pl)</name>
            <description/>
            <Point id="818">
                <coordinates>86.9725968,53.9829417,0.0</coordinates>
            </Point>
        </Placemark>
        <Placemark id="821">
            <name>Заброшенный карьер (ru)</name>
            <description/>
            <Point id="820">
                <coordinates>86.1154907,54.1199625,0.0</coordinates>
            </Point>
        </Placemark>
        <Placemark id="823">
            <name>Заброшенное патологоанатомическое отделение (ru)</name>
            <description/>
            <Point id="822">
                <coordinates>87.168773,53.8372549,0.0</coordinates>
            </Point>
        </Placemark>
        <Placemark id="825">
            <name>Заброшенное здание (ru)</name>
            <description/>
            <Point id="824">
                <coordinates>86.9435396,54.1274902,0.0</coordinates>
            </Point>
        </Placemark>
        <Placemark id="827">
            <name>Заброшенный железнодорожный путепровод (ru)</name>
            <description/>
            <Point id="826">
                <coordinates>86.8389152,53.9837638,0.0</coordinates>
            </Point>
        </Placemark>
        <Placemark id="829">
            <name>Заброшенный инфекционный корпус (ru)</name>
            <description/>
            <Point id="828">
                <coordinates>87.167201,53.8376189,0.0</coordinates>
            </Point>
        </Placemark>
        <Placemark id="831">
            <name>Заброшенное строительство многоквартирного дома (ru)</name>
            <description/>
            <Point id="830">
                <coordinates>87.1635062,53.8365684,0.0</coordinates>
            </Point>
        </Placemark>
        <Placemark id="833">
            <name>Бывший магазин № 22 (ru)</name>
            <description/>
            <Point id="832">
                <coordinates>86.6865948,53.9681706,0.0</coordinates>
            </Point>
        </Placemark>
        <Placemark id="835">
            <name>Заброшенная пятиэтажка (ru)</name>
            <description/>
            <Point id="834">
                <coordinates>87.0800989,53.7404545,0.0</coordinates>
            </Point>
        </Placemark>
        <Placemark id="837">
            <name>Заброшенный трамвайный мост (ru)</name>
            <description/>
            <Point id="836">
                <coordinates>87.1732684,53.8741902,0.0</coordinates>
            </Point>
        </Placemark>
        <Placemark id="839">
            <name>Заброшенное здание (ru)</name>
            <description/>
            <Point id="838">
                <coordinates>86.8236217,53.8860039,0.0</coordinates>
            </Point>
        </Placemark>
        <Placemark id="841">
            <name>Заброшенное здание шахты «Смычка» (ru)</name>
            <description/>
            <Point id="840">
                <coordinates>86.7735761,53.833436,0.0</coordinates>
            </Point>
        </Placemark>
        <Placemark id="843">
            <name>Заброшенный корпус (ru)</name>
            <description/>
            <Point id="842">
                <coordinates>86.640179,54.0287277,0.0</coordinates>
            </Point>
        </Placemark>
        <Placemark id="845">
            <name>Недострой (ru)</name>
            <description/>
            <Point id="844">
                <coordinates>87.1413605,53.8208305,0.0</coordinates>
            </Point>
        </Placemark>
        <Placemark id="847">
            <name>Корпус санатория (ru)</name>
            <description/>
            <Point id="846">
                <coordinates>87.0212571,53.7409516,0.0</coordinates>
            </Point>
        </Placemark>
        <Placemark id="849">
            <name>Заброшенное здание погрузки (ru)</name>
            <description/>
            <Point id="848">
                <coordinates>86.8228563,53.8102188,0.0</coordinates>
            </Point>
        </Placemark>
        <Placemark id="851">
            <name>Заброшенный долгострой (ru)</name>
            <description/>
            <Point id="850">
                <coordinates>87.1536003,53.8229714,0.0</coordinates>
            </Point>
        </Placemark>
        <Placemark id="853">
            <name>Заброшенная школьная теплица (ru)</name>
            <description/>
            <Point id="852">
                <coordinates>87.1350085,53.8984368,0.0</coordinates>
            </Point>
        </Placemark>
        <Placemark id="855">
            <name>Заброшенный барак (ru)</name>
            <description/>
            <Point id="854">
                <coordinates>86.775789,53.8515836,0.0</coordinates>
            </Point>
        </Placemark>
        <Placemark id="857">
            <name>Недействующий путепровод (ru)</name>
            <description/>
            <Point id="856">
                <coordinates>86.752636,53.9694335,0.0</coordinates>
            </Point>
        </Placemark>
        <Placemark id="859">
            <name>Заброшенный путепровод (ru)</name>
            <description/>
            <Point id="858">
                <coordinates>86.5174827,54.0006481,0.0</coordinates>
            </Point>
        </Placemark>
        <Placemark id="861">
            <name>Заброшенный путепровод (ru)</name>
            <description/>
            <Point id="860">
                <coordinates>86.5101858,54.0035693,0.0</coordinates>
            </Point>
        </Placemark>
        <Placemark id="863">
            <name>Недостроенное овощехранилище (ru)</name>
            <description/>
            <Point id="862">
                <coordinates>86.7872277,53.8317839,0.0</coordinates>
            </Point>
        </Placemark>
        <Placemark id="865">
            <name>Заброшенный частный дом (ru)</name>
            <description/>
            <Point id="864">
                <coordinates>86.6823381,53.9693752,0.0</coordinates>
            </Point>
        </Placemark>
        <Placemark id="867">
            <name>Болотная ул., 10 (ru)</name>
            <description/>
            <Point id="866">
                <coordinates>86.6804492,53.9672153,0.0</coordinates>
            </Point>
        </Placemark>
        <Placemark id="869">
            <name>Водонапорная башня (ru)</name>
            <description/>
            <Point id="868">
                <coordinates>86.7891973,53.9011776,0.0</coordinates>
            </Point>
        </Placemark>
        <Placemark id="871">
            <name>Заброшенное убежище гражданской обороны (ru)</name>
            <description/>
            <Point id="870">
                <coordinates>87.0905112,53.7663988,0.0</coordinates>
            </Point>
        </Placemark>
        <Placemark id="873">
            <name>Стрелочный пост (ru)</name>
            <description/>
            <Point id="872">
                <coordinates>87.1871512,53.8457915,0.0</coordinates>
            </Point>
        </Placemark>
        <Placemark id="875">
            <name>Water tower</name>
            <description/>
            <Point id="874">
                <coordinates>87.0122845,53.7472523,0.0</coordinates>
            </Point>
        </Placemark>
        <Placemark id="877">
            <name>Дымовая труба (ru)</name>
            <description/>
            <Point id="876">
                <coordinates>87.0406731,53.886026,0.0</coordinates>
            </Point>
        </Placemark>
        <Placemark id="879">
            <name>Стрелочный пост (ru)</name>
            <description/>
            <Point id="878">
                <coordinates>87.1748238,53.8453721,0.0</coordinates>
            </Point>
        </Placemark>
    </Document>
</kml>
