<?xml version="1.0" encoding="UTF-8"?>
<kml xmlns="http://www.opengis.net/kml/2.2" xmlns:gx="http://www.google.com/kml/ext/2.2">
    <Document id="1591">
        <Placemark id="1593">
            <name>Карьер «Зыбунный» (ru)</name>
            <description/>
            <Point id="1592">
                <coordinates>132.1710754,43.3180327,0.0</coordinates>
            </Point>
        </Placemark>
        <Placemark id="1595">
            <name>S-300V SAM installation</name>
            <description/>
            <Point id="1594">
                <coordinates>131.8630439,43.3578479,0.0</coordinates>
            </Point>
        </Placemark>
        <Placemark id="1597">
            <name>Старое кладбище (ru)</name>
            <description/>
            <Point id="1596">
                <coordinates>132.174923,43.3450797,0.0</coordinates>
            </Point>
        </Placemark>
        <Placemark id="1599">
            <name>Заброшенный аэродром Южная Угловая (ru)</name>
            <description/>
            <Point id="1598">
                <coordinates>132.0416092,43.3328727,0.0</coordinates>
            </Point>
        </Placemark>
        <Placemark id="1601">
            <name>Антенный комплекс радиозащиты &quot;Малая Заря&quot; (ru)</name>
            <description/>
            <Point id="1600">
                <coordinates>131.8945704,43.3355884,0.0</coordinates>
            </Point>
        </Placemark>
        <Placemark id="1603">
            <name>Карьер (ru)</name>
            <description/>
            <Point id="1602">
                <coordinates>132.1610546,43.313914,0.0</coordinates>
            </Point>
        </Placemark>
        <Placemark id="1605">
            <name>Заброшенные свинарники (ru)</name>
            <description/>
            <Point id="1604">
                <coordinates>132.0603015,43.3767521,0.0</coordinates>
            </Point>
        </Placemark>
        <Placemark id="1607">
            <name>Бывшие позиции С-125 (ru)</name>
            <description/>
            <Point id="1606">
                <coordinates>131.8629795,43.3586964,0.0</coordinates>
            </Point>
        </Placemark>
        <Placemark id="1609">
            <name>Military communication center</name>
            <description/>
            <Point id="1608">
                <coordinates>132.1723831,43.3225883,0.0</coordinates>
            </Point>
        </Placemark>
        <Placemark id="1611">
            <name>Бывший парк культуры и отдыха (ru)</name>
            <description/>
            <Point id="1610">
                <coordinates>132.0809358,43.3298565,0.0</coordinates>
            </Point>
        </Placemark>
        <Placemark id="1613">
            <name>Стоянка строительной техники (ru)</name>
            <description/>
            <Point id="1612">
                <coordinates>132.1320425,43.3557261,0.0</coordinates>
            </Point>
        </Placemark>
        <Placemark id="1615">
            <name>Кладбище (ru)</name>
            <description/>
            <Point id="1614">
                <coordinates>131.7126689,43.4017611,0.0</coordinates>
            </Point>
        </Placemark>
        <Placemark id="1617">
            <name>Очистные сооружения (ru)</name>
            <description/>
            <Point id="1616">
                <coordinates>132.0636969,43.376625,0.0</coordinates>
            </Point>
        </Placemark>
        <Placemark id="1619">
            <name>Территория неизвестного военного назначения (ru)</name>
            <description/>
            <Point id="1618">
                <coordinates>131.972081,43.471254,0.0</coordinates>
            </Point>
        </Placemark>
        <Placemark id="1621">
            <name>Заброшенная угольная шахта (ru)</name>
            <description/>
            <Point id="1620">
                <coordinates>131.9160282,43.3597084,0.0</coordinates>
            </Point>
        </Placemark>
        <Placemark id="1623">
            <name>Руины коровников (ru)</name>
            <description/>
            <Point id="1622">
                <coordinates>131.9621622,43.361682,0.0</coordinates>
            </Point>
        </Placemark>
        <Placemark id="1625">
            <name>Старая каменоломня (ru)</name>
            <description/>
            <Point id="1624">
                <coordinates>131.958627,43.4256393,0.0</coordinates>
            </Point>
        </Placemark>
        <Placemark id="1627">
            <name>Бывший КП 183 МРАП (ru)</name>
            <description/>
            <Point id="1626">
                <coordinates>132.1648809,43.3850548,0.0</coordinates>
            </Point>
        </Placemark>
        <Placemark id="1629">
            <name>Остатки старой дороги (ru)</name>
            <description/>
            <Point id="1628">
                <coordinates>131.9672959,43.4739051,0.0</coordinates>
            </Point>
        </Placemark>
        <Placemark id="1631">
            <name>Заброшенный стеклозавод (ru)</name>
            <description/>
            <Point id="1630">
                <coordinates>131.928632,43.4721357,0.0</coordinates>
            </Point>
        </Placemark>
        <Placemark id="1633">
            <name>Dawne stanowisko startowe S-125 (pl)</name>
            <description/>
            <Point id="1632">
                <coordinates>131.8625439,43.3591671,0.0</coordinates>
            </Point>
        </Placemark>
        <Placemark id="1635">
            <name>Dawna wyrzutnia S-125 (pl)</name>
            <description/>
            <Point id="1634">
                <coordinates>131.8638647,43.3590825,0.0</coordinates>
            </Point>
        </Placemark>
        <Placemark id="1637">
            <name>Dawna wyrzutnia S-125 (pl)</name>
            <description/>
            <Point id="1636">
                <coordinates>131.8621373,43.3583181,0.0</coordinates>
            </Point>
        </Placemark>
        <Placemark id="1639">
            <name>Заброшенное защитное сооружение гражданской обороны (убежище) (ru)</name>
            <description/>
            <Point id="1638">
                <coordinates>131.8616384,43.3327811,0.0</coordinates>
            </Point>
        </Placemark>
        <Placemark id="1641">
            <name>Заброшенное кладбище стекольного завода (ru)</name>
            <description/>
            <Point id="1640">
                <coordinates>131.9806345,43.448598,0.0</coordinates>
            </Point>
        </Placemark>
        <Placemark id="1643">
            <name>Дальшахтострой шахты № 8 «Амурская» (ru)</name>
            <description/>
            <Point id="1642">
                <coordinates>132.1074917,43.3499739,0.0</coordinates>
            </Point>
        </Placemark>
        <Placemark id="1645">
            <name>Свинарник (ru)</name>
            <description/>
            <Point id="1644">
                <coordinates>132.0597811,43.4008907,0.0</coordinates>
            </Point>
        </Placemark>
        <Placemark id="1647">
            <name>Защитное сооружение гражданской обороны (ru)</name>
            <description/>
            <Point id="1646">
                <coordinates>131.9591983,43.4751801,0.0</coordinates>
            </Point>
        </Placemark>
        <Placemark id="1649">
            <name>Руины (ru)</name>
            <description/>
            <Point id="1648">
                <coordinates>132.0328195,43.3568787,0.0</coordinates>
            </Point>
        </Placemark>
        <Placemark id="1651">
            <name>Заброшенное водохранилище (ru)</name>
            <description/>
            <Point id="1650">
                <coordinates>131.9630791,43.4270428,0.0</coordinates>
            </Point>
        </Placemark>
        <Placemark id="1653">
            <name>Ангар (ru)</name>
            <description/>
            <Point id="1652">
                <coordinates>132.131077,43.3446594,0.0</coordinates>
            </Point>
        </Placemark>
        <Placemark id="1655">
            <name>Брошеный участок (ru)</name>
            <description/>
            <Point id="1654">
                <coordinates>132.1046706,43.4219633,0.0</coordinates>
            </Point>
        </Placemark>
        <Placemark id="1657">
            <name>Заброшенный цех (ru)</name>
            <description/>
            <Point id="1656">
                <coordinates>132.1302203,43.3430827,0.0</coordinates>
            </Point>
        </Placemark>
        <Placemark id="1659">
            <name>КП 1061-го ОПУЛАБа (ru)</name>
            <description/>
            <Point id="1658">
                <coordinates>132.1081334,43.3178913,0.0</coordinates>
            </Point>
        </Placemark>
        <Placemark id="1661">
            <name>Коровник (ru)</name>
            <description/>
            <Point id="1660">
                <coordinates>132.1586355,43.4497356,0.0</coordinates>
            </Point>
        </Placemark>
        <Placemark id="1663">
            <name>Небольшое бомбоубежище (ru)</name>
            <description/>
            <Point id="1662">
                <coordinates>132.1192081,43.340207,0.0</coordinates>
            </Point>
        </Placemark>
        <Placemark id="1665">
            <name>Убежище (ru)</name>
            <description/>
            <Point id="1664">
                <coordinates>132.1523361,43.3460209,0.0</coordinates>
            </Point>
        </Placemark>
        <Placemark id="1667">
            <name>Карьер (ru)</name>
            <description/>
            <Point id="1666">
                <coordinates>131.974322,43.4712277,0.0</coordinates>
            </Point>
        </Placemark>
        <Placemark id="1669">
            <name>Старые шахты (ru)</name>
            <description/>
            <Point id="1668">
                <coordinates>131.9999652,43.3942742,0.0</coordinates>
            </Point>
        </Placemark>
        <Placemark id="1671">
            <name>Двухэтажное здание (ru)</name>
            <description/>
            <Point id="1670">
                <coordinates>132.0956262,43.3445833,0.0</coordinates>
            </Point>
        </Placemark>
        <Placemark id="1673">
            <name>Заброшенный материальный склад № 2 (ru)</name>
            <description/>
            <Point id="1672">
                <coordinates>132.0084188,43.379565,0.0</coordinates>
            </Point>
        </Placemark>
        <Placemark id="1675">
            <name>Котельная ПМС-320 (ru)</name>
            <description/>
            <Point id="1674">
                <coordinates>132.1297975,43.3420036,0.0</coordinates>
            </Point>
        </Placemark>
        <Placemark id="1677">
            <name>Donbasskaya ulitsa, 26</name>
            <description/>
            <Point id="1676">
                <coordinates>132.1196615,43.3481686,0.0</coordinates>
            </Point>
        </Placemark>
        <Placemark id="1679">
            <name>Заброшенное здание (ru)</name>
            <description/>
            <Point id="1678">
                <coordinates>132.0778076,43.3617775,0.0</coordinates>
            </Point>
        </Placemark>
        <Placemark id="1681">
            <name>Столярный цех (ru)</name>
            <description/>
            <Point id="1680">
                <coordinates>132.0564955,43.3789258,0.0</coordinates>
            </Point>
        </Placemark>
        <Placemark id="1683">
            <name>Заброшенное здание (ru)</name>
            <description/>
            <Point id="1682">
                <coordinates>132.0159337,43.3617239,0.0</coordinates>
            </Point>
        </Placemark>
        <Placemark id="1685">
            <name>Заброшенный корпус (ru)</name>
            <description/>
            <Point id="1684">
                <coordinates>131.9433421,43.4426449,0.0</coordinates>
            </Point>
        </Placemark>
        <Placemark id="1687">
            <name>Цех (ru)</name>
            <description/>
            <Point id="1686">
                <coordinates>132.1301945,43.3426532,0.0</coordinates>
            </Point>
        </Placemark>
        <Placemark id="1689">
            <name>Заброшенное здание (ru)</name>
            <description/>
            <Point id="1688">
                <coordinates>132.0778317,43.3614958,0.0</coordinates>
            </Point>
        </Placemark>
        <Placemark id="1691">
            <name>Заброшенный дом отдыха локомотивных бригад (ru)</name>
            <description/>
            <Point id="1690">
                <coordinates>132.1303405,43.3436895,0.0</coordinates>
            </Point>
        </Placemark>
        <Placemark id="1693">
            <name>Магазин (ru)</name>
            <description/>
            <Point id="1692">
                <coordinates>132.1613162,43.3453968,0.0</coordinates>
            </Point>
        </Placemark>
        <Placemark id="1695">
            <name>Заброшенный склад (ru)</name>
            <description/>
            <Point id="1694">
                <coordinates>132.0551731,43.3785924,0.0</coordinates>
            </Point>
        </Placemark>
        <Placemark id="1697">
            <name>Административка ПМС-320 (ru)</name>
            <description/>
            <Point id="1696">
                <coordinates>132.1280997,43.3410839,0.0</coordinates>
            </Point>
        </Placemark>
        <Placemark id="1699">
            <name>Бывший КПП (ru)</name>
            <description/>
            <Point id="1698">
                <coordinates>132.0665269,43.3765054,0.0</coordinates>
            </Point>
        </Placemark>
        <Placemark id="1701">
            <name>Заброшенный гараж (ru)</name>
            <description/>
            <Point id="1700">
                <coordinates>131.9854665,43.498455,0.0</coordinates>
            </Point>
        </Placemark>
        <Placemark id="1703">
            <name>Заброшенный гараж (ru)</name>
            <description/>
            <Point id="1702">
                <coordinates>131.9838531,43.498455,0.0</coordinates>
            </Point>
        </Placemark>
        <Placemark id="1705">
            <name>Заброшенная котельная (ru)</name>
            <description/>
            <Point id="1704">
                <coordinates>132.1374529,43.3538029,0.0</coordinates>
            </Point>
        </Placemark>
        <Placemark id="1707">
            <name>Заброшенный недострой (ru)</name>
            <description/>
            <Point id="1706">
                <coordinates>132.1616943,43.3366507,0.0</coordinates>
            </Point>
        </Placemark>
        <Placemark id="1709">
            <name>Безымянная постройка (ru)</name>
            <description/>
            <Point id="1708">
                <coordinates>131.9062251,43.3345191,0.0</coordinates>
            </Point>
        </Placemark>
        <Placemark id="1711">
            <name>Заброшенный кормоцех № 1 (ru)</name>
            <description/>
            <Point id="1710">
                <coordinates>132.0628001,43.3774233,0.0</coordinates>
            </Point>
        </Placemark>
        <Placemark id="1713">
            <name>Цех (ru)</name>
            <description/>
            <Point id="1712">
                <coordinates>132.1302253,43.3423167,0.0</coordinates>
            </Point>
        </Placemark>
        <Placemark id="1715">
            <name>заброшенная вышка (ru)</name>
            <description/>
            <Point id="1714">
                <coordinates>132.1081548,43.3306954,0.0</coordinates>
            </Point>
        </Placemark>
        <Placemark id="1717">
            <name>Заброшенный пороховой погреб батареи «Показательная» (ru)</name>
            <description/>
            <Point id="1716">
                <coordinates>132.1183097,43.3129871,0.0</coordinates>
            </Point>
        </Placemark>
        <Placemark id="1719">
            <name>ул. Чайковского (ru), 30</name>
            <description/>
            <Point id="1718">
                <coordinates>132.1733177,43.362812,0.0</coordinates>
            </Point>
        </Placemark>
        <Placemark id="1721">
            <name>Заброшенный кормоцех № 2 (ru)</name>
            <description/>
            <Point id="1720">
                <coordinates>132.0580612,43.376208,0.0</coordinates>
            </Point>
        </Placemark>
        <Placemark id="1723">
            <name>Заброшенное здание (ru)</name>
            <description/>
            <Point id="1722">
                <coordinates>132.0343793,43.3521644,0.0</coordinates>
            </Point>
        </Placemark>
        <Placemark id="1725">
            <name>Заброшенный водозабор Тигровая падь (ru)</name>
            <description/>
            <Point id="1724">
                <coordinates>132.0021348,43.3931671,0.0</coordinates>
            </Point>
        </Placemark>
        <Placemark id="1727">
            <name>Заброшенный железнодорожный мост (ru)</name>
            <description/>
            <Point id="1726">
                <coordinates>132.0488458,43.3341253,0.0</coordinates>
            </Point>
        </Placemark>
        <Placemark id="1729">
            <name>Заброшенный жилой дом (ru)</name>
            <description/>
            <Point id="1728">
                <coordinates>131.8624671,43.316295,0.0</coordinates>
            </Point>
        </Placemark>
        <Placemark id="1731">
            <name>Antonov An-2</name>
            <description/>
            <Point id="1730">
                <coordinates>132.1549169,43.3930902,0.0</coordinates>
            </Point>
        </Placemark>
        <Placemark id="1733">
            <name>Заброшенный железнодорожный мост (ru)</name>
            <description/>
            <Point id="1732">
                <coordinates>132.0488404,43.3338835,0.0</coordinates>
            </Point>
        </Placemark>
        <Placemark id="1735">
            <name>Заброшенный железнодорожный мост (ru)</name>
            <description/>
            <Point id="1734">
                <coordinates>132.0644226,43.3293662,0.0</coordinates>
            </Point>
        </Placemark>
        <Placemark id="1737">
            <name>КПП (ru)</name>
            <description/>
            <Point id="1736">
                <coordinates>132.1318039,43.3441816,0.0</coordinates>
            </Point>
        </Placemark>
        <Placemark id="1739">
            <name>Бывший продуктовый магазин (ru)</name>
            <description/>
            <Point id="1738">
                <coordinates>132.1509025,43.3533771,0.0</coordinates>
            </Point>
        </Placemark>
        <Placemark id="1741">
            <name>Сборное укрытие (ru)</name>
            <description/>
            <Point id="1740">
                <coordinates>131.9315213,43.4643892,0.0</coordinates>
            </Point>
        </Placemark>
        <Placemark id="1743">
            <name>Бывший железнодорожный мост (ru)</name>
            <description/>
            <Point id="1742">
                <coordinates>131.7838333,43.4537015,0.0</coordinates>
            </Point>
        </Placemark>
        <Placemark id="1745">
            <name>Сборное укрытие (ru)</name>
            <description/>
            <Point id="1744">
                <coordinates>132.0990862,43.3116434,0.0</coordinates>
            </Point>
        </Placemark>
        <Placemark id="1747">
            <name>Небольшая подземка (ru)</name>
            <description/>
            <Point id="1746">
                <coordinates>132.15806,43.4059818,0.0</coordinates>
            </Point>
        </Placemark>
        <Placemark id="1749">
            <name>Заброшенный дачный деревянный дом (ru)</name>
            <description/>
            <Point id="1748">
                <coordinates>131.9521287,43.3997429,0.0</coordinates>
            </Point>
        </Placemark>
        <Placemark id="1751">
            <name>Заброшенный дачный домик (ru)</name>
            <description/>
            <Point id="1750">
                <coordinates>132.015374,43.3894576,0.0</coordinates>
            </Point>
        </Placemark>
        <Placemark id="1753">
            <name>Заброшенный дом (ru)</name>
            <description/>
            <Point id="1752">
                <coordinates>132.0072038,43.4774792,0.0</coordinates>
            </Point>
        </Placemark>
        <Placemark id="1755">
            <name>Заброшенная водонапорная башня (ru)</name>
            <description/>
            <Point id="1754">
                <coordinates>131.9027703,43.5032157,0.0</coordinates>
            </Point>
        </Placemark>
        <Placemark id="1757">
            <name>Дот № 227 (ru)</name>
            <description/>
            <Point id="1756">
                <coordinates>132.0788905,43.3653133,0.0</coordinates>
            </Point>
        </Placemark>
        <Placemark id="1759">
            <name>Заброшенный вход в убежище (ru)</name>
            <description/>
            <Point id="1758">
                <coordinates>132.0840102,43.3304256,0.0</coordinates>
            </Point>
        </Placemark>
        <Placemark id="1761">
            <name>Руины (ru)</name>
            <description/>
            <Point id="1760">
                <coordinates>131.9933992,43.4900224,0.0</coordinates>
            </Point>
        </Placemark>
        <Placemark id="1763">
            <name>Вход в бункер (ru)</name>
            <description/>
            <Point id="1762">
                <coordinates>132.1450815,43.347633,0.0</coordinates>
            </Point>
        </Placemark>
        <Placemark id="1765">
            <name>Уазик-баня (ru)</name>
            <description/>
            <Point id="1764">
                <coordinates>131.9858582,43.4924242,0.0</coordinates>
            </Point>
        </Placemark>
    </Document>
</kml>
