<?xml version="1.0" encoding="UTF-8"?>
<kml xmlns="http://www.opengis.net/kml/2.2" xmlns:gx="http://www.google.com/kml/ext/2.2">
    <Document id="415">
        <Placemark id="417">
            <name>Территория бывшей технической базы военного городка № 162 (ru)</name>
            <description/>
            <Point id="416">
                <coordinates>82.998442,55.2260756,0.0</coordinates>
            </Point>
        </Placemark>
        <Placemark id="419">
            <name>S-200 (SA-5) SAM Site</name>
            <description/>
            <Point id="418">
                <coordinates>83.1378578,55.2382358,0.0</coordinates>
            </Point>
        </Placemark>
        <Placemark id="421">
            <name>Территория расформированной части ПВО (ru)</name>
            <description/>
            <Point id="420">
                <coordinates>83.1336951,55.2407443,0.0</coordinates>
            </Point>
        </Placemark>
        <Placemark id="423">
            <name>Центр управления тыловыми объектами (ru)</name>
            <description/>
            <Point id="422">
                <coordinates>83.2369332,55.0036147,0.0</coordinates>
            </Point>
        </Placemark>
        <Placemark id="425">
            <name>Несостоявшийся коттеджный посёлок (ru)</name>
            <description/>
            <Point id="424">
                <coordinates>83.3412014,55.2044489,0.0</coordinates>
            </Point>
        </Placemark>
        <Placemark id="427">
            <name>Заброшенный пионерлагерь «Восток-2» (ru)</name>
            <description/>
            <Point id="426">
                <coordinates>83.3371192,55.0115748,0.0</coordinates>
            </Point>
        </Placemark>
        <Placemark id="429">
            <name>Заброшенные дачные участки (ru)</name>
            <description/>
            <Point id="428">
                <coordinates>83.0345016,54.9919634,0.0</coordinates>
            </Point>
        </Placemark>
        <Placemark id="431">
            <name>Старая ВПП (ru)</name>
            <description/>
            <Point id="430">
                <coordinates>82.9973047,55.084013,0.0</coordinates>
            </Point>
        </Placemark>
        <Placemark id="433">
            <name>Бывшая База утилизации ракет морского базирования (БУР) (ru)</name>
            <description/>
            <Point id="432">
                <coordinates>83.0120622,55.2212392,0.0</coordinates>
            </Point>
        </Placemark>
        <Placemark id="435">
            <name>Заброшенное сельхозпредприятие (ru)</name>
            <description/>
            <Point id="434">
                <coordinates>83.1017982,55.0899064,0.0</coordinates>
            </Point>
        </Placemark>
        <Placemark id="437">
            <name>Территория бывшего 48 УК (ru)</name>
            <description/>
            <Point id="436">
                <coordinates>82.989714,55.1949398,0.0</coordinates>
            </Point>
        </Placemark>
        <Placemark id="439">
            <name>Территория недостроенной Межреспубликанской психиатрической больницы УВД НСО (ru)</name>
            <description/>
            <Point id="438">
                <coordinates>83.0799865,55.0342202,0.0</coordinates>
            </Point>
        </Placemark>
        <Placemark id="441">
            <name>Позиция ракетного дивизиона ЗРК С-200 (ru)</name>
            <description/>
            <Point id="440">
                <coordinates>83.1371713,55.2386923,0.0</coordinates>
            </Point>
        </Placemark>
        <Placemark id="443">
            <name>Позиция ракетного дивизиона ЗРК С-200 (ru)</name>
            <description/>
            <Point id="442">
                <coordinates>83.1343254,55.2359533,0.0</coordinates>
            </Point>
        </Placemark>
        <Placemark id="445">
            <name>Бывший караул охраны артиллерийских складов и склад оружия (ru)</name>
            <description/>
            <Point id="444">
                <coordinates>83.1578243,55.0570311,0.0</coordinates>
            </Point>
        </Placemark>
        <Placemark id="447">
            <name>Позиция ракетного дивизиона ЗРК С-200 (ru)</name>
            <description/>
            <Point id="446">
                <coordinates>83.1426054,55.2393254,0.0</coordinates>
            </Point>
        </Placemark>
        <Placemark id="449">
            <name>Заброшенный санаторий (ru)</name>
            <description/>
            <Point id="448">
                <coordinates>83.2155427,54.9805751,0.0</coordinates>
            </Point>
        </Placemark>
        <Placemark id="451">
            <name>Заброшенный лагерь (ru)</name>
            <description/>
            <Point id="450">
                <coordinates>83.3444523,55.0091724,0.0</coordinates>
            </Point>
        </Placemark>
        <Placemark id="453">
            <name>Заброшенное поле (ru)</name>
            <description/>
            <Point id="452">
                <coordinates>83.0377632,55.1811801,0.0</coordinates>
            </Point>
        </Placemark>
        <Placemark id="455">
            <name>Железнодорожная станция Пашино (ru)</name>
            <description/>
            <Point id="454">
                <coordinates>82.9824185,55.1703861,0.0</coordinates>
            </Point>
        </Placemark>
        <Placemark id="457">
            <name>Заброшенный мукомольный завод (ru)</name>
            <description/>
            <Point id="456">
                <coordinates>83.3342813,54.9846414,0.0</coordinates>
            </Point>
        </Placemark>
        <Placemark id="459">
            <name>Заброшенный парк аттракционов (ru)</name>
            <description/>
            <Point id="458">
                <coordinates>83.3340051,55.012896,0.0</coordinates>
            </Point>
        </Placemark>
        <Placemark id="461">
            <name>Блиндажи (ru)</name>
            <description/>
            <Point id="460">
                <coordinates>83.3007109,54.9812955,0.0</coordinates>
            </Point>
        </Placemark>
        <Placemark id="463">
            <name>Заброшенная ферма Жеребцово (ru)</name>
            <description/>
            <Point id="462">
                <coordinates>83.3003675,55.1080283,0.0</coordinates>
            </Point>
        </Placemark>
        <Placemark id="465">
            <name>Заброшенное кладбище (ru)</name>
            <description/>
            <Point id="464">
                <coordinates>83.1852685,55.0969913,0.0</coordinates>
            </Point>
        </Placemark>
        <Placemark id="467">
            <name>Недостроенная автостоянка (ru)</name>
            <description/>
            <Point id="466">
                <coordinates>83.0355658,54.9911319,0.0</coordinates>
            </Point>
        </Placemark>
        <Placemark id="469">
            <name>Заброшенная АЗС (ru)</name>
            <description/>
            <Point id="468">
                <coordinates>83.27652,54.9814924,0.0</coordinates>
            </Point>
        </Placemark>
        <Placemark id="471">
            <name>Помойка (ru)</name>
            <description/>
            <Point id="470">
                <coordinates>83.0463355,54.9950256,0.0</coordinates>
            </Point>
        </Placemark>
        <Placemark id="473">
            <name>Подземное сооружение (ru)</name>
            <description/>
            <Point id="472">
                <coordinates>83.134025,55.2439527,0.0</coordinates>
            </Point>
        </Placemark>
        <Placemark id="475">
            <name>Заброшенные автомобильные боксы (ru)</name>
            <description/>
            <Point id="474">
                <coordinates>83.0039512,55.1929848,0.0</coordinates>
            </Point>
        </Placemark>
        <Placemark id="477">
            <name>Заброшенные жилища (ru)</name>
            <description/>
            <Point id="476">
                <coordinates>83.0802493,55.1377049,0.0</coordinates>
            </Point>
        </Placemark>
        <Placemark id="479">
            <name>Арочные укрытия (ru)</name>
            <description/>
            <Point id="478">
                <coordinates>82.9910042,55.2253975,0.0</coordinates>
            </Point>
        </Placemark>
        <Placemark id="481">
            <name>Развалины (ru)</name>
            <description/>
            <Point id="480">
                <coordinates>83.1373858,54.9982889,0.0</coordinates>
            </Point>
        </Placemark>
        <Placemark id="483">
            <name>Арочные укрытия (ru)</name>
            <description/>
            <Point id="482">
                <coordinates>82.9883354,55.2247626,0.0</coordinates>
            </Point>
        </Placemark>
        <Placemark id="485">
            <name>Заброшенные здания (ru)</name>
            <description/>
            <Point id="484">
                <coordinates>83.0242582,54.9857557,0.0</coordinates>
            </Point>
        </Placemark>
        <Placemark id="487">
            <name>Хранилище для ракет (ru)</name>
            <description/>
            <Point id="486">
                <coordinates>83.1315198,55.2427157,0.0</coordinates>
            </Point>
        </Placemark>
        <Placemark id="489">
            <name>Группа сооружений (ru)</name>
            <description/>
            <Point id="488">
                <coordinates>83.0718192,54.9946394,0.0</coordinates>
            </Point>
        </Placemark>
        <Placemark id="491">
            <name>Заброшенное овощехранилище (ru)</name>
            <description/>
            <Point id="490">
                <coordinates>83.1184038,55.049515,0.0</coordinates>
            </Point>
        </Placemark>
        <Placemark id="493">
            <name>Заправка (ru)</name>
            <description/>
            <Point id="492">
                <coordinates>83.1357551,55.2406544,0.0</coordinates>
            </Point>
        </Placemark>
        <Placemark id="495">
            <name>Заброшенное здание хлебокомбината (ru)</name>
            <description/>
            <Point id="494">
                <coordinates>83.3328348,54.9845706,0.0</coordinates>
            </Point>
        </Placemark>
        <Placemark id="497">
            <name>Заброшенная АЗС (ru)</name>
            <description/>
            <Point id="496">
                <coordinates>83.0545927,55.0059692,0.0</coordinates>
            </Point>
        </Placemark>
        <Placemark id="499">
            <name>Столовая со спорт залом и актовым залом (ru)</name>
            <description/>
            <Point id="498">
                <coordinates>83.2166473,54.9812589,0.0</coordinates>
            </Point>
        </Placemark>
        <Placemark id="501">
            <name>Заброшенные погреба (ru)</name>
            <description/>
            <Point id="500">
                <coordinates>83.0092048,54.9947453,0.0</coordinates>
            </Point>
        </Placemark>
        <Placemark id="503">
            <name>Укрытие (ru)</name>
            <description/>
            <Point id="502">
                <coordinates>83.1436393,55.2334366,0.0</coordinates>
            </Point>
        </Placemark>
        <Placemark id="505">
            <name>Заброшенный бассейн «Дельфин» (ru)</name>
            <description/>
            <Point id="504">
                <coordinates>82.9918929,55.1712596,0.0</coordinates>
            </Point>
        </Placemark>
        <Placemark id="507">
            <name>Недостроенный корпус психбольницы (ru)</name>
            <description/>
            <Point id="506">
                <coordinates>83.0598011,55.0685892,0.0</coordinates>
            </Point>
        </Placemark>
        <Placemark id="509">
            <name>Бункер (ru)</name>
            <description/>
            <Point id="508">
                <coordinates>83.1381798,55.0529137,0.0</coordinates>
            </Point>
        </Placemark>
        <Placemark id="511">
            <name>Заброшенная танцплощадка (ru)</name>
            <description/>
            <Point id="510">
                <coordinates>82.9916345,55.0611657,0.0</coordinates>
            </Point>
        </Placemark>
        <Placemark id="513">
            <name>Развалины (ru)</name>
            <description/>
            <Point id="512">
                <coordinates>83.149791,55.0515663,0.0</coordinates>
            </Point>
        </Placemark>
        <Placemark id="515">
            <name>Стартовая позиция (ru)</name>
            <description/>
            <Point id="514">
                <coordinates>83.1415431,55.2402166,0.0</coordinates>
            </Point>
        </Placemark>
        <Placemark id="517">
            <name>Заброшенная спортивная коробка (ru)</name>
            <description/>
            <Point id="516">
                <coordinates>83.3266693,55.0145919,0.0</coordinates>
            </Point>
        </Placemark>
        <Placemark id="519">
            <name>Заброшенные строения (ru)</name>
            <description/>
            <Point id="518">
                <coordinates>83.0216028,55.1231893,0.0</coordinates>
            </Point>
        </Placemark>
        <Placemark id="521">
            <name>Стартовая позиция (ru)</name>
            <description/>
            <Point id="520">
                <coordinates>83.1439885,55.2401793,0.0</coordinates>
            </Point>
        </Placemark>
        <Placemark id="523">
            <name>Заброшенный бетонный завод (ru)</name>
            <description/>
            <Point id="522">
                <coordinates>83.0782511,55.032742,0.0</coordinates>
            </Point>
        </Placemark>
        <Placemark id="525">
            <name>Заброшенное здание (ru)</name>
            <description/>
            <Point id="524">
                <coordinates>83.1054997,55.1209776,0.0</coordinates>
            </Point>
        </Placemark>
        <Placemark id="527">
            <name>Заброшенный загон для скота (ru)</name>
            <description/>
            <Point id="526">
                <coordinates>83.1076187,55.1155737,0.0</coordinates>
            </Point>
        </Placemark>
        <Placemark id="529">
            <name>Стартовая позиция (ru)</name>
            <description/>
            <Point id="528">
                <coordinates>83.1372168,55.2399974,0.0</coordinates>
            </Point>
        </Placemark>
        <Placemark id="531">
            <name>Недостроенное здание (ru)</name>
            <description/>
            <Point id="530">
                <coordinates>83.0881691,54.9963885,0.0</coordinates>
            </Point>
        </Placemark>
        <Placemark id="533">
            <name>Бункер (ru)</name>
            <description/>
            <Point id="532">
                <coordinates>83.1345778,55.2358581,0.0</coordinates>
            </Point>
        </Placemark>
        <Placemark id="535">
            <name>Стартовая позиция (ru)</name>
            <description/>
            <Point id="534">
                <coordinates>83.132295,55.2355715,0.0</coordinates>
            </Point>
        </Placemark>
        <Placemark id="537">
            <name>Стартовая позиция (ru)</name>
            <description/>
            <Point id="536">
                <coordinates>83.1349291,55.2348593,0.0</coordinates>
            </Point>
        </Placemark>
        <Placemark id="539">
            <name>Стартовая позиция (ru)</name>
            <description/>
            <Point id="538">
                <coordinates>83.1351035,55.2369805,0.0</coordinates>
            </Point>
        </Placemark>
        <Placemark id="541">
            <name>Стартовая позиция (ru)</name>
            <description/>
            <Point id="540">
                <coordinates>83.1334706,55.2371169,0.0</coordinates>
            </Point>
        </Placemark>
        <Placemark id="543">
            <name>Стартовая позиция (ru)</name>
            <description/>
            <Point id="542">
                <coordinates>83.1392606,55.2380638,0.0</coordinates>
            </Point>
        </Placemark>
        <Placemark id="545">
            <name>Бункер (ru)</name>
            <description/>
            <Point id="544">
                <coordinates>83.1372136,55.2386647,0.0</coordinates>
            </Point>
        </Placemark>
        <Placemark id="547">
            <name>Стартовая позиция (ru)</name>
            <description/>
            <Point id="546">
                <coordinates>83.1443957,55.23925,0.0</coordinates>
            </Point>
        </Placemark>
        <Placemark id="549">
            <name>Стартовая позиция (ru)</name>
            <description/>
            <Point id="548">
                <coordinates>83.1336199,55.2349306,0.0</coordinates>
            </Point>
        </Placemark>
        <Placemark id="551">
            <name>Стартовая позиция (ru)</name>
            <description/>
            <Point id="550">
                <coordinates>83.1361788,55.2363668,0.0</coordinates>
            </Point>
        </Placemark>
        <Placemark id="553">
            <name>Стартовая позиция (ru)</name>
            <description/>
            <Point id="552">
                <coordinates>83.137136,55.2374582,0.0</coordinates>
            </Point>
        </Placemark>
        <Placemark id="555">
            <name>Стартовая позиция (ru)</name>
            <description/>
            <Point id="554">
                <coordinates>83.135631,55.2381729,0.0</coordinates>
            </Point>
        </Placemark>
        <Placemark id="557">
            <name>Стартовая позиция (ru)</name>
            <description/>
            <Point id="556">
                <coordinates>83.1350576,55.2390165,0.0</coordinates>
            </Point>
        </Placemark>
        <Placemark id="559">
            <name>Стартовая позиция (ru)</name>
            <description/>
            <Point id="558">
                <coordinates>83.1388926,55.2392659,0.0</coordinates>
            </Point>
        </Placemark>
        <Placemark id="561">
            <name>Стартовая позиция (ru)</name>
            <description/>
            <Point id="560">
                <coordinates>83.1441875,55.2384581,0.0</coordinates>
            </Point>
        </Placemark>
        <Placemark id="563">
            <name>Бункер (ru)</name>
            <description/>
            <Point id="562">
                <coordinates>83.142746,55.2391271,0.0</coordinates>
            </Point>
        </Placemark>
        <Placemark id="565">
            <name>Заброшенное здание (ru)</name>
            <description/>
            <Point id="564">
                <coordinates>83.0912436,54.9924249,0.0</coordinates>
            </Point>
        </Placemark>
        <Placemark id="567">
            <name>Стартовая позиция (ru)</name>
            <description/>
            <Point id="566">
                <coordinates>83.1409324,55.2393658,0.0</coordinates>
            </Point>
        </Placemark>
        <Placemark id="569">
            <name>Развалины строения (ru)</name>
            <description/>
            <Point id="568">
                <coordinates>83.2058304,54.9802319,0.0</coordinates>
            </Point>
        </Placemark>
        <Placemark id="571">
            <name>Корпус 2 заброшенного санатория (ru)</name>
            <description/>
            <Point id="570">
                <coordinates>83.2145142,54.9802558,0.0</coordinates>
            </Point>
        </Placemark>
        <Placemark id="573">
            <name>Заброшенная погрузочная платформа (ru)</name>
            <description/>
            <Point id="572">
                <coordinates>82.978843,54.9968098,0.0</coordinates>
            </Point>
        </Placemark>
        <Placemark id="575">
            <name>Заброшенная весовая (ru)</name>
            <description/>
            <Point id="574">
                <coordinates>83.2834529,54.9902353,0.0</coordinates>
            </Point>
        </Placemark>
        <Placemark id="577">
            <name>Заброшенный фундамент (ru)</name>
            <description/>
            <Point id="576">
                <coordinates>83.0514444,55.0936911,0.0</coordinates>
            </Point>
        </Placemark>
        <Placemark id="579">
            <name>Заброшенное сооружение (ru)</name>
            <description/>
            <Point id="578">
                <coordinates>83.0281305,55.0250868,0.0</coordinates>
            </Point>
        </Placemark>
        <Placemark id="581">
            <name>Заброшенное административное здание (ru)</name>
            <description/>
            <Point id="580">
                <coordinates>83.2830512,54.9859542,0.0</coordinates>
            </Point>
        </Placemark>
        <Placemark id="583">
            <name>Стартовая позиция (ru)</name>
            <description/>
            <Point id="582">
                <coordinates>83.141114,55.2385153,0.0</coordinates>
            </Point>
        </Placemark>
        <Placemark id="585">
            <name>Заброшенная котельная (ru)</name>
            <description/>
            <Point id="584">
                <coordinates>83.3434382,54.9931415,0.0</coordinates>
            </Point>
        </Placemark>
        <Placemark id="587">
            <name>Сливо-наливная эстакада (ru)</name>
            <description/>
            <Point id="586">
                <coordinates>82.9738059,55.1313876,0.0</coordinates>
            </Point>
        </Placemark>
        <Placemark id="589">
            <name>Заброшенный морг (ru)</name>
            <description/>
            <Point id="588">
                <coordinates>83.2998411,55.202605,0.0</coordinates>
            </Point>
        </Placemark>
        <Placemark id="591">
            <name>Укрытие (ru)</name>
            <description/>
            <Point id="590">
                <coordinates>83.1449362,55.2321533,0.0</coordinates>
            </Point>
        </Placemark>
        <Placemark id="593">
            <name>Недостроенный культурный центр (ru)</name>
            <description/>
            <Point id="592">
                <coordinates>83.0108004,55.0010557,0.0</coordinates>
            </Point>
        </Placemark>
        <Placemark id="595">
            <name>КПП (ru)</name>
            <description/>
            <Point id="594">
                <coordinates>83.1305556,55.236429,0.0</coordinates>
            </Point>
        </Placemark>
        <Placemark id="597">
            <name>Расселённый дом (ru)</name>
            <description/>
            <Point id="596">
                <coordinates>82.983499,55.0035702,0.0</coordinates>
            </Point>
        </Placemark>
        <Placemark id="599">
            <name>Заброшенный участок (ru)</name>
            <description/>
            <Point id="598">
                <coordinates>83.1827889,54.9835456,0.0</coordinates>
            </Point>
        </Placemark>
        <Placemark id="601">
            <name>Заброшенные вагоны (ru)</name>
            <description/>
            <Point id="600">
                <coordinates>82.9815239,54.9942135,0.0</coordinates>
            </Point>
        </Placemark>
        <Placemark id="603">
            <name>Бывшая баня (ru)</name>
            <description/>
            <Point id="602">
                <coordinates>82.9961487,55.1704169,0.0</coordinates>
            </Point>
        </Placemark>
        <Placemark id="605">
            <name>Заброшенное здание (ru)</name>
            <description/>
            <Point id="604">
                <coordinates>83.2902757,54.9782689,0.0</coordinates>
            </Point>
        </Placemark>
        <Placemark id="607">
            <name>Заброшенные погреба (ru)</name>
            <description/>
            <Point id="606">
                <coordinates>83.0219663,55.0070428,0.0</coordinates>
            </Point>
        </Placemark>
        <Placemark id="609">
            <name>Недействующий пост ДПС (ru)</name>
            <description/>
            <Point id="608">
                <coordinates>82.9758854,55.1334055,0.0</coordinates>
            </Point>
        </Placemark>
        <Placemark id="611">
            <name>Заброшенное здание (ru)</name>
            <description/>
            <Point id="610">
                <coordinates>83.2831676,54.9900493,0.0</coordinates>
            </Point>
        </Placemark>
        <Placemark id="613">
            <name>Укрытие (ru)</name>
            <description/>
            <Point id="612">
                <coordinates>83.1463282,55.2334243,0.0</coordinates>
            </Point>
        </Placemark>
        <Placemark id="615">
            <name>Котельная (ru)</name>
            <description/>
            <Point id="614">
                <coordinates>83.2176884,54.9809807,0.0</coordinates>
            </Point>
        </Placemark>
        <Placemark id="617">
            <name>Старый вокзал (ru)</name>
            <description/>
            <Point id="616">
                <coordinates>83.2656705,55.1044712,0.0</coordinates>
            </Point>
        </Placemark>
        <Placemark id="619">
            <name>Заброшенное одноэтажное здание (ru)</name>
            <description/>
            <Point id="618">
                <coordinates>82.9722501,55.0414626,0.0</coordinates>
            </Point>
        </Placemark>
        <Placemark id="621">
            <name>Недостроенный коттедж (ru)</name>
            <description/>
            <Point id="620">
                <coordinates>82.9901405,55.1690305,0.0</coordinates>
            </Point>
        </Placemark>
        <Placemark id="623">
            <name>Разобранный макет контактной сети (ru)</name>
            <description/>
            <Point id="622">
                <coordinates>83.0304957,55.0077701,0.0</coordinates>
            </Point>
        </Placemark>
        <Placemark id="625">
            <name>Укрытие (ru)</name>
            <description/>
            <Point id="624">
                <coordinates>83.1467614,55.2334251,0.0</coordinates>
            </Point>
        </Placemark>
        <Placemark id="627">
            <name>Один из не использующихся танкеров. (ru)</name>
            <description/>
            <Point id="626">
                <coordinates>82.9878788,55.1736749,0.0</coordinates>
            </Point>
        </Placemark>
        <Placemark id="629">
            <name>Заброшенная администрация овощеводства (ru)</name>
            <description/>
            <Point id="628">
                <coordinates>83.2844727,54.9906453,0.0</coordinates>
            </Point>
        </Placemark>
        <Placemark id="631">
            <name>Недостроенный дачный дом (ru)</name>
            <description/>
            <Point id="630">
                <coordinates>83.18334,54.9854956,0.0</coordinates>
            </Point>
        </Placemark>
        <Placemark id="633">
            <name>Заброшенный жилой дом (ru)</name>
            <description/>
            <Point id="632">
                <coordinates>83.0085671,54.9998507,0.0</coordinates>
            </Point>
        </Placemark>
        <Placemark id="635">
            <name>Остатки трамвайной линии (ru)</name>
            <description/>
            <Point id="634">
                <coordinates>82.9829186,55.0337553,0.0</coordinates>
            </Point>
        </Placemark>
        <Placemark id="637">
            <name>Недостроенное здание (ru)</name>
            <description/>
            <Point id="636">
                <coordinates>83.3418733,55.2040536,0.0</coordinates>
            </Point>
        </Placemark>
        <Placemark id="639">
            <name>Заброшенный КПП (ru)</name>
            <description/>
            <Point id="638">
                <coordinates>82.9807418,54.9959802,0.0</coordinates>
            </Point>
        </Placemark>
        <Placemark id="641">
            <name>Заброшенный частный дом (ru)</name>
            <description/>
            <Point id="640">
                <coordinates>83.3495961,55.0024283,0.0</coordinates>
            </Point>
        </Placemark>
        <Placemark id="643">
            <name>КПП 1 (ru)</name>
            <description/>
            <Point id="642">
                <coordinates>83.0084878,55.219352,0.0</coordinates>
            </Point>
        </Placemark>
        <Placemark id="645">
            <name>Antonov An-8 Fuselage</name>
            <description/>
            <Point id="644">
                <coordinates>82.9984688,55.0874789,0.0</coordinates>
            </Point>
        </Placemark>
        <Placemark id="647">
            <name>Вскрытое мародёрами бывшeе сооружение РЧВ для котельной. (ru)</name>
            <description/>
            <Point id="646">
                <coordinates>83.0767624,55.0311658,0.0</coordinates>
            </Point>
        </Placemark>
        <Placemark id="649">
            <name>Вскрытое мародёрами бывшeе сооружение РЧВ для котельной. (ru)</name>
            <description/>
            <Point id="648">
                <coordinates>83.0767007,55.0310613,0.0</coordinates>
            </Point>
        </Placemark>
        <Placemark id="651">
            <name>Заброшенное здание (ru)</name>
            <description/>
            <Point id="650">
                <coordinates>83.3494641,54.994877,0.0</coordinates>
            </Point>
        </Placemark>
        <Placemark id="653">
            <name>Заброшенный КПП (ru)</name>
            <description/>
            <Point id="652">
                <coordinates>83.2839102,54.9905917,0.0</coordinates>
            </Point>
        </Placemark>
        <Placemark id="655">
            <name>Заброшенная насосная станция (ru)</name>
            <description/>
            <Point id="654">
                <coordinates>83.0314827,55.1972439,0.0</coordinates>
            </Point>
        </Placemark>
        <Placemark id="657">
            <name>Железнодорожный переезд (ru)</name>
            <description/>
            <Point id="656">
                <coordinates>83.0050845,55.119013,0.0</coordinates>
            </Point>
        </Placemark>
        <Placemark id="659">
            <name>Заброшенные погреба (ru)</name>
            <description/>
            <Point id="658">
                <coordinates>83.0225219,55.0071994,0.0</coordinates>
            </Point>
        </Placemark>
        <Placemark id="661">
            <name>Заброшенный КПП (ru)</name>
            <description/>
            <Point id="660">
                <coordinates>83.2390736,55.0060945,0.0</coordinates>
            </Point>
        </Placemark>
        <Placemark id="663">
            <name>Заброшенное кирпичное здание (ru)</name>
            <description/>
            <Point id="662">
                <coordinates>83.2907549,54.9960164,0.0</coordinates>
            </Point>
        </Placemark>
        <Placemark id="665">
            <name>КПП (ru)</name>
            <description/>
            <Point id="664">
                <coordinates>82.9881101,55.1741147,0.0</coordinates>
            </Point>
        </Placemark>
        <Placemark id="667">
            <name>Бывший регулируемый железнодорожный переезд (ru)</name>
            <description/>
            <Point id="666">
                <coordinates>82.9702841,55.0651064,0.0</coordinates>
            </Point>
        </Placemark>
        <Placemark id="669">
            <name>Заброшенная насосная станция (ru)</name>
            <description/>
            <Point id="668">
                <coordinates>83.0418963,55.1785482,0.0</coordinates>
            </Point>
        </Placemark>
        <Placemark id="671">
            <name>Сгоревший частный дом (ru)</name>
            <description/>
            <Point id="670">
                <coordinates>83.2789205,54.9878945,0.0</coordinates>
            </Point>
        </Placemark>
        <Placemark id="673">
            <name>Вскрытое мародёрами бывшeе сооружение РЧВ для котельной. (ru)</name>
            <description/>
            <Point id="672">
                <coordinates>83.0770079,55.0306217,0.0</coordinates>
            </Point>
        </Placemark>
        <Placemark id="675">
            <name>Заброшенный гараж (ru)</name>
            <description/>
            <Point id="674">
                <coordinates>83.0129055,54.9997398,0.0</coordinates>
            </Point>
        </Placemark>
        <Placemark id="677">
            <name>Пост ГАИ (Недействующий) (ru)</name>
            <description/>
            <Point id="676">
                <coordinates>83.016854,55.123598,0.0</coordinates>
            </Point>
        </Placemark>
        <Placemark id="679">
            <name>Землянка (ru)</name>
            <description/>
            <Point id="678">
                <coordinates>83.1453036,55.2313832,0.0</coordinates>
            </Point>
        </Placemark>
        <Placemark id="681">
            <name>Заброшенный гараж (ru)</name>
            <description/>
            <Point id="680">
                <coordinates>83.0159543,54.9987741,0.0</coordinates>
            </Point>
        </Placemark>
        <Placemark id="683">
            <name>Железнодорожный кран КЖДЭ25-181 (ru)</name>
            <description/>
            <Point id="682">
                <coordinates>82.9835608,55.1744175,0.0</coordinates>
            </Point>
        </Placemark>
        <Placemark id="685">
            <name>КПП технической базы (ru)</name>
            <description/>
            <Point id="684">
                <coordinates>82.991106,55.2165715,0.0</coordinates>
            </Point>
        </Placemark>
        <Placemark id="687">
            <name>Заброшенная водонапорная башня (ru)</name>
            <description/>
            <Point id="686">
                <coordinates>83.2886596,54.9841873,0.0</coordinates>
            </Point>
        </Placemark>
        <Placemark id="689">
            <name>Недострой (ru)</name>
            <description/>
            <Point id="688">
                <coordinates>83.0459734,55.0309352,0.0</coordinates>
            </Point>
        </Placemark>
        <Placemark id="691">
            <name>Заброшенная сцена (ru)</name>
            <description/>
            <Point id="690">
                <coordinates>82.9776697,55.0738376,0.0</coordinates>
            </Point>
        </Placemark>
        <Placemark id="693">
            <name>Заброшенный домик сторожа (ru)</name>
            <description/>
            <Point id="692">
                <coordinates>83.2146789,54.9795976,0.0</coordinates>
            </Point>
        </Placemark>
        <Placemark id="695">
            <name>Водонапорная башня (ru)</name>
            <description/>
            <Point id="694">
                <coordinates>83.1096973,55.0874175,0.0</coordinates>
            </Point>
        </Placemark>
        <Placemark id="697">
            <name>Заброшенная трансформаторная подстанция (ru)</name>
            <description/>
            <Point id="696">
                <coordinates>83.3505175,55.0021303,0.0</coordinates>
            </Point>
        </Placemark>
        <Placemark id="699">
            <name>Тепловоз ТГМ23В48-2233 (ru)</name>
            <description/>
            <Point id="698">
                <coordinates>82.9836438,55.1744941,0.0</coordinates>
            </Point>
        </Placemark>
        <Placemark id="701">
            <name>Заброшенный ларёк «Овощи фрукты» (ru)</name>
            <description/>
            <Point id="700">
                <coordinates>83.0141384,55.0204813,0.0</coordinates>
            </Point>
        </Placemark>
        <Placemark id="703">
            <name>Заброшенный туалет (ru)</name>
            <description/>
            <Point id="702">
                <coordinates>83.2142892,54.9795589,0.0</coordinates>
            </Point>
        </Placemark>
        <Placemark id="705">
            <name>Недействующий КПП (ru)</name>
            <description/>
            <Point id="704">
                <coordinates>83.0092955,55.0005894,0.0</coordinates>
            </Point>
        </Placemark>
        <Placemark id="707">
            <name>Заброшенная электрощитовая (ru)</name>
            <description/>
            <Point id="706">
                <coordinates>83.3434235,55.0019435,0.0</coordinates>
            </Point>
        </Placemark>
        <Placemark id="709">
            <name>Погреб (ru)</name>
            <description/>
            <Point id="708">
                <coordinates>83.0101873,54.9950456,0.0</coordinates>
            </Point>
        </Placemark>
        <Placemark id="711">
            <name>Опора ЛЭП (ru)</name>
            <description/>
            <Point id="710">
                <coordinates>83.0284704,55.0054606,0.0</coordinates>
            </Point>
        </Placemark>
        <Placemark id="713">
            <name>Заброшенное здание (ru)</name>
            <description/>
            <Point id="712">
                <coordinates>83.0538454,55.0030841,0.0</coordinates>
            </Point>
        </Placemark>
        <Placemark id="715">
            <name>Заброшенные релейные шкафы (ru)</name>
            <description/>
            <Point id="714">
                <coordinates>82.9728168,55.155765,0.0</coordinates>
            </Point>
        </Placemark>
        <Placemark id="717">
            <name>Заброшенная вышка освещения (ru)</name>
            <description/>
            <Point id="716">
                <coordinates>83.0167784,54.9985949,0.0</coordinates>
            </Point>
        </Placemark>
    </Document>
</kml>
