<?xml version="1.0" encoding="UTF-8"?>
<kml xmlns="http://www.opengis.net/kml/2.2" xmlns:gx="http://www.google.com/kml/ext/2.2">
    <Document id="49">
        <Placemark id="51">
            <name>Лыткино (нежил.) (ru)</name>
            <description/>
            <Point id="50">
                <coordinates>103.2269328,52.3101348,0.0</coordinates>
            </Point>
        </Placemark>
        <Placemark id="53">
            <name>Митрофановка (нежил.) (ru)</name>
            <description/>
            <Point id="52">
                <coordinates>103.3094215,52.3508537,0.0</coordinates>
            </Point>
        </Placemark>
    </Document>
</kml>
