<?xml version="1.0" encoding="UTF-8"?>
<kml xmlns="http://www.opengis.net/kml/2.2" xmlns:gx="http://www.google.com/kml/ext/2.2">
    <Document id="1155">
        <Placemark id="1157">
            <name>Вентшахта бомбоубежища (ru)</name>
            <description/>
            <Point id="1156">
                <coordinates>58.9893252,53.4217355,0.0</coordinates>
            </Point>
        </Placemark>
        <Placemark id="1159">
            <name>Вентшахта бомбоубежища (ru)</name>
            <description/>
            <Point id="1158">
                <coordinates>58.9948466,53.4198726,0.0</coordinates>
            </Point>
        </Placemark>
        <Placemark id="1161">
            <name>Вентшахта бомбоубежища (ru)</name>
            <description/>
            <Point id="1160">
                <coordinates>58.9950839,53.4193227,0.0</coordinates>
            </Point>
        </Placemark>
    </Document>
</kml>
