<?xml version="1.0" encoding="UTF-8"?>
<kml xmlns="http://www.opengis.net/kml/2.2" xmlns:gx="http://www.google.com/kml/ext/2.2">
    <Document id="495">
        <Placemark id="497">
            <name>Заброшенное поле (ru)</name>
            <description/>
            <Point id="496">
                <coordinates>60.098133,57.8284043,0.0</coordinates>
            </Point>
        </Placemark>
        <Placemark id="499">
            <name>Территория бывшего тепличного хозяйства (ru)</name>
            <description/>
            <Point id="498">
                <coordinates>60.0463986,57.8086167,0.0</coordinates>
            </Point>
        </Placemark>
        <Placemark id="501">
            <name>Заброшенная база отдыха «Дубки» Уралвагонзавода (ru)</name>
            <description/>
            <Point id="500">
                <coordinates>60.0034123,57.848638,0.0</coordinates>
            </Point>
        </Placemark>
        <Placemark id="503">
            <name>Заброшенная база отдыха (ru)</name>
            <description/>
            <Point id="502">
                <coordinates>59.9739978,57.8535295,0.0</coordinates>
            </Point>
        </Placemark>
        <Placemark id="505">
            <name>Заброшенные участки (ru)</name>
            <description/>
            <Point id="504">
                <coordinates>60.065843,57.7510819,0.0</coordinates>
            </Point>
        </Placemark>
        <Placemark id="507">
            <name>Заброшенная база отдыха &quot;У Берендея&quot; (ru)</name>
            <description/>
            <Point id="506">
                <coordinates>59.9999748,57.8467979,0.0</coordinates>
            </Point>
        </Placemark>
        <Placemark id="509">
            <name>Заброшенная база отдыха «Берёзки» Уралвагонзавода (ru)</name>
            <description/>
            <Point id="508">
                <coordinates>60.0020884,57.8534894,0.0</coordinates>
            </Point>
        </Placemark>
        <Placemark id="511">
            <name>Бывший детский лагерь «Юность» (ru)</name>
            <description/>
            <Point id="510">
                <coordinates>60.0171326,57.8300758,0.0</coordinates>
            </Point>
        </Placemark>
        <Placemark id="513">
            <name>Бывшая станция Черноисточинск Висимо-Уткинской УЖД (ru)</name>
            <description/>
            <Point id="512">
                <coordinates>59.8862036,57.7572353,0.0</coordinates>
            </Point>
        </Placemark>
        <Placemark id="515">
            <name>Заброшенное стратегическое подземное водохранилище (ru)</name>
            <description/>
            <Point id="514">
                <coordinates>59.949002,57.8422362,0.0</coordinates>
            </Point>
        </Placemark>
        <Placemark id="517">
            <name>Заброшенный гараж (ru)</name>
            <description/>
            <Point id="516">
                <coordinates>60.0837966,57.7470847,0.0</coordinates>
            </Point>
        </Placemark>
        <Placemark id="519">
            <name>Шурфы (ru)</name>
            <description/>
            <Point id="518">
                <coordinates>59.970488,57.8279069,0.0</coordinates>
            </Point>
        </Placemark>
        <Placemark id="521">
            <name>Заброшенный цех «Тракторзапчасть НТ» (ru)</name>
            <description/>
            <Point id="520">
                <coordinates>60.0509194,57.8053393,0.0</coordinates>
            </Point>
        </Placemark>
        <Placemark id="523">
            <name>Заброшенная силосная яма (ru)</name>
            <description/>
            <Point id="522">
                <coordinates>59.9590595,57.8567681,0.0</coordinates>
            </Point>
        </Placemark>
        <Placemark id="525">
            <name>Водонапорная башня (ru)</name>
            <description/>
            <Point id="524">
                <coordinates>60.0806004,57.747617,0.0</coordinates>
            </Point>
        </Placemark>
        <Placemark id="527">
            <name>Старая насосная станция (ru)</name>
            <description/>
            <Point id="526">
                <coordinates>60.0584322,57.8208578,0.0</coordinates>
            </Point>
        </Placemark>
    </Document>
</kml>
