<?xml version="1.0" encoding="UTF-8"?>
<kml xmlns="http://www.opengis.net/kml/2.2" xmlns:gx="http://www.google.com/kml/ext/2.2">
    <Document id="121">
        <Placemark id="123">
            <name>Черепановский комбинат хлебопродуктов (ru)</name>
            <description/>
            <Point id="122">
                <coordinates>83.3752709,54.2146072,0.0</coordinates>
            </Point>
        </Placemark>
        <Placemark id="125">
            <name>Заброшенное здание и площадка по выдаче газа в баллонах (ru)</name>
            <description/>
            <Point id="124">
                <coordinates>83.3871852,54.2029666,0.0</coordinates>
            </Point>
        </Placemark>
        <Placemark id="127">
            <name>Черепановская мебельная фабрика (ru)</name>
            <description/>
            <Point id="126">
                <coordinates>83.3863605,54.2275458,0.0</coordinates>
            </Point>
        </Placemark>
        <Placemark id="129">
            <name>Недостроенная больница (ru)</name>
            <description/>
            <Point id="128">
                <coordinates>83.3918072,54.4569406,0.0</coordinates>
            </Point>
        </Placemark>
        <Placemark id="131">
            <name>Заброшенное здание (ru)</name>
            <description/>
            <Point id="130">
                <coordinates>83.3941786,54.4647055,0.0</coordinates>
            </Point>
        </Placemark>
        <Placemark id="133">
            <name>Дрезина АГМу (ru)</name>
            <description/>
            <Point id="132">
                <coordinates>83.5212008,54.37446,0.0</coordinates>
            </Point>
        </Placemark>
    </Document>
</kml>
