<?xml version="1.0" encoding="UTF-8"?>
<kml xmlns="http://www.opengis.net/kml/2.2" xmlns:gx="http://www.google.com/kml/ext/2.2">
    <Document id="307">
        <Placemark id="309">
            <name>Dismantled UR-100K (SS-11 Sego) ICBM Silo (32I)</name>
            <description/>
            <Point id="308">
                <coordinates>113.4305119,51.6411594,0.0</coordinates>
            </Point>
        </Placemark>
        <Placemark id="311">
            <name>Dismantled UR-100K (SS-11 Sego) ICBM Silo (29I)</name>
            <description/>
            <Point id="310">
                <coordinates>113.5249042,51.6359725,0.0</coordinates>
            </Point>
        </Placemark>
        <Placemark id="313">
            <name>Dismantled UR-100K (SS-11 Sego) ICBM Silo (36I)</name>
            <description/>
            <Point id="312">
                <coordinates>113.6258625,51.6764539,0.0</coordinates>
            </Point>
        </Placemark>
        <Placemark id="315">
            <name>Dismantled UR-100K (SS-11 Sego) ICBM Silo (30I)</name>
            <description/>
            <Point id="314">
                <coordinates>113.5068798,51.687297,0.0</coordinates>
            </Point>
        </Placemark>
        <Placemark id="317">
            <name>Dismantled UR-100K (SS-11 Sego) ICBM Silo (37I)</name>
            <description/>
            <Point id="316">
                <coordinates>113.631302,51.7216315,0.0</coordinates>
            </Point>
        </Placemark>
        <Placemark id="319">
            <name>Dismantled UR-100K (SS-11 Sego) ICBM Silo (40I)</name>
            <description/>
            <Point id="318">
                <coordinates>113.533659,51.7367063,0.0</coordinates>
            </Point>
        </Placemark>
    </Document>
</kml>
