<?xml version="1.0" encoding="UTF-8"?>
<kml xmlns="http://www.opengis.net/kml/2.2" xmlns:gx="http://www.google.com/kml/ext/2.2">
    <Document id="325">
        <Placemark id="327">
            <name>Заброшенное кладбище (ru)</name>
            <description/>
            <Point id="326">
                <coordinates>68.7598483,56.325323,0.0</coordinates>
            </Point>
        </Placemark>
        <Placemark id="329">
            <name>Служебное железнодорожное здание (ru)</name>
            <description/>
            <Point id="328">
                <coordinates>68.6965583,56.3383258,0.0</coordinates>
            </Point>
        </Placemark>
    </Document>
</kml>
