<?xml version="1.0" encoding="UTF-8"?>
<kml xmlns="http://www.opengis.net/kml/2.2" xmlns:gx="http://www.google.com/kml/ext/2.2">
    <Document id="335">
        <Placemark id="337">
            <name>Бывший танкодром в/ч 45882 (ru)</name>
            <description/>
            <Point id="336">
                <coordinates>62.4185764,56.8502552,0.0</coordinates>
            </Point>
        </Placemark>
        <Placemark id="339">
            <name>Войсковое стрельбище в/ч 31612 (ru)</name>
            <description/>
            <Point id="338">
                <coordinates>62.4598074,56.8516701,0.0</coordinates>
            </Point>
        </Placemark>
        <Placemark id="341">
            <name>Директриса боевых машин В/Ч 44959 (ru)</name>
            <description/>
            <Point id="340">
                <coordinates>62.5200845,56.8548049,0.0</coordinates>
            </Point>
        </Placemark>
        <Placemark id="343">
            <name>Директриса в/ч 19880 (ru)</name>
            <description/>
            <Point id="342">
                <coordinates>62.5336109,56.8570109,0.0</coordinates>
            </Point>
        </Placemark>
        <Placemark id="345">
            <name>Танкодром в/ч 44959 (ru)</name>
            <description/>
            <Point id="344">
                <coordinates>62.5610231,56.8636011,0.0</coordinates>
            </Point>
        </Placemark>
        <Placemark id="347">
            <name>Бывшая директриса в/ч 45882 (ru)</name>
            <description/>
            <Point id="346">
                <coordinates>62.4860501,56.8571023,0.0</coordinates>
            </Point>
        </Placemark>
        <Placemark id="349">
            <name>Бывшая директриса в\ч 74292 (ru)</name>
            <description/>
            <Point id="348">
                <coordinates>62.5032806,56.8523744,0.0</coordinates>
            </Point>
        </Placemark>
        <Placemark id="351">
            <name>Заброшенный пионерский лагерь «Орлёнок» (ru)</name>
            <description/>
            <Point id="350">
                <coordinates>62.3438876,56.8378492,0.0</coordinates>
            </Point>
        </Placemark>
        <Placemark id="353">
            <name>Заброшенный плодопитомник (ru)</name>
            <description/>
            <Point id="352">
                <coordinates>62.8922116,56.7178668,0.0</coordinates>
            </Point>
        </Placemark>
        <Placemark id="355">
            <name>Заброшенное садоводческое товарищество «Метеор» (ru)</name>
            <description/>
            <Point id="354">
                <coordinates>62.1459755,56.758328,0.0</coordinates>
            </Point>
        </Placemark>
        <Placemark id="357">
            <name>Заброшенное садоводческое товарищество «Бытовик» (ru)</name>
            <description/>
            <Point id="356">
                <coordinates>62.1456992,56.7605569,0.0</coordinates>
            </Point>
        </Placemark>
        <Placemark id="359">
            <name>ул. Ленина (ru), 14</name>
            <description/>
            <Point id="358">
                <coordinates>62.6814436,56.6431057,0.0</coordinates>
            </Point>
        </Placemark>
        <Placemark id="361">
            <name>ул. Ленина (ru), 7</name>
            <description/>
            <Point id="360">
                <coordinates>62.6456576,56.7089814,0.0</coordinates>
            </Point>
        </Placemark>
        <Placemark id="363">
            <name>Набережная ул. (ru), 21</name>
            <description/>
            <Point id="362">
                <coordinates>62.8602102,56.693938,0.0</coordinates>
            </Point>
        </Placemark>
        <Placemark id="365">
            <name>Набережная ул. (ru), 15</name>
            <description/>
            <Point id="364">
                <coordinates>62.8595048,56.6946184,0.0</coordinates>
            </Point>
        </Placemark>
        <Placemark id="367">
            <name>ул. Ленина (ru), 12</name>
            <description/>
            <Point id="366">
                <coordinates>62.6449601,56.7099707,0.0</coordinates>
            </Point>
        </Placemark>
        <Placemark id="369">
            <name>Набережная ул. (ru), 19</name>
            <description/>
            <Point id="368">
                <coordinates>62.8599633,56.6941471,0.0</coordinates>
            </Point>
        </Placemark>
        <Placemark id="371">
            <name>ул. Мира (ru), 9</name>
            <description/>
            <Point id="370">
                <coordinates>62.6512499,56.7071735,0.0</coordinates>
            </Point>
        </Placemark>
        <Placemark id="373">
            <name>Новая ул. (ru), 3</name>
            <description/>
            <Point id="372">
                <coordinates>62.8619616,56.694966,0.0</coordinates>
            </Point>
        </Placemark>
        <Placemark id="375">
            <name>Заброшенный дом с участком (ru)</name>
            <description/>
            <Point id="374">
                <coordinates>63.2361003,56.9360392,0.0</coordinates>
            </Point>
        </Placemark>
        <Placemark id="377">
            <name>Размытая грунтовая плотина (ru)</name>
            <description/>
            <Point id="376">
                <coordinates>63.0482572,56.7229828,0.0</coordinates>
            </Point>
        </Placemark>
        <Placemark id="379">
            <name>Погорельская ГЭС (ru)</name>
            <description/>
            <Point id="378">
                <coordinates>62.7951098,56.8084427,0.0</coordinates>
            </Point>
        </Placemark>
        <Placemark id="381">
            <name>Заброшенный храм во имя Николая Чудотворца (ru)</name>
            <description/>
            <Point id="380">
                <coordinates>62.8892263,57.0519481,0.0</coordinates>
            </Point>
        </Placemark>
        <Placemark id="383">
            <name>Хранилище (ru)</name>
            <description/>
            <Point id="382">
                <coordinates>62.5206802,56.8220253,0.0</coordinates>
            </Point>
        </Placemark>
        <Placemark id="385">
            <name>Заброшенная котельная (ru)</name>
            <description/>
            <Point id="384">
                <coordinates>62.7372282,56.8333623,0.0</coordinates>
            </Point>
        </Placemark>
        <Placemark id="387">
            <name>Церковь Боголюбской иконы Божией Матери (ru)</name>
            <description/>
            <Point id="386">
                <coordinates>62.7231681,56.9038571,0.0</coordinates>
            </Point>
        </Placemark>
        <Placemark id="389">
            <name>Заброшенный продуктовый магазин (ru)</name>
            <description/>
            <Point id="388">
                <coordinates>63.163619,56.6421117,0.0</coordinates>
            </Point>
        </Placemark>
        <Placemark id="391">
            <name>ул. Мира (ru), 19</name>
            <description/>
            <Point id="390">
                <coordinates>62.7298686,56.7890006,0.0</coordinates>
            </Point>
        </Placemark>
        <Placemark id="393">
            <name>Площадка аттракционов (ru)</name>
            <description/>
            <Point id="392">
                <coordinates>63.2524255,56.9578365,0.0</coordinates>
            </Point>
        </Placemark>
        <Placemark id="395">
            <name>Заброшенная Иоанно-Предтеченская церковь (ru)</name>
            <description/>
            <Point id="394">
                <coordinates>62.6922838,57.2018604,0.0</coordinates>
            </Point>
        </Placemark>
        <Placemark id="397">
            <name>Заброшенная АЗС и кафе (ru)</name>
            <description/>
            <Point id="396">
                <coordinates>62.7795803,56.8624988,0.0</coordinates>
            </Point>
        </Placemark>
        <Placemark id="399">
            <name>Командный пункт директрисы (ru)</name>
            <description/>
            <Point id="398">
                <coordinates>62.5374171,56.8497371,0.0</coordinates>
            </Point>
        </Placemark>
        <Placemark id="401">
            <name>Заброшенный Храм Троицы Живоначальной (ru)</name>
            <description/>
            <Point id="400">
                <coordinates>62.5336216,57.2629167,0.0</coordinates>
            </Point>
        </Placemark>
        <Placemark id="403">
            <name>Заброшенный ресторан на воде «Поплавок» (ru)</name>
            <description/>
            <Point id="402">
                <coordinates>62.2177658,56.892146,0.0</coordinates>
            </Point>
        </Placemark>
        <Placemark id="405">
            <name>Заброшенный дом (ru)</name>
            <description/>
            <Point id="404">
                <coordinates>63.0619682,57.0052427,0.0</coordinates>
            </Point>
        </Placemark>
        <Placemark id="407">
            <name>Бывшее Пышминское лесничество (ru)</name>
            <description/>
            <Point id="406">
                <coordinates>62.2288686,56.8797689,0.0</coordinates>
            </Point>
        </Placemark>
        <Placemark id="409">
            <name>часовня (ru)</name>
            <description/>
            <Point id="408">
                <coordinates>62.6386892,57.2644715,0.0</coordinates>
            </Point>
        </Placemark>
        <Placemark id="411">
            <name>ул. Ленина (ru), 13</name>
            <description/>
            <Point id="410">
                <coordinates>62.6818068,56.6437989,0.0</coordinates>
            </Point>
        </Placemark>
        <Placemark id="413">
            <name>Кирпичный дом (ru)</name>
            <description/>
            <Point id="412">
                <coordinates>62.6392927,57.2649778,0.0</coordinates>
            </Point>
        </Placemark>
        <Placemark id="415">
            <name>ул. Ленина (ru), 33</name>
            <description/>
            <Point id="414">
                <coordinates>62.6408608,56.7055289,0.0</coordinates>
            </Point>
        </Placemark>
        <Placemark id="417">
            <name>ул. Ленина (ru), 13</name>
            <description/>
            <Point id="416">
                <coordinates>62.6442923,56.7081056,0.0</coordinates>
            </Point>
        </Placemark>
        <Placemark id="419">
            <name>ул. Гагарина (ru), 9</name>
            <description/>
            <Point id="418">
                <coordinates>62.6836922,56.6453388,0.0</coordinates>
            </Point>
        </Placemark>
        <Placemark id="421">
            <name>Водонапорная башня (ru)</name>
            <description/>
            <Point id="420">
                <coordinates>62.6993704,56.8474162,0.0</coordinates>
            </Point>
        </Placemark>
        <Placemark id="423">
            <name>Заброшенная часовня (ru)</name>
            <description/>
            <Point id="422">
                <coordinates>62.9143089,56.8429456,0.0</coordinates>
            </Point>
        </Placemark>
        <Placemark id="425">
            <name>Школьная ул. (ru), 2</name>
            <description/>
            <Point id="424">
                <coordinates>62.6400172,56.7062083,0.0</coordinates>
            </Point>
        </Placemark>
        <Placemark id="427">
            <name>Водонапорная башня (ru)</name>
            <description/>
            <Point id="426">
                <coordinates>63.0131845,56.726113,0.0</coordinates>
            </Point>
        </Placemark>
        <Placemark id="429">
            <name>Водонапорная башня (ru)</name>
            <description/>
            <Point id="428">
                <coordinates>63.0127662,56.7263234,0.0</coordinates>
            </Point>
        </Placemark>
        <Placemark id="431">
            <name>Пожарный ЗИЛ (ru)</name>
            <description/>
            <Point id="430">
                <coordinates>62.4641189,56.6642797,0.0</coordinates>
            </Point>
        </Placemark>
    </Document>
</kml>
