<?xml version="1.0" encoding="UTF-8"?>
<kml xmlns="http://www.opengis.net/kml/2.2" xmlns:gx="http://www.google.com/kml/ext/2.2">
    <Document id="927">
        <Placemark id="929">
            <name>ЗУС «Соха» (ru)</name>
            <description/>
            <Point id="928">
                <coordinates>135.2925538,48.296656,0.0</coordinates>
            </Point>
        </Placemark>
        <Placemark id="931">
            <name>Неиспользуемые силосные ямы (ru)</name>
            <description/>
            <Point id="930">
                <coordinates>135.2701194,48.3312456,0.0</coordinates>
            </Point>
        </Placemark>
        <Placemark id="933">
            <name>Бункер (ru)</name>
            <description/>
            <Point id="932">
                <coordinates>135.2667778,48.3337082,0.0</coordinates>
            </Point>
        </Placemark>
        <Placemark id="935">
            <name>Брошенное РММ Оборского леспромхоза, разваленного в 2000-х годах (ru)</name>
            <description/>
            <Point id="934">
                <coordinates>135.4031922,48.1354635,0.0</coordinates>
            </Point>
        </Placemark>
        <Placemark id="937">
            <name>Неиспользуемые первичные отстойники (ru)</name>
            <description/>
            <Point id="936">
                <coordinates>135.2367382,48.3342324,0.0</coordinates>
            </Point>
        </Placemark>
        <Placemark id="939">
            <name>Тыловой Пункт Управления УС &quot;Соха&quot; (ru)</name>
            <description/>
            <Point id="938">
                <coordinates>135.2925732,48.2959215,0.0</coordinates>
            </Point>
        </Placemark>
        <Placemark id="941">
            <name>Заброшенный административный корпус (ru)</name>
            <description/>
            <Point id="940">
                <coordinates>135.2921038,48.3001183,0.0</coordinates>
            </Point>
        </Placemark>
        <Placemark id="943">
            <name>Заброшенная воздуховодная насосная станция (ru)</name>
            <description/>
            <Point id="942">
                <coordinates>135.235564,48.3343972,0.0</coordinates>
            </Point>
        </Placemark>
        <Placemark id="945">
            <name>Заброшенный склад-бункер (ru)</name>
            <description/>
            <Point id="944">
                <coordinates>135.2926446,48.2944415,0.0</coordinates>
            </Point>
        </Placemark>
        <Placemark id="947">
            <name>Заброшенный огород (ru)</name>
            <description/>
            <Point id="946">
                <coordinates>135.2332689,48.334401,0.0</coordinates>
            </Point>
        </Placemark>
        <Placemark id="949">
            <name>Бункер службы ГСМ (ru)</name>
            <description/>
            <Point id="948">
                <coordinates>135.2919101,48.294413,0.0</coordinates>
            </Point>
        </Placemark>
        <Placemark id="951">
            <name>Казарма (ru)</name>
            <description/>
            <Point id="950">
                <coordinates>135.292787,48.2966293,0.0</coordinates>
            </Point>
        </Placemark>
        <Placemark id="953">
            <name>Заброшенный производственно-хозяйственный корпус (ru)</name>
            <description/>
            <Point id="952">
                <coordinates>135.237486,48.3339336,0.0</coordinates>
            </Point>
        </Placemark>
        <Placemark id="955">
            <name>Заброшенный КПП Батальона связи тыла &quot;Соха&quot; (ru)</name>
            <description/>
            <Point id="954">
                <coordinates>135.300955,48.300474,0.0</coordinates>
            </Point>
        </Placemark>
        <Placemark id="957">
            <name>Столовая (ru)</name>
            <description/>
            <Point id="956">
                <coordinates>135.2913869,48.2975448,0.0</coordinates>
            </Point>
        </Placemark>
        <Placemark id="959">
            <name>Контактный резервуар (ru)</name>
            <description/>
            <Point id="958">
                <coordinates>135.2370925,48.33325,0.0</coordinates>
            </Point>
        </Placemark>
        <Placemark id="961">
            <name>Разрушенное здание решёток (ru)</name>
            <description/>
            <Point id="960">
                <coordinates>135.2365466,48.3346051,0.0</coordinates>
            </Point>
        </Placemark>
        <Placemark id="963">
            <name>Брошенный склад ГСМ (ru)</name>
            <description/>
            <Point id="962">
                <coordinates>135.4050296,48.1365966,0.0</coordinates>
            </Point>
        </Placemark>
        <Placemark id="965">
            <name>Малый Бункер (ru)</name>
            <description/>
            <Point id="964">
                <coordinates>135.2931478,48.2984358,0.0</coordinates>
            </Point>
        </Placemark>
        <Placemark id="967">
            <name>Вход №2 в Тыловой Пункт Управления УС &quot;Соха&quot; (ru)</name>
            <description/>
            <Point id="966">
                <coordinates>135.2924986,48.2958965,0.0</coordinates>
            </Point>
        </Placemark>
        <Placemark id="969">
            <name>Разрушенная изба (ru)</name>
            <description/>
            <Point id="968">
                <coordinates>135.2330476,48.3341631,0.0</coordinates>
            </Point>
        </Placemark>
        <Placemark id="971">
            <name>Вход №1 в Тыловой Пункт Управления УС &quot;Соха&quot; (ru)</name>
            <description/>
            <Point id="970">
                <coordinates>135.2928924,48.2964266,0.0</coordinates>
            </Point>
        </Placemark>
        <Placemark id="973">
            <name>Вход №3 Тыловой Пункт Управления УС &quot;Соха&quot; (ru)</name>
            <description/>
            <Point id="972">
                <coordinates>135.292201,48.2954511,0.0</coordinates>
            </Point>
        </Placemark>
        <Placemark id="975">
            <name>Автомобиль ГАЗ-53 (ru)</name>
            <description/>
            <Point id="974">
                <coordinates>135.2366045,48.3331592,0.0</coordinates>
            </Point>
        </Placemark>
    </Document>
</kml>
