<?xml version="1.0" encoding="UTF-8"?>
<kml xmlns="http://www.opengis.net/kml/2.2" xmlns:gx="http://www.google.com/kml/ext/2.2">
    <Document id="331">
        <Placemark id="333">
            <name>Территория старого огорода село Бёкё (ru)</name>
            <description/>
            <Point id="332">
                <coordinates>130.3478049,61.8138377,0.0</coordinates>
            </Point>
        </Placemark>
        <Placemark id="335">
            <name>Бывшая пекарня (ru)</name>
            <description/>
            <Point id="334">
                <coordinates>130.304557,61.736954,0.0</coordinates>
            </Point>
        </Placemark>
    </Document>
</kml>
