<?xml version="1.0" encoding="UTF-8"?>
<kml xmlns="http://www.opengis.net/kml/2.2" xmlns:gx="http://www.google.com/kml/ext/2.2">
    <Document id="529">
        <Placemark id="531">
            <name>Заброшенное хранилище горюче-смазочных материалов (ru)</name>
            <description/>
            <Point id="530">
                <coordinates>60.2536582,57.9793187,0.0</coordinates>
            </Point>
        </Placemark>
        <Placemark id="533">
            <name>Заброшенное хранилище горюче-смазочных материалов (ru)</name>
            <description/>
            <Point id="532">
                <coordinates>60.2783613,57.9780117,0.0</coordinates>
            </Point>
        </Placemark>
        <Placemark id="535">
            <name>Заброшенное подсобное хозяйство (ru)</name>
            <description/>
            <Point id="534">
                <coordinates>60.3884821,57.9545551,0.0</coordinates>
            </Point>
        </Placemark>
        <Placemark id="537">
            <name>Заброшенное здание (ru)</name>
            <description/>
            <Point id="536">
                <coordinates>60.2678108,57.9823813,0.0</coordinates>
            </Point>
        </Placemark>
        <Placemark id="539">
            <name>Sukhoi Su-7</name>
            <description/>
            <Point id="538">
                <coordinates>60.3269202,57.8695804,0.0</coordinates>
            </Point>
        </Placemark>
        <Placemark id="541">
            <name>Заброшенное здание (ru)</name>
            <description/>
            <Point id="540">
                <coordinates>60.2664013,57.9828683,0.0</coordinates>
            </Point>
        </Placemark>
        <Placemark id="543">
            <name>Заброшенное здание (ru)</name>
            <description/>
            <Point id="542">
                <coordinates>60.2634416,57.9824723,0.0</coordinates>
            </Point>
        </Placemark>
        <Placemark id="545">
            <name>Заброшенное здание (ru)</name>
            <description/>
            <Point id="544">
                <coordinates>60.2653472,57.9817691,0.0</coordinates>
            </Point>
        </Placemark>
        <Placemark id="547">
            <name>Заброшенное здание (ru)</name>
            <description/>
            <Point id="546">
                <coordinates>60.2649584,57.9833646,0.0</coordinates>
            </Point>
        </Placemark>
        <Placemark id="549">
            <name>Бывшая котельная (ru)</name>
            <description/>
            <Point id="548">
                <coordinates>60.2352476,57.9578919,0.0</coordinates>
            </Point>
        </Placemark>
    </Document>
</kml>
