<?xml version="1.0" encoding="UTF-8"?>
<kml xmlns="http://www.opengis.net/kml/2.2" xmlns:gx="http://www.google.com/kml/ext/2.2">
    <Document id="2723">
        <Placemark id="2725">
            <name>Некапитальные гаражи (ru)</name>
            <description/>
            <Point id="2724">
                <coordinates>64.0195896,67.4715034,0.0</coordinates>
            </Point>
        </Placemark>
        <Placemark id="2727">
            <name>Lokomotivnaya ulitsa, 3Б</name>
            <description/>
            <Point id="2726">
                <coordinates>64.0192353,67.4724606,0.0</coordinates>
            </Point>
        </Placemark>
        <Placemark id="2729">
            <name>Заброшенное здание (ru)</name>
            <description/>
            <Point id="2728">
                <coordinates>64.0239354,67.4718257,0.0</coordinates>
            </Point>
        </Placemark>
        <Placemark id="2731">
            <name>Privokzalnaya ulitsa, 23</name>
            <description/>
            <Point id="2730">
                <coordinates>64.0270302,67.4733462,0.0</coordinates>
            </Point>
        </Placemark>
        <Placemark id="2733">
            <name>Privokzalnaya ulitsa, 7</name>
            <description/>
            <Point id="2732">
                <coordinates>64.0208993,67.4693683,0.0</coordinates>
            </Point>
        </Placemark>
        <Placemark id="2735">
            <name>Строение (ru)</name>
            <description/>
            <Point id="2734">
                <coordinates>64.029868,67.4757408,0.0</coordinates>
            </Point>
        </Placemark>
        <Placemark id="2737">
            <name>Трансформаторная подстанция (ru)</name>
            <description/>
            <Point id="2736">
                <coordinates>64.027348,67.4716863,0.0</coordinates>
            </Point>
        </Placemark>
        <Placemark id="2739">
            <name>Трансформаторная подстанция (ru)</name>
            <description/>
            <Point id="2738">
                <coordinates>64.020704,67.4733104,0.0</coordinates>
            </Point>
        </Placemark>
    </Document>
</kml>
