<?xml version="1.0" encoding="UTF-8"?>
<kml xmlns="http://www.opengis.net/kml/2.2" xmlns:gx="http://www.google.com/kml/ext/2.2">
    <Document id="301">
        <Placemark id="303">
            <name>Заброшенное здание (ru)</name>
            <description/>
            <Point id="302">
                <coordinates>113.9898785,51.6920965,0.0</coordinates>
            </Point>
        </Placemark>
        <Placemark id="305">
            <name>Насосная станция (ru)</name>
            <description/>
            <Point id="304">
                <coordinates>113.9614578,51.6617486,0.0</coordinates>
            </Point>
        </Placemark>
    </Document>
</kml>
