<?xml version="1.0" encoding="UTF-8"?>
<kml xmlns="http://www.opengis.net/kml/2.2" xmlns:gx="http://www.google.com/kml/ext/2.2">
    <Document id="421">
        <Placemark id="423">
            <name>Расформированная войсковая часть 22452 — Новозыбковская ордена Ленина Краснознамённой ордена Суворова мотострелковая дивизия (ru)</name>
            <description/>
            <Point id="422">
                <coordinates>136.9397413,50.5872918,0.0</coordinates>
            </Point>
        </Placemark>
        <Placemark id="425">
            <name>База хранения военной техники (БХВТ 5505) (ru)</name>
            <description/>
            <Point id="424">
                <coordinates>136.9428956,50.5863272,0.0</coordinates>
            </Point>
        </Placemark>
        <Placemark id="427">
            <name>Недостроенная очередь совхоза «Дзёмги» (северо-восточная локация) (ru)</name>
            <description/>
            <Point id="426">
                <coordinates>137.0588636,50.6610779,0.0</coordinates>
            </Point>
        </Placemark>
        <Placemark id="429">
            <name>Бывшая территория завода «Парус» (ru)</name>
            <description/>
            <Point id="428">
                <coordinates>137.0585202,50.5597756,0.0</coordinates>
            </Point>
        </Placemark>
        <Placemark id="431">
            <name>Сернокислотный завод (ru)</name>
            <description/>
            <Point id="430">
                <coordinates>136.9806075,50.5887793,0.0</coordinates>
            </Point>
        </Placemark>
        <Placemark id="433">
            <name>Заброшенная 2-я очередь очистных сооружений (ru)</name>
            <description/>
            <Point id="432">
                <coordinates>137.1171587,50.6095758,0.0</coordinates>
            </Point>
        </Placemark>
        <Placemark id="435">
            <name>Заброшенные дачи (ru)</name>
            <description/>
            <Point id="434">
                <coordinates>137.0210551,50.6475691,0.0</coordinates>
            </Point>
        </Placemark>
        <Placemark id="437">
            <name>Бывший Комсомольский Домостроительный Комбинат (ru)</name>
            <description/>
            <Point id="436">
                <coordinates>136.9982027,50.5822009,0.0</coordinates>
            </Point>
        </Placemark>
        <Placemark id="439">
            <name>Руины завода панельного домостроения (ru)</name>
            <description/>
            <Point id="438">
                <coordinates>136.9273387,50.6052522,0.0</coordinates>
            </Point>
        </Placemark>
        <Placemark id="441">
            <name>Недействующий завод подъёмно-транспортного оборудования (ru)</name>
            <description/>
            <Point id="440">
                <coordinates>137.0035189,50.5683015,0.0</coordinates>
            </Point>
        </Placemark>
        <Placemark id="443">
            <name>Заброшенная территория бывшего детского лагеря отдыха «Факел» (ru)</name>
            <description/>
            <Point id="442">
                <coordinates>136.9670623,50.628037,0.0</coordinates>
            </Point>
        </Placemark>
        <Placemark id="445">
            <name>Брошенная территория бывших войсковых частей №№ 53935, 53936, 28762, 28763 (ru)</name>
            <description/>
            <Point id="444">
                <coordinates>137.0758392,50.5665211,0.0</coordinates>
            </Point>
        </Placemark>
        <Placemark id="447">
            <name>Недействующий аккумуляторный завод (ru)</name>
            <description/>
            <Point id="446">
                <coordinates>137.0276534,50.5553931,0.0</coordinates>
            </Point>
        </Placemark>
        <Placemark id="449">
            <name>Брошенные медсклады войсковой части 48908 (ru)</name>
            <description/>
            <Point id="448">
                <coordinates>136.9041323,50.5835158,0.0</coordinates>
            </Point>
        </Placemark>
        <Placemark id="451">
            <name>Территория бывшего подсобного хозяйства АСЗ (ru)</name>
            <description/>
            <Point id="450">
                <coordinates>136.9319843,50.6407161,0.0</coordinates>
            </Point>
        </Placemark>
        <Placemark id="453">
            <name>Банкротное тепличное хозяйство «Восток» (ru)</name>
            <description/>
            <Point id="452">
                <coordinates>137.0678544,50.6099947,0.0</coordinates>
            </Point>
        </Placemark>
        <Placemark id="455">
            <name>Детский оздоровительный лагерь «Корабел» (ru)</name>
            <description/>
            <Point id="454">
                <coordinates>137.086316,50.5394809,0.0</coordinates>
            </Point>
        </Placemark>
        <Placemark id="457">
            <name>Бывшая войсковая часть 31458 — дивизион «Е» (ru)</name>
            <description/>
            <Point id="456">
                <coordinates>136.9043147,50.554333,0.0</coordinates>
            </Point>
        </Placemark>
        <Placemark id="459">
            <name>Заброшенное кладбище (ru)</name>
            <description/>
            <Point id="458">
                <coordinates>137.1187198,50.6007206,0.0</coordinates>
            </Point>
        </Placemark>
        <Placemark id="461">
            <name>Заброшенные дачи (ru)</name>
            <description/>
            <Point id="460">
                <coordinates>137.0197891,50.6423306,0.0</coordinates>
            </Point>
        </Placemark>
        <Placemark id="463">
            <name>Завод ЗРСТ (Бамовский) (ru)</name>
            <description/>
            <Point id="462">
                <coordinates>137.0343053,50.6034887,0.0</coordinates>
            </Point>
        </Placemark>
        <Placemark id="465">
            <name>Заброшенные теплицы совхоза «Восток» (ru)</name>
            <description/>
            <Point id="464">
                <coordinates>136.9832414,50.5562554,0.0</coordinates>
            </Point>
        </Placemark>
        <Placemark id="467">
            <name>Бывшие склады РАВ (ru)</name>
            <description/>
            <Point id="466">
                <coordinates>136.9356429,50.5888972,0.0</coordinates>
            </Point>
        </Placemark>
        <Placemark id="469">
            <name>Деревообрабатывающий завод (ru)</name>
            <description/>
            <Point id="468">
                <coordinates>136.9201049,50.5531733,0.0</coordinates>
            </Point>
        </Placemark>
        <Placemark id="471">
            <name>Объект 510 Наркомата Связи (1936 год) (рекультивирован) (ru)</name>
            <description/>
            <Point id="470">
                <coordinates>136.9438183,50.6228677,0.0</coordinates>
            </Point>
        </Placemark>
        <Placemark id="473">
            <name>Заброшенный мартеновский цех (ru)</name>
            <description/>
            <Point id="472">
                <coordinates>136.9749104,50.5643421,0.0</coordinates>
            </Point>
        </Placemark>
        <Placemark id="475">
            <name>Заброшенные вещевые склады бывшей войсковой части 32189 (ru)</name>
            <description/>
            <Point id="474">
                <coordinates>136.9169022,50.5735126,0.0</coordinates>
            </Point>
        </Placemark>
        <Placemark id="477">
            <name>Законсервированная скважина водозабора (ru)</name>
            <description/>
            <Point id="476">
                <coordinates>137.1366476,50.6154752,0.0</coordinates>
            </Point>
        </Placemark>
        <Placemark id="479">
            <name>Расформированная войсковая часть 6772 — специальный моторизованный батальон (СМБ) внутренних войск МВД России (ru)</name>
            <description/>
            <Point id="478">
                <coordinates>136.9935411,50.5798848,0.0</coordinates>
            </Point>
        </Placemark>
        <Placemark id="481">
            <name>Разрушенные цеха (ru)</name>
            <description/>
            <Point id="480">
                <coordinates>136.9267701,50.6046556,0.0</coordinates>
            </Point>
        </Placemark>
        <Placemark id="483">
            <name>Недействующий цех № 14 ПАО «Амурский судостроительный завод» (ru)</name>
            <description/>
            <Point id="482">
                <coordinates>137.0371699,50.5506044,0.0</coordinates>
            </Point>
        </Placemark>
        <Placemark id="485">
            <name>Недостроенный жилой комплекс «Нефтяник» (ru)</name>
            <description/>
            <Point id="484">
                <coordinates>137.0097523,50.5360945,0.0</coordinates>
            </Point>
        </Placemark>
        <Placemark id="487">
            <name>Заброшенные боксы для боевой техники (ru)</name>
            <description/>
            <Point id="486">
                <coordinates>136.916762,50.5751795,0.0</coordinates>
            </Point>
        </Placemark>
        <Placemark id="489">
            <name>Заброшенные боксы для техники (ru)</name>
            <description/>
            <Point id="488">
                <coordinates>136.9152494,50.5767916,0.0</coordinates>
            </Point>
        </Placemark>
        <Placemark id="491">
            <name>Цех № 3 (ru)</name>
            <description/>
            <Point id="490">
                <coordinates>137.0350456,50.5979251,0.0</coordinates>
            </Point>
        </Placemark>
        <Placemark id="493">
            <name>Заброшенные склады (ru)</name>
            <description/>
            <Point id="492">
                <coordinates>136.9392021,50.591717,0.0</coordinates>
            </Point>
        </Placemark>
        <Placemark id="495">
            <name>Заброшенная территория (ru)</name>
            <description/>
            <Point id="494">
                <coordinates>137.0607062,50.6055689,0.0</coordinates>
            </Point>
        </Placemark>
        <Placemark id="497">
            <name>Бывший коровник (ru)</name>
            <description/>
            <Point id="496">
                <coordinates>137.1506273,50.6277172,0.0</coordinates>
            </Point>
        </Placemark>
        <Placemark id="499">
            <name>Бывшие позиции ЗРДн С-75 (ru)</name>
            <description/>
            <Point id="498">
                <coordinates>137.0637452,50.6437526,0.0</coordinates>
            </Point>
        </Placemark>
        <Placemark id="501">
            <name>Недействующий производственный цех (ru)</name>
            <description/>
            <Point id="500">
                <coordinates>137.0025425,50.5679471,0.0</coordinates>
            </Point>
        </Placemark>
        <Placemark id="503">
            <name>Недействующий производственный цех (ru)</name>
            <description/>
            <Point id="502">
                <coordinates>137.0046239,50.5673355,0.0</coordinates>
            </Point>
        </Placemark>
        <Placemark id="505">
            <name>Пиванский тоннель (первый тоннель БАМа, недостроен и законсервирован) (ru)</name>
            <description/>
            <Point id="504">
                <coordinates>137.0618568,50.5145315,0.0</coordinates>
            </Point>
        </Placemark>
        <Placemark id="507">
            <name>Заброшенная железнодорожная станция Пивань-Пристань (ru)</name>
            <description/>
            <Point id="506">
                <coordinates>137.0591573,50.4982304,0.0</coordinates>
            </Point>
        </Placemark>
        <Placemark id="509">
            <name>Заброшенный плац (ru)</name>
            <description/>
            <Point id="508">
                <coordinates>136.9275882,50.5826132,0.0</coordinates>
            </Point>
        </Placemark>
        <Placemark id="511">
            <name>Аэротенки (ru)</name>
            <description/>
            <Point id="510">
                <coordinates>137.1219826,50.6102763,0.0</coordinates>
            </Point>
        </Placemark>
        <Placemark id="513">
            <name>Заброшенный строевой плац (ru)</name>
            <description/>
            <Point id="512">
                <coordinates>136.9137399,50.580688,0.0</coordinates>
            </Point>
        </Placemark>
        <Placemark id="515">
            <name>Развалины (управление аэропортом и гидропортом — Победа) (ru)</name>
            <description/>
            <Point id="514">
                <coordinates>137.0984569,50.5728882,0.0</coordinates>
            </Point>
        </Placemark>
        <Placemark id="517">
            <name>Элеватор (ru)</name>
            <description/>
            <Point id="516">
                <coordinates>137.0077085,50.5690171,0.0</coordinates>
            </Point>
        </Placemark>
        <Placemark id="519">
            <name>Конечная трамвайная остановка «Вокзал» (ru)</name>
            <description/>
            <Point id="518">
                <coordinates>136.9872835,50.5514616,0.0</coordinates>
            </Point>
        </Placemark>
        <Placemark id="521">
            <name>Развалины цеха (ru)</name>
            <description/>
            <Point id="520">
                <coordinates>137.0000105,50.5757662,0.0</coordinates>
            </Point>
        </Placemark>
        <Placemark id="523">
            <name>Заброшенный корпус мясокомбината (ru)</name>
            <description/>
            <Point id="522">
                <coordinates>137.0612467,50.6077801,0.0</coordinates>
            </Point>
        </Placemark>
        <Placemark id="525">
            <name>Заброшенный корпус мясокомбината (ru)</name>
            <description/>
            <Point id="524">
                <coordinates>137.0603944,50.6072394,0.0</coordinates>
            </Point>
        </Placemark>
        <Placemark id="527">
            <name>Аэротенки (ru)</name>
            <description/>
            <Point id="526">
                <coordinates>137.1234954,50.6104134,0.0</coordinates>
            </Point>
        </Placemark>
        <Placemark id="529">
            <name>Футбольное поле (ru)</name>
            <description/>
            <Point id="528">
                <coordinates>137.0176514,50.557063,0.0</coordinates>
            </Point>
        </Placemark>
        <Placemark id="531">
            <name>Цеха (ru)</name>
            <description/>
            <Point id="530">
                <coordinates>137.1376655,50.5916775,0.0</coordinates>
            </Point>
        </Placemark>
        <Placemark id="533">
            <name>Караульное помещение в/ч 25635 – развалины (ru)</name>
            <description/>
            <Point id="532">
                <coordinates>136.9291211,50.5843588,0.0</coordinates>
            </Point>
        </Placemark>
        <Placemark id="535">
            <name>Караульный городок (ru)</name>
            <description/>
            <Point id="534">
                <coordinates>136.9293182,50.5818536,0.0</coordinates>
            </Point>
        </Placemark>
        <Placemark id="537">
            <name>Здание</name>
            <description/>
            <Point id="536">
                <coordinates>137.0090227,50.5682691,0.0</coordinates>
            </Point>
        </Placemark>
        <Placemark id="539">
            <name>Руины (ru)</name>
            <description/>
            <Point id="538">
                <coordinates>136.9837161,50.558796,0.0</coordinates>
            </Point>
        </Placemark>
        <Placemark id="541">
            <name>Административно-бытовые корпуса (ru)</name>
            <description/>
            <Point id="540">
                <coordinates>136.9264603,50.6034614,0.0</coordinates>
            </Point>
        </Placemark>
        <Placemark id="543">
            <name>Заброшенное бомбоубежище Администрации Города Комсомольска-на-Амуре (ru)</name>
            <description/>
            <Point id="542">
                <coordinates>137.0247982,50.5414787,0.0</coordinates>
            </Point>
        </Placemark>
        <Placemark id="545">
            <name>Заброшенная скважина (ru)</name>
            <description/>
            <Point id="544">
                <coordinates>136.9087819,50.5857643,0.0</coordinates>
            </Point>
        </Placemark>
        <Placemark id="547">
            <name>Цех (ru)</name>
            <description/>
            <Point id="546">
                <coordinates>137.000504,50.5778238,0.0</coordinates>
            </Point>
        </Placemark>
        <Placemark id="549">
            <name>Руины гаражей (ru)</name>
            <description/>
            <Point id="548">
                <coordinates>136.9319119,50.5870274,0.0</coordinates>
            </Point>
        </Placemark>
        <Placemark id="551">
            <name>Гаражи (ru)</name>
            <description/>
            <Point id="550">
                <coordinates>136.9312413,50.5878772,0.0</coordinates>
            </Point>
        </Placemark>
        <Placemark id="553">
            <name>Бывший спортивный городок (ru)</name>
            <description/>
            <Point id="552">
                <coordinates>136.926298,50.5833881,0.0</coordinates>
            </Point>
        </Placemark>
        <Placemark id="555">
            <name>Заброшенное здание столовой (ru)</name>
            <description/>
            <Point id="554">
                <coordinates>136.9137105,50.5791676,0.0</coordinates>
            </Point>
        </Placemark>
        <Placemark id="557">
            <name>Пункт технического обслуживания и ремонта № 3 (ПТОР-3) (ru)</name>
            <description/>
            <Point id="556">
                <coordinates>136.9406036,50.5858396,0.0</coordinates>
            </Point>
        </Placemark>
        <Placemark id="559">
            <name>Цех (заброшенный) (ru)</name>
            <description/>
            <Point id="558">
                <coordinates>137.0358878,50.5483547,0.0</coordinates>
            </Point>
        </Placemark>
        <Placemark id="561">
            <name>Строение личного пользования (заброшенное здание) (ru)</name>
            <description/>
            <Point id="560">
                <coordinates>137.0040526,50.5679437,0.0</coordinates>
            </Point>
        </Placemark>
        <Placemark id="563">
            <name>Развалины столовой (ru)</name>
            <description/>
            <Point id="562">
                <coordinates>137.0735617,50.5660239,0.0</coordinates>
            </Point>
        </Placemark>
        <Placemark id="565">
            <name>Главное здание мясокомбината (ru)</name>
            <description/>
            <Point id="564">
                <coordinates>137.0619494,50.6077469,0.0</coordinates>
            </Point>
        </Placemark>
        <Placemark id="567">
            <name>Бывший плац (ru)</name>
            <description/>
            <Point id="566">
                <coordinates>137.0743325,50.5664462,0.0</coordinates>
            </Point>
        </Placemark>
        <Placemark id="569">
            <name>Popova transmitter, shortwave antenna</name>
            <description/>
            <Point id="568">
                <coordinates>136.9183774,50.6529296,0.0</coordinates>
            </Point>
        </Placemark>
        <Placemark id="571">
            <name>Заброшенная казарма (ru)</name>
            <description/>
            <Point id="570">
                <coordinates>136.9146385,50.5793482,0.0</coordinates>
            </Point>
        </Placemark>
        <Placemark id="573">
            <name>Заброшенное здание бывшей столовой (ru)</name>
            <description/>
            <Point id="572">
                <coordinates>136.9269955,50.5835038,0.0</coordinates>
            </Point>
        </Placemark>
        <Placemark id="575">
            <name>Заброшенный концертный зал ПАО «Амурский судостроительный завод» (ru)</name>
            <description/>
            <Point id="574">
                <coordinates>137.022136,50.5436163,0.0</coordinates>
            </Point>
        </Placemark>
        <Placemark id="577">
            <name>Пункт технического обслуживания и ремонта № 1 (ПТОР-1) (ru)</name>
            <description/>
            <Point id="576">
                <coordinates>136.9340067,50.5836504,0.0</coordinates>
            </Point>
        </Placemark>
        <Placemark id="579">
            <name>Руины бывшего центра связи «Кристалл» (ru)</name>
            <description/>
            <Point id="578">
                <coordinates>136.9143569,50.5800576,0.0</coordinates>
            </Point>
        </Placemark>
        <Placemark id="581">
            <name>Административное здание (ru)</name>
            <description/>
            <Point id="580">
                <coordinates>137.1370834,50.591867,0.0</coordinates>
            </Point>
        </Placemark>
        <Placemark id="583">
            <name>Музей завода ПТО (неиспользуемое здание) (ru)</name>
            <description/>
            <Point id="582">
                <coordinates>137.0020182,50.5691345,0.0</coordinates>
            </Point>
        </Placemark>
        <Placemark id="585">
            <name>Недействующая автобусно-трамвайная станция (ru)</name>
            <description/>
            <Point id="584">
                <coordinates>137.0711561,50.5924383,0.0</coordinates>
            </Point>
        </Placemark>
        <Placemark id="587">
            <name>Заброшенный клуб войсковой части 11892 (ru)</name>
            <description/>
            <Point id="586">
                <coordinates>137.0325926,50.5954962,0.0</coordinates>
            </Point>
        </Placemark>
        <Placemark id="589">
            <name>Заброшенные ангары медицинских складов (ru)</name>
            <description/>
            <Point id="588">
                <coordinates>136.9041296,50.5839603,0.0</coordinates>
            </Point>
        </Placemark>
        <Placemark id="591">
            <name>Заброшенный дом культуры «Энергетик» (ru)</name>
            <description/>
            <Point id="590">
                <coordinates>136.9746303,50.5580995,0.0</coordinates>
            </Point>
        </Placemark>
        <Placemark id="593">
            <name>Брошенное здание расформированных в/ч 28762 и в/ч 53935 (ru)</name>
            <description/>
            <Point id="592">
                <coordinates>137.0758566,50.5675953,0.0</coordinates>
            </Point>
        </Placemark>
        <Placemark id="595">
            <name>Брошенное здание расформированных в/ч 28763 и в/ч 53936 (ru)</name>
            <description/>
            <Point id="594">
                <coordinates>137.0739713,50.566675,0.0</coordinates>
            </Point>
        </Placemark>
        <Placemark id="597">
            <name>Казарма № 2 (заброшена) (ru)</name>
            <description/>
            <Point id="596">
                <coordinates>136.926652,50.5827834,0.0</coordinates>
            </Point>
        </Placemark>
        <Placemark id="599">
            <name>Казарма № 1 ОХВТ (танковый) (ru)</name>
            <description/>
            <Point id="598">
                <coordinates>136.9281434,50.5832415,0.0</coordinates>
            </Point>
        </Placemark>
        <Placemark id="601">
            <name>Отстойник (ru)</name>
            <description/>
            <Point id="600">
                <coordinates>137.1125281,50.6042711,0.0</coordinates>
            </Point>
        </Placemark>
        <Placemark id="603">
            <name>Казарма (ru)</name>
            <description/>
            <Point id="602">
                <coordinates>136.9929885,50.5799563,0.0</coordinates>
            </Point>
        </Placemark>
        <Placemark id="605">
            <name>Казарма № 3 ОХВТ (мотострелковый) (ru)</name>
            <description/>
            <Point id="604">
                <coordinates>136.9271698,50.5821142,0.0</coordinates>
            </Point>
        </Placemark>
        <Placemark id="607">
            <name>Развалины клуба (ru)</name>
            <description/>
            <Point id="606">
                <coordinates>137.0753419,50.5667998,0.0</coordinates>
            </Point>
        </Placemark>
        <Placemark id="609">
            <name>Гаражи (ru)</name>
            <description/>
            <Point id="608">
                <coordinates>136.9308256,50.5892574,0.0</coordinates>
            </Point>
        </Placemark>
        <Placemark id="611">
            <name>Заброшенные девятиэтажные дома (ru)</name>
            <description/>
            <Point id="610">
                <coordinates>136.9468384,50.594891,0.0</coordinates>
            </Point>
        </Placemark>
        <Placemark id="613">
            <name>Бомбоубежище завода ПТО (ru)</name>
            <description/>
            <Point id="612">
                <coordinates>137.0001916,50.5675212,0.0</coordinates>
            </Point>
        </Placemark>
        <Placemark id="615">
            <name>Заброшенный административный корпус (ru)</name>
            <description/>
            <Point id="614">
                <coordinates>137.005821,50.5673362,0.0</coordinates>
            </Point>
        </Placemark>
        <Placemark id="617">
            <name>Подземные хранилища сернокислотного завода (ru)</name>
            <description/>
            <Point id="616">
                <coordinates>136.9812323,50.5830177,0.0</coordinates>
            </Point>
        </Placemark>
        <Placemark id="619">
            <name>Руины (ru)</name>
            <description/>
            <Point id="618">
                <coordinates>136.9816534,50.5593412,0.0</coordinates>
            </Point>
        </Placemark>
        <Placemark id="621">
            <name>Заброшенный административно-бытовой корпус (ru)</name>
            <description/>
            <Point id="620">
                <coordinates>137.0263603,50.5569284,0.0</coordinates>
            </Point>
        </Placemark>
        <Placemark id="623">
            <name>Заброшенный ангар для ремонта техники (ru)</name>
            <description/>
            <Point id="622">
                <coordinates>136.9972934,50.5770457,0.0</coordinates>
            </Point>
        </Placemark>
        <Placemark id="625">
            <name>Заброшенные складские гаражи (ru)</name>
            <description/>
            <Point id="624">
                <coordinates>136.9986412,50.5778885,0.0</coordinates>
            </Point>
        </Placemark>
        <Placemark id="627">
            <name>Недостроенный 10-этажный жилой дом (ru)</name>
            <description/>
            <Point id="626">
                <coordinates>136.9982108,50.5279527,0.0</coordinates>
            </Point>
        </Placemark>
        <Placemark id="629">
            <name>Недостроенное общежитие профтехучилища завода «Парус» (ru)</name>
            <description/>
            <Point id="628">
                <coordinates>137.0554428,50.5611747,0.0</coordinates>
            </Point>
        </Placemark>
        <Placemark id="631">
            <name>Гаражи (ru)</name>
            <description/>
            <Point id="630">
                <coordinates>136.9310657,50.5889653,0.0</coordinates>
            </Point>
        </Placemark>
        <Placemark id="633">
            <name>Заброшенное достраивающееся здание (ru)</name>
            <description/>
            <Point id="632">
                <coordinates>137.0040902,50.5503214,0.0</coordinates>
            </Point>
        </Placemark>
        <Placemark id="635">
            <name>Заброшенное здание (ru)</name>
            <description/>
            <Point id="634">
                <coordinates>137.0288053,50.5552619,0.0</coordinates>
            </Point>
        </Placemark>
        <Placemark id="637">
            <name>Убежище сернокислотного завода (ru)</name>
            <description/>
            <Point id="636">
                <coordinates>136.9817594,50.5856701,0.0</coordinates>
            </Point>
        </Placemark>
        <Placemark id="639">
            <name>Непонятная железобетонная конструкция (ru)</name>
            <description/>
            <Point id="638">
                <coordinates>136.9288944,50.6052201,0.0</coordinates>
            </Point>
        </Placemark>
        <Placemark id="641">
            <name>Заброшенное здание (ru)</name>
            <description/>
            <Point id="640">
                <coordinates>136.9889424,50.5674863,0.0</coordinates>
            </Point>
        </Placemark>
        <Placemark id="643">
            <name>Заброшенная столовая аккумуляторного завода (ru)</name>
            <description/>
            <Point id="642">
                <coordinates>137.0289435,50.5549279,0.0</coordinates>
            </Point>
        </Placemark>
        <Placemark id="645">
            <name>Неиспользуемое административное здание (ru)</name>
            <description/>
            <Point id="644">
                <coordinates>137.007731,50.5665532,0.0</coordinates>
            </Point>
        </Placemark>
        <Placemark id="647">
            <name>Заброшенное строение (ru)</name>
            <description/>
            <Point id="646">
                <coordinates>137.0944635,50.5770898,0.0</coordinates>
            </Point>
        </Placemark>
        <Placemark id="649">
            <name>Брошенное здание штаба (ru)</name>
            <description/>
            <Point id="648">
                <coordinates>137.0745967,50.5673639,0.0</coordinates>
            </Point>
        </Placemark>
        <Placemark id="651">
            <name>Дом офицеров (ru)</name>
            <description/>
            <Point id="650">
                <coordinates>136.9287952,50.5824171,0.0</coordinates>
            </Point>
        </Placemark>
        <Placemark id="653">
            <name>Отстойник (ru)</name>
            <description/>
            <Point id="652">
                <coordinates>137.1209717,50.6107344,0.0</coordinates>
            </Point>
        </Placemark>
        <Placemark id="655">
            <name>Заброшенное здание (ru)</name>
            <description/>
            <Point id="654">
                <coordinates>137.1366368,50.5914497,0.0</coordinates>
            </Point>
        </Placemark>
        <Placemark id="657">
            <name>Развалины казармы (ru)</name>
            <description/>
            <Point id="656">
                <coordinates>137.0747958,50.5655423,0.0</coordinates>
            </Point>
        </Placemark>
        <Placemark id="659">
            <name>Бывш. склады (ru)</name>
            <description/>
            <Point id="658">
                <coordinates>137.0781236,50.5663612,0.0</coordinates>
            </Point>
        </Placemark>
        <Placemark id="661">
            <name>Разрушенное здание бывшего клуба (ru)</name>
            <description/>
            <Point id="660">
                <coordinates>136.9303751,50.6514137,0.0</coordinates>
            </Point>
        </Placemark>
        <Placemark id="663">
            <name>Отстойник (ru)</name>
            <description/>
            <Point id="662">
                <coordinates>137.1210813,50.6110619,0.0</coordinates>
            </Point>
        </Placemark>
        <Placemark id="665">
            <name>Отстойник (ru)</name>
            <description/>
            <Point id="664">
                <coordinates>137.1205653,50.6111282,0.0</coordinates>
            </Point>
        </Placemark>
        <Placemark id="667">
            <name>Бывший клуб совхоза «Хорпинский» (ru)</name>
            <description/>
            <Point id="666">
                <coordinates>137.1464003,50.6157688,0.0</coordinates>
            </Point>
        </Placemark>
        <Placemark id="669">
            <name>Заброшенная пристройка (ru)</name>
            <description/>
            <Point id="668">
                <coordinates>136.988131,50.5900109,0.0</coordinates>
            </Point>
        </Placemark>
        <Placemark id="671">
            <name>Kulturnaya ulitsa, 14</name>
            <description/>
            <Point id="670">
                <coordinates>137.0415794,50.6009358,0.0</coordinates>
            </Point>
        </Placemark>
        <Placemark id="673">
            <name>Отстойник (ru)</name>
            <description/>
            <Point id="672">
                <coordinates>137.1204614,50.6108061,0.0</coordinates>
            </Point>
        </Placemark>
        <Placemark id="675">
            <name>Неиспользуемое здание бывшего локомотивного депо (ru)</name>
            <description/>
            <Point id="674">
                <coordinates>136.9865891,50.584589,0.0</coordinates>
            </Point>
        </Placemark>
        <Placemark id="677">
            <name>Заброшенное здание медсанчасти (ru)</name>
            <description/>
            <Point id="676">
                <coordinates>136.914652,50.5778153,0.0</coordinates>
            </Point>
        </Placemark>
        <Placemark id="679">
            <name>Недостроенный кафетерий (ru)</name>
            <description/>
            <Point id="678">
                <coordinates>136.9970999,50.5425715,0.0</coordinates>
            </Point>
        </Placemark>
        <Placemark id="681">
            <name>Vagonnaya ulitsa, 9</name>
            <description/>
            <Point id="680">
                <coordinates>136.9770647,50.5581189,0.0</coordinates>
            </Point>
        </Placemark>
        <Placemark id="683">
            <name>Заброшенное здание (ru)</name>
            <description/>
            <Point id="682">
                <coordinates>137.0147197,50.5597911,0.0</coordinates>
            </Point>
        </Placemark>
        <Placemark id="685">
            <name>Развалины (ru)</name>
            <description/>
            <Point id="684">
                <coordinates>136.9390171,50.5889168,0.0</coordinates>
            </Point>
        </Placemark>
        <Placemark id="687">
            <name>Развалины здания теплицы (ru)</name>
            <description/>
            <Point id="686">
                <coordinates>136.9265341,50.5838887,0.0</coordinates>
            </Point>
        </Placemark>
        <Placemark id="689">
            <name>Четырёхэтажное здание (ru)</name>
            <description/>
            <Point id="688">
                <coordinates>136.944588,50.6235007,0.0</coordinates>
            </Point>
        </Placemark>
        <Placemark id="691">
            <name>Бывшая котельная (ru)</name>
            <description/>
            <Point id="690">
                <coordinates>136.9157838,50.5780573,0.0</coordinates>
            </Point>
        </Placemark>
        <Placemark id="693">
            <name>Заброшенная санчасть (ru)</name>
            <description/>
            <Point id="692">
                <coordinates>137.0776315,50.5672324,0.0</coordinates>
            </Point>
        </Placemark>
        <Placemark id="695">
            <name>Развалины солдатской бани (ru)</name>
            <description/>
            <Point id="694">
                <coordinates>137.0773519,50.5663433,0.0</coordinates>
            </Point>
        </Placemark>
        <Placemark id="697">
            <name>Фундамент недостроенного дома (ru)</name>
            <description/>
            <Point id="696">
                <coordinates>137.054859,50.583096,0.0</coordinates>
            </Point>
        </Placemark>
        <Placemark id="699">
            <name>Заброшенное техническое здание (ru)</name>
            <description/>
            <Point id="698">
                <coordinates>137.00832,50.5690869,0.0</coordinates>
            </Point>
        </Placemark>
        <Placemark id="701">
            <name>Чаша бассейна (заброшена) (ru)</name>
            <description/>
            <Point id="700">
                <coordinates>136.9438935,50.6231214,0.0</coordinates>
            </Point>
        </Placemark>
        <Placemark id="703">
            <name>Брошенная солдатская чайная (ru)</name>
            <description/>
            <Point id="702">
                <coordinates>136.9289507,50.5822026,0.0</coordinates>
            </Point>
        </Placemark>
        <Placemark id="705">
            <name>Бани (ru)</name>
            <description/>
            <Point id="704">
                <coordinates>136.9274809,50.5843145,0.0</coordinates>
            </Point>
        </Placemark>
        <Placemark id="707">
            <name>Ангар (ru)</name>
            <description/>
            <Point id="706">
                <coordinates>136.9199452,50.5535671,0.0</coordinates>
            </Point>
        </Placemark>
        <Placemark id="709">
            <name>Заброшенный пункт заправки (ru)</name>
            <description/>
            <Point id="708">
                <coordinates>136.9171447,50.576161,0.0</coordinates>
            </Point>
        </Placemark>
        <Placemark id="711">
            <name>Недостроенная насосная станция ливневых стоков (ru)</name>
            <description/>
            <Point id="710">
                <coordinates>137.0050598,50.5225752,0.0</coordinates>
            </Point>
        </Placemark>
        <Placemark id="713">
            <name>Ангар (ru)</name>
            <description/>
            <Point id="712">
                <coordinates>136.9195107,50.5534222,0.0</coordinates>
            </Point>
        </Placemark>
        <Placemark id="715">
            <name>Заброшенный производственный корпус (ru)</name>
            <description/>
            <Point id="714">
                <coordinates>136.9156244,50.5886587,0.0</coordinates>
            </Point>
        </Placemark>
        <Placemark id="717">
            <name>Заброшенный оружейный склад (ru)</name>
            <description/>
            <Point id="716">
                <coordinates>136.9153019,50.5747239,0.0</coordinates>
            </Point>
        </Placemark>
        <Placemark id="719">
            <name>Здание (ru)</name>
            <description/>
            <Point id="718">
                <coordinates>137.1380906,50.5925719,0.0</coordinates>
            </Point>
        </Placemark>
        <Placemark id="721">
            <name>Неиспользуемая щитовая будка (ru)</name>
            <description/>
            <Point id="720">
                <coordinates>137.0024769,50.5683447,0.0</coordinates>
            </Point>
        </Placemark>
        <Placemark id="723">
            <name>Санчасть (ru)</name>
            <description/>
            <Point id="722">
                <coordinates>136.9292833,50.5828891,0.0</coordinates>
            </Point>
        </Placemark>
        <Placemark id="725">
            <name>Здание (ru)</name>
            <description/>
            <Point id="724">
                <coordinates>136.9197897,50.5533064,0.0</coordinates>
            </Point>
        </Placemark>
        <Placemark id="727">
            <name>Заброшенное техническое помещение (ru)</name>
            <description/>
            <Point id="726">
                <coordinates>137.0283194,50.5560316,0.0</coordinates>
            </Point>
        </Placemark>
        <Placemark id="729">
            <name>Недостроенный жилой дом (ru)</name>
            <description/>
            <Point id="728">
                <coordinates>136.9908306,50.5459719,0.0</coordinates>
            </Point>
        </Placemark>
        <Placemark id="731">
            <name>Заброшенная баня (ru)</name>
            <description/>
            <Point id="730">
                <coordinates>136.91536,50.5792324,0.0</coordinates>
            </Point>
        </Placemark>
        <Placemark id="733">
            <name>Заброшенное здание штаба (ru)</name>
            <description/>
            <Point id="732">
                <coordinates>136.9129688,50.5798192,0.0</coordinates>
            </Point>
        </Placemark>
        <Placemark id="735">
            <name>Бывший КПП (ru)</name>
            <description/>
            <Point id="734">
                <coordinates>136.9127905,50.5808887,0.0</coordinates>
            </Point>
        </Placemark>
        <Placemark id="737">
            <name>Убежище ДОК-2 (ru)</name>
            <description/>
            <Point id="736">
                <coordinates>136.9886715,50.5847071,0.0</coordinates>
            </Point>
        </Placemark>
        <Placemark id="739">
            <name>Здание (ru)</name>
            <description/>
            <Point id="738">
                <coordinates>136.9194329,50.5545265,0.0</coordinates>
            </Point>
        </Placemark>
        <Placemark id="741">
            <name>Затонувший подъемный кран (ru)</name>
            <description/>
            <Point id="740">
                <coordinates>136.9188778,50.584444,0.0</coordinates>
            </Point>
        </Placemark>
        <Placemark id="743">
            <name>Заброшенное офисное здание (ru)</name>
            <description/>
            <Point id="742">
                <coordinates>136.9963162,50.5766862,0.0</coordinates>
            </Point>
        </Placemark>
        <Placemark id="745">
            <name>Недостроенный кафетерий «Аура» (ru)</name>
            <description/>
            <Point id="744">
                <coordinates>137.0236349,50.5516068,0.0</coordinates>
            </Point>
        </Placemark>
        <Placemark id="747">
            <name>Здание (ru)</name>
            <description/>
            <Point id="746">
                <coordinates>136.9442528,50.6240571,0.0</coordinates>
            </Point>
        </Placemark>
        <Placemark id="749">
            <name>Развалины (ru)</name>
            <description/>
            <Point id="748">
                <coordinates>136.9448361,50.6223886,0.0</coordinates>
            </Point>
        </Placemark>
        <Placemark id="751">
            <name>Недействующая трамвайная остановка (ru)</name>
            <description/>
            <Point id="750">
                <coordinates>137.0713412,50.5923675,0.0</coordinates>
            </Point>
        </Placemark>
        <Placemark id="753">
            <name>Бывший медицинский пункт (ru)</name>
            <description/>
            <Point id="752">
                <coordinates>136.8996052,50.4635087,0.0</coordinates>
            </Point>
        </Placemark>
        <Placemark id="755">
            <name>Развалины (ru)</name>
            <description/>
            <Point id="754">
                <coordinates>136.9449689,50.6230387,0.0</coordinates>
            </Point>
        </Placemark>
        <Placemark id="757">
            <name>Брошенное КПП № 2 (ru)</name>
            <description/>
            <Point id="756">
                <coordinates>136.935101,50.5869499,0.0</coordinates>
            </Point>
        </Placemark>
        <Placemark id="759">
            <name>Полуразрушенный мостовой переход (ru)</name>
            <description/>
            <Point id="758">
                <coordinates>136.9267017,50.6038343,0.0</coordinates>
            </Point>
        </Placemark>
        <Placemark id="761">
            <name>Развалины (ru)</name>
            <description/>
            <Point id="760">
                <coordinates>137.0021509,50.5822164,0.0</coordinates>
            </Point>
        </Placemark>
        <Placemark id="763">
            <name>Недействующая трансформаторная подстанция (ru)</name>
            <description/>
            <Point id="762">
                <coordinates>137.0029865,50.5675105,0.0</coordinates>
            </Point>
        </Placemark>
        <Placemark id="765">
            <name>Заброшенный склад химических веществ (ru)</name>
            <description/>
            <Point id="764">
                <coordinates>137.0034895,50.5685332,0.0</coordinates>
            </Point>
        </Placemark>
        <Placemark id="767">
            <name>Руины (ru)</name>
            <description/>
            <Point id="766">
                <coordinates>136.9754884,50.5579866,0.0</coordinates>
            </Point>
        </Placemark>
        <Placemark id="769">
            <name>Недействующий мост (ru)</name>
            <description/>
            <Point id="768">
                <coordinates>136.9301969,50.6373226,0.0</coordinates>
            </Point>
        </Placemark>
        <Placemark id="771">
            <name>Заброшенное здание с ветхим потолком (ru)</name>
            <description/>
            <Point id="770">
                <coordinates>137.094268,50.5767892,0.0</coordinates>
            </Point>
        </Placemark>
        <Placemark id="773">
            <name>Брошенное КПП № 4 (ru)</name>
            <description/>
            <Point id="772">
                <coordinates>136.9416438,50.5892159,0.0</coordinates>
            </Point>
        </Placemark>
        <Placemark id="775">
            <name>Отстойник (ru)</name>
            <description/>
            <Point id="774">
                <coordinates>137.1196496,50.6101878,0.0</coordinates>
            </Point>
        </Placemark>
        <Placemark id="777">
            <name>Отстойник (ru)</name>
            <description/>
            <Point id="776">
                <coordinates>137.1198695,50.6101675,0.0</coordinates>
            </Point>
        </Placemark>
        <Placemark id="779">
            <name>Брошенное КПП № 1 (ru)</name>
            <description/>
            <Point id="778">
                <coordinates>136.9321383,50.5859035,0.0</coordinates>
            </Point>
        </Placemark>
        <Placemark id="781">
            <name>Отстойник (ru)</name>
            <description/>
            <Point id="780">
                <coordinates>137.1198216,50.6100345,0.0</coordinates>
            </Point>
        </Placemark>
        <Placemark id="783">
            <name>Заброшенный мост (ru)</name>
            <description/>
            <Point id="782">
                <coordinates>136.929862,50.637246,0.0</coordinates>
            </Point>
        </Placemark>
        <Placemark id="785">
            <name>Брошенное КПП № 3 (ru)</name>
            <description/>
            <Point id="784">
                <coordinates>136.9386845,50.5881907,0.0</coordinates>
            </Point>
        </Placemark>
        <Placemark id="787">
            <name>Заколоченный киоск (ru)</name>
            <description/>
            <Point id="786">
                <coordinates>136.9964633,50.5762099,0.0</coordinates>
            </Point>
        </Placemark>
        <Placemark id="789">
            <name>Недействующая насосная станция водоснабжения (ru)</name>
            <description/>
            <Point id="788">
                <coordinates>137.0038448,50.5685827,0.0</coordinates>
            </Point>
        </Placemark>
        <Placemark id="791">
            <name>Заброшенная трансформаторная подстанция (ru)</name>
            <description/>
            <Point id="790">
                <coordinates>136.9146667,50.5789088,0.0</coordinates>
            </Point>
        </Placemark>
        <Placemark id="793">
            <name>Проходная завода ЖБИ (ru)</name>
            <description/>
            <Point id="792">
                <coordinates>136.9966108,50.5760523,0.0</coordinates>
            </Point>
        </Placemark>
        <Placemark id="795">
            <name>КПП на склады (ru)</name>
            <description/>
            <Point id="794">
                <coordinates>136.9346289,50.5874123,0.0</coordinates>
            </Point>
        </Placemark>
        <Placemark id="797">
            <name>Водонапорная башня (ru)</name>
            <description/>
            <Point id="796">
                <coordinates>137.0005513,50.5819408,0.0</coordinates>
            </Point>
        </Placemark>
        <Placemark id="799">
            <name>Здание ГАИ (ru)</name>
            <description/>
            <Point id="798">
                <coordinates>137.041609,50.4766606,0.0</coordinates>
            </Point>
        </Placemark>
        <Placemark id="801">
            <name>Караульная вышка (ru)</name>
            <description/>
            <Point id="800">
                <coordinates>136.9335225,50.5886078,0.0</coordinates>
            </Point>
        </Placemark>
        <Placemark id="803">
            <name>КПП (ru)</name>
            <description/>
            <Point id="802">
                <coordinates>136.9988062,50.5690025,0.0</coordinates>
            </Point>
        </Placemark>
        <Placemark id="805">
            <name>ТП (ru)</name>
            <description/>
            <Point id="804">
                <coordinates>136.9202671,50.553573,0.0</coordinates>
            </Point>
        </Placemark>
        <Placemark id="807">
            <name>Брошенная трансформаторная подстанция (ru)</name>
            <description/>
            <Point id="806">
                <coordinates>137.0736802,50.5656801,0.0</coordinates>
            </Point>
        </Placemark>
        <Placemark id="809">
            <name>Заброшенное строение (ru)</name>
            <description/>
            <Point id="808">
                <coordinates>137.0554271,50.5618523,0.0</coordinates>
            </Point>
        </Placemark>
        <Placemark id="811">
            <name>Скважина (ru)</name>
            <description/>
            <Point id="810">
                <coordinates>136.9443868,50.6244433,0.0</coordinates>
            </Point>
        </Placemark>
        <Placemark id="813">
            <name>Помещение стрелочника (заброшенное здание) (ru)</name>
            <description/>
            <Point id="812">
                <coordinates>137.0252221,50.5602397,0.0</coordinates>
            </Point>
        </Placemark>
        <Placemark id="815">
            <name>Здание (ru)</name>
            <description/>
            <Point id="814">
                <coordinates>136.9186725,50.5548196,0.0</coordinates>
            </Point>
        </Placemark>
    </Document>
</kml>
