<?xml version="1.0" encoding="UTF-8"?>
<kml xmlns="http://www.opengis.net/kml/2.2" xmlns:gx="http://www.google.com/kml/ext/2.2">
    <Document id="389">
        <Placemark id="391">
            <name>Бывшая танковая директриса (ru)</name>
            <description/>
            <Point id="390">
                <coordinates>73.52356,54.879934,0.0</coordinates>
            </Point>
        </Placemark>
        <Placemark id="393">
            <name>Распаханное СТ &quot;Солнечное&quot; (ru)</name>
            <description/>
            <Point id="392">
                <coordinates>73.4257291,54.7059155,0.0</coordinates>
            </Point>
        </Placemark>
        <Placemark id="395">
            <name>Заброшенное СНТ «Благодарное» (ru)</name>
            <description/>
            <Point id="394">
                <coordinates>73.4615689,54.7061179,0.0</coordinates>
            </Point>
        </Placemark>
        <Placemark id="397">
            <name>Заброшенное СДТ «Приволье» (ru)</name>
            <description/>
            <Point id="396">
                <coordinates>73.4379815,54.7066967,0.0</coordinates>
            </Point>
        </Placemark>
        <Placemark id="399">
            <name>Заброшенное СНТ «Кварц-4» (ru)</name>
            <description/>
            <Point id="398">
                <coordinates>73.4238141,54.7400695,0.0</coordinates>
            </Point>
        </Placemark>
        <Placemark id="401">
            <name>Заброшенное СНТ «Сибирский садовод-7» (ru)</name>
            <description/>
            <Point id="400">
                <coordinates>73.4312182,54.7339703,0.0</coordinates>
            </Point>
        </Placemark>
        <Placemark id="403">
            <name>Заброшенный участок танковой директрисы (ru)</name>
            <description/>
            <Point id="402">
                <coordinates>73.5102724,54.8631738,0.0</coordinates>
            </Point>
        </Placemark>
        <Placemark id="405">
            <name>Заброшенное СНТ «Росинка» (ru)</name>
            <description/>
            <Point id="404">
                <coordinates>73.3644675,54.7837449,0.0</coordinates>
            </Point>
        </Placemark>
        <Placemark id="407">
            <name>Заброшенный участок № 3 (ru)</name>
            <description/>
            <Point id="406">
                <coordinates>73.5279856,54.8820671,0.0</coordinates>
            </Point>
        </Placemark>
        <Placemark id="409">
            <name>Заброшенное СНТ (ru)</name>
            <description/>
            <Point id="408">
                <coordinates>73.4405403,54.7188672,0.0</coordinates>
            </Point>
        </Placemark>
        <Placemark id="411">
            <name>Распаханное СТ &quot;Приволье&quot; (ru)</name>
            <description/>
            <Point id="410">
                <coordinates>73.4216414,54.7202388,0.0</coordinates>
            </Point>
        </Placemark>
        <Placemark id="413">
            <name>Распаханное СТ &quot;Успех&quot; (ru)</name>
            <description/>
            <Point id="412">
                <coordinates>73.4291624,54.7203256,0.0</coordinates>
            </Point>
        </Placemark>
        <Placemark id="415">
            <name>Заброшенное СТ «Рябинушка-7» (ru)</name>
            <description/>
            <Point id="414">
                <coordinates>73.5797899,54.7542507,0.0</coordinates>
            </Point>
        </Placemark>
        <Placemark id="417">
            <name>Заброшенное СНТ «Русское Поле» (ru)</name>
            <description/>
            <Point id="416">
                <coordinates>73.4461355,54.7238225,0.0</coordinates>
            </Point>
        </Placemark>
        <Placemark id="419">
            <name>Заброшенная танковая директриса (ru)</name>
            <description/>
            <Point id="418">
                <coordinates>73.3474448,54.8552924,0.0</coordinates>
            </Point>
        </Placemark>
        <Placemark id="421">
            <name>Заброшенный участок № 2 (ru)</name>
            <description/>
            <Point id="420">
                <coordinates>73.5197741,54.8816313,0.0</coordinates>
            </Point>
        </Placemark>
        <Placemark id="423">
            <name>Заброшенное СНТ «Вагонник-2» (ru)</name>
            <description/>
            <Point id="422">
                <coordinates>73.4385071,54.7284214,0.0</coordinates>
            </Point>
        </Placemark>
        <Placemark id="425">
            <name>СТ «Чайка» (ru)</name>
            <description/>
            <Point id="424">
                <coordinates>73.5748117,54.7642965,0.0</coordinates>
            </Point>
        </Placemark>
        <Placemark id="427">
            <name>Заброшенное СНТ (ru)</name>
            <description/>
            <Point id="426">
                <coordinates>73.4638433,54.7097419,0.0</coordinates>
            </Point>
        </Placemark>
        <Placemark id="429">
            <name>Заброшенное сельхозполе (ru)</name>
            <description/>
            <Point id="428">
                <coordinates>73.3855953,54.9002541,0.0</coordinates>
            </Point>
        </Placemark>
        <Placemark id="431">
            <name>Заброшенный участок № 1 (ru)</name>
            <description/>
            <Point id="430">
                <coordinates>73.5155643,54.8804971,0.0</coordinates>
            </Point>
        </Placemark>
        <Placemark id="433">
            <name>Заброшенное СНТ «Кварц-3» (ru)</name>
            <description/>
            <Point id="432">
                <coordinates>73.4196351,54.7442065,0.0</coordinates>
            </Point>
        </Placemark>
        <Placemark id="435">
            <name>Бывший Огневой городок боевых машин (ru)</name>
            <description/>
            <Point id="434">
                <coordinates>73.5124503,54.8797836,0.0</coordinates>
            </Point>
        </Placemark>
        <Placemark id="437">
            <name>Бывшая ферма КРС (ru)</name>
            <description/>
            <Point id="436">
                <coordinates>73.3309962,54.7456855,0.0</coordinates>
            </Point>
        </Placemark>
        <Placemark id="439">
            <name>Заброшенное СТ «Флокс» (ru)</name>
            <description/>
            <Point id="438">
                <coordinates>73.4709619,54.7111724,0.0</coordinates>
            </Point>
        </Placemark>
        <Placemark id="441">
            <name>Заброшенное СНТ (ru)</name>
            <description/>
            <Point id="440">
                <coordinates>73.45268,54.7168902,0.0</coordinates>
            </Point>
        </Placemark>
        <Placemark id="443">
            <name>Бывшие ассенизационные поля (ru)</name>
            <description/>
            <Point id="442">
                <coordinates>73.4704764,54.8735632,0.0</coordinates>
            </Point>
        </Placemark>
        <Placemark id="445">
            <name>Заброшенное СТ «Техуглерод» (ru)</name>
            <description/>
            <Point id="444">
                <coordinates>73.465737,54.7158083,0.0</coordinates>
            </Point>
        </Placemark>
        <Placemark id="447">
            <name>Бывшее животноводческое хозяйство (ru)</name>
            <description/>
            <Point id="446">
                <coordinates>73.523493,54.7655949,0.0</coordinates>
            </Point>
        </Placemark>
        <Placemark id="449">
            <name>Бывший колхоз (ru)</name>
            <description/>
            <Point id="448">
                <coordinates>73.3265947,54.7698145,0.0</coordinates>
            </Point>
        </Placemark>
        <Placemark id="451">
            <name>Бывшие склады РАВ ДХ в/ч 14892 (ru)</name>
            <description/>
            <Point id="450">
                <coordinates>73.3929673,54.8959109,0.0</coordinates>
            </Point>
        </Placemark>
        <Placemark id="453">
            <name>Бывший автодром «Иртыш» (ru)</name>
            <description/>
            <Point id="452">
                <coordinates>73.2623666,54.8677473,0.0</coordinates>
            </Point>
        </Placemark>
        <Placemark id="455">
            <name>Заброшенное экспериментальное поле (ru)</name>
            <description/>
            <Point id="454">
                <coordinates>73.40285,54.9014748,0.0</coordinates>
            </Point>
        </Placemark>
        <Placemark id="457">
            <name>Бывшее сельхоз поле (ru)</name>
            <description/>
            <Point id="456">
                <coordinates>73.4126963,54.8926669,0.0</coordinates>
            </Point>
        </Placemark>
        <Placemark id="459">
            <name>Бывшее сельхоз поле (ru)</name>
            <description/>
            <Point id="458">
                <coordinates>73.3789889,54.8710475,0.0</coordinates>
            </Point>
        </Placemark>
        <Placemark id="461">
            <name>Бывший ЛТО «Юность» (ru)</name>
            <description/>
            <Point id="460">
                <coordinates>73.5275968,54.8315111,0.0</coordinates>
            </Point>
        </Placemark>
        <Placemark id="463">
            <name>Заброшенная часть военного автокомплекса (ru)</name>
            <description/>
            <Point id="462">
                <coordinates>73.5001498,54.8911159,0.0</coordinates>
            </Point>
        </Placemark>
        <Placemark id="465">
            <name>Заброшенный трудовой лагерь для подростков (ru)</name>
            <description/>
            <Point id="464">
                <coordinates>73.2790017,54.8175042,0.0</coordinates>
            </Point>
        </Placemark>
        <Placemark id="467">
            <name>Бывший спортгородок летнего лагеря ОВОКУ &quot;Карьер&quot; (ru)</name>
            <description/>
            <Point id="466">
                <coordinates>73.3419074,54.8754106,0.0</coordinates>
            </Point>
        </Placemark>
        <Placemark id="469">
            <name>Заброшенный цех промышленного выращивания молодняка кур (ru)</name>
            <description/>
            <Point id="468">
                <coordinates>73.4864704,54.9035168,0.0</coordinates>
            </Point>
        </Placemark>
        <Placemark id="471">
            <name>Бывшая войсковая база снабжения (ru)</name>
            <description/>
            <Point id="470">
                <coordinates>73.4048964,54.9045901,0.0</coordinates>
            </Point>
        </Placemark>
        <Placemark id="473">
            <name>Бывшее экспериментальная селекционно-карантинная площадка (ru)</name>
            <description/>
            <Point id="472">
                <coordinates>73.3971234,54.9039186,0.0</coordinates>
            </Point>
        </Placemark>
        <Placemark id="475">
            <name>Бывший парк боевых машин ОВОКУ (ru)</name>
            <description/>
            <Point id="474">
                <coordinates>73.3390027,54.8706876,0.0</coordinates>
            </Point>
        </Placemark>
        <Placemark id="477">
            <name>Строительный рынок (ru)</name>
            <description/>
            <Point id="476">
                <coordinates>73.2984074,54.8672429,0.0</coordinates>
            </Point>
        </Placemark>
        <Placemark id="479">
            <name>Бывшая войсковая часть 14892 (ru)</name>
            <description/>
            <Point id="478">
                <coordinates>73.4170695,54.8467831,0.0</coordinates>
            </Point>
        </Placemark>
        <Placemark id="481">
            <name>Садовый участок № 78 (ru)</name>
            <description/>
            <Point id="480">
                <coordinates>73.4433727,54.7228603,0.0</coordinates>
            </Point>
        </Placemark>
        <Placemark id="483">
            <name>Заброшенная производственная площадка «Цех родительского стада» (ru)</name>
            <description/>
            <Point id="482">
                <coordinates>73.507165,54.8982587,0.0</coordinates>
            </Point>
        </Placemark>
        <Placemark id="485">
            <name>Бывший комплекс котлованов (ru)</name>
            <description/>
            <Point id="484">
                <coordinates>73.5710995,54.8112014,0.0</coordinates>
            </Point>
        </Placemark>
        <Placemark id="487">
            <name>Заброшенная строительная площадка (ru)</name>
            <description/>
            <Point id="486">
                <coordinates>73.318029,54.9082548,0.0</coordinates>
            </Point>
        </Placemark>
        <Placemark id="489">
            <name>Заброшенный цех товарных фабрикатов (ru)</name>
            <description/>
            <Point id="488">
                <coordinates>73.494489,54.9032723,0.0</coordinates>
            </Point>
        </Placemark>
        <Placemark id="491">
            <name>Бывшая разгрузочная площадка (ru)</name>
            <description/>
            <Point id="490">
                <coordinates>73.4046139,54.9047159,0.0</coordinates>
            </Point>
        </Placemark>
        <Placemark id="493">
            <name>Старый сад яблони (ru)</name>
            <description/>
            <Point id="492">
                <coordinates>73.2746886,54.7544149,0.0</coordinates>
            </Point>
        </Placemark>
        <Placemark id="495">
            <name>Stadium army</name>
            <description/>
            <Point id="494">
                <coordinates>73.3431051,54.8746542,0.0</coordinates>
            </Point>
        </Placemark>
        <Placemark id="497">
            <name>Заброшенная территория цехов инкубации (ru)</name>
            <description/>
            <Point id="496">
                <coordinates>73.5008538,54.9001145,0.0</coordinates>
            </Point>
        </Placemark>
        <Placemark id="499">
            <name>Заброшенная АЗС ПК «Оша» (ru)</name>
            <description/>
            <Point id="498">
                <coordinates>73.5284002,54.8974271,0.0</coordinates>
            </Point>
        </Placemark>
        <Placemark id="501">
            <name>Бывшие эстакады, производился ремонт бронетехники (ru)</name>
            <description/>
            <Point id="500">
                <coordinates>73.4800225,54.8880121,0.0</coordinates>
            </Point>
        </Placemark>
        <Placemark id="503">
            <name>Полоса препятствий (ru)</name>
            <description/>
            <Point id="502">
                <coordinates>73.341379,54.8754098,0.0</coordinates>
            </Point>
        </Placemark>
        <Placemark id="505">
            <name>Заброшенный птичник (ru)</name>
            <description/>
            <Point id="504">
                <coordinates>73.4967864,54.9074179,0.0</coordinates>
            </Point>
        </Placemark>
        <Placemark id="507">
            <name>Заброшенная насосная станция (ru)</name>
            <description/>
            <Point id="506">
                <coordinates>73.2932562,54.8231872,0.0</coordinates>
            </Point>
        </Placemark>
        <Placemark id="509">
            <name>Заброшенное кладбище (ru)</name>
            <description/>
            <Point id="508">
                <coordinates>73.3200126,54.70792,0.0</coordinates>
            </Point>
        </Placemark>
        <Placemark id="511">
            <name>Заброшенные очистные сооружения (ru)</name>
            <description/>
            <Point id="510">
                <coordinates>73.4746433,54.8750834,0.0</coordinates>
            </Point>
        </Placemark>
        <Placemark id="513">
            <name>Заброшенный птичник (ru)</name>
            <description/>
            <Point id="512">
                <coordinates>73.4865702,54.9024574,0.0</coordinates>
            </Point>
        </Placemark>
        <Placemark id="515">
            <name>Заброшенный птичник (ru)</name>
            <description/>
            <Point id="514">
                <coordinates>73.4858227,54.9046886,0.0</coordinates>
            </Point>
        </Placemark>
        <Placemark id="517">
            <name>Заброшенный птичник (ru)</name>
            <description/>
            <Point id="516">
                <coordinates>73.4854644,54.9023486,0.0</coordinates>
            </Point>
        </Placemark>
        <Placemark id="519">
            <name>Заброшенный птичник (ru)</name>
            <description/>
            <Point id="518">
                <coordinates>73.4867756,54.9047831,0.0</coordinates>
            </Point>
        </Placemark>
        <Placemark id="521">
            <name>Заброшенный главный корпус (ru)</name>
            <description/>
            <Point id="520">
                <coordinates>73.4943656,54.9033393,0.0</coordinates>
            </Point>
        </Placemark>
        <Placemark id="523">
            <name>Заброшенный птичник (ru)</name>
            <description/>
            <Point id="522">
                <coordinates>73.4874886,54.9025623,0.0</coordinates>
            </Point>
        </Placemark>
        <Placemark id="525">
            <name>Кладбище (ru)</name>
            <description/>
            <Point id="524">
                <coordinates>73.4208449,54.7404082,0.0</coordinates>
            </Point>
        </Placemark>
        <Placemark id="527">
            <name>Кладбище (ru)</name>
            <description/>
            <Point id="526">
                <coordinates>73.4444644,54.7292545,0.0</coordinates>
            </Point>
        </Placemark>
        <Placemark id="529">
            <name>Заброшенное кладбище (ru)</name>
            <description/>
            <Point id="528">
                <coordinates>73.2298596,54.772172,0.0</coordinates>
            </Point>
        </Placemark>
        <Placemark id="531">
            <name>Долгострой (ru)</name>
            <description/>
            <Point id="530">
                <coordinates>73.2938563,54.8864221,0.0</coordinates>
            </Point>
        </Placemark>
        <Placemark id="533">
            <name>Кладбище деревни Пяташное (ru)</name>
            <description/>
            <Point id="532">
                <coordinates>73.2810106,54.7556609,0.0</coordinates>
            </Point>
        </Placemark>
        <Placemark id="535">
            <name>Заброшенный свинарник (ru)</name>
            <description/>
            <Point id="534">
                <coordinates>73.5287491,54.8910902,0.0</coordinates>
            </Point>
        </Placemark>
        <Placemark id="537">
            <name>Заброшенное здание (ru)</name>
            <description/>
            <Point id="536">
                <coordinates>73.5276596,54.8920768,0.0</coordinates>
            </Point>
        </Placemark>
        <Placemark id="539">
            <name>Заброшенный навес (ru)</name>
            <description/>
            <Point id="538">
                <coordinates>73.3973831,54.9039297,0.0</coordinates>
            </Point>
        </Placemark>
        <Placemark id="541">
            <name>Заброшенное кладбище (ru)</name>
            <description/>
            <Point id="540">
                <coordinates>73.1655482,54.7106651,0.0</coordinates>
            </Point>
        </Placemark>
        <Placemark id="543">
            <name>Заброшенный цех (ru)</name>
            <description/>
            <Point id="542">
                <coordinates>73.3079008,54.8974135,0.0</coordinates>
            </Point>
        </Placemark>
        <Placemark id="545">
            <name>Заброшенный птичник № 1 (ru)</name>
            <description/>
            <Point id="544">
                <coordinates>73.5069441,54.8990484,0.0</coordinates>
            </Point>
        </Placemark>
        <Placemark id="547">
            <name>Заброшенный птичник № 3 (ru)</name>
            <description/>
            <Point id="546">
                <coordinates>73.5082088,54.8986117,0.0</coordinates>
            </Point>
        </Placemark>
        <Placemark id="549">
            <name>Abandoned storage of military weapons and equipment</name>
            <description/>
            <Point id="548">
                <coordinates>73.500171,54.8888163,0.0</coordinates>
            </Point>
        </Placemark>
        <Placemark id="551">
            <name>Abandoned storage of military weapons and equipment</name>
            <description/>
            <Point id="550">
                <coordinates>73.4996869,54.8890777,0.0</coordinates>
            </Point>
        </Placemark>
        <Placemark id="553">
            <name>Недостроенный резервуар (ru)</name>
            <description/>
            <Point id="552">
                <coordinates>73.3016807,54.8738163,0.0</coordinates>
            </Point>
        </Placemark>
        <Placemark id="555">
            <name>Площадка (ru)</name>
            <description/>
            <Point id="554">
                <coordinates>73.2281524,54.8374618,0.0</coordinates>
            </Point>
        </Placemark>
        <Placemark id="557">
            <name>Заброшенный птичник № 2 (ru)</name>
            <description/>
            <Point id="556">
                <coordinates>73.5075307,54.898844,0.0</coordinates>
            </Point>
        </Placemark>
        <Placemark id="559">
            <name>Abandoned storage of military weapons and equipment</name>
            <description/>
            <Point id="558">
                <coordinates>73.4987813,54.8895539,0.0</coordinates>
            </Point>
        </Placemark>
        <Placemark id="561">
            <name>Abandoned storage of military weapons and equipment</name>
            <description/>
            <Point id="560">
                <coordinates>73.500676,54.8885624,0.0</coordinates>
            </Point>
        </Placemark>
        <Placemark id="563">
            <name>Abandoned storage of military weapons and equipment</name>
            <description/>
            <Point id="562">
                <coordinates>73.4990723,54.8880951,0.0</coordinates>
            </Point>
        </Placemark>
        <Placemark id="565">
            <name>Abandoned storage of military weapons and equipment</name>
            <description/>
            <Point id="564">
                <coordinates>73.4976272,54.8888382,0.0</coordinates>
            </Point>
        </Placemark>
        <Placemark id="567">
            <name>Abandoned storage of military weapons and equipment</name>
            <description/>
            <Point id="566">
                <coordinates>73.4980697,54.8886092,0.0</coordinates>
            </Point>
        </Placemark>
        <Placemark id="569">
            <name>Заброшенный птичник № 4 (ru)</name>
            <description/>
            <Point id="568">
                <coordinates>73.5087762,54.8984039,0.0</coordinates>
            </Point>
        </Placemark>
        <Placemark id="571">
            <name>Abandoned storage of military weapons and equipment</name>
            <description/>
            <Point id="570">
                <coordinates>73.4992104,54.8893283,0.0</coordinates>
            </Point>
        </Placemark>
        <Placemark id="573">
            <name>Заброшенный птичник (ru)</name>
            <description/>
            <Point id="572">
                <coordinates>73.4986657,54.9080797,0.0</coordinates>
            </Point>
        </Placemark>
        <Placemark id="575">
            <name>Заброшенная стройка (ru)</name>
            <description/>
            <Point id="574">
                <coordinates>73.1467084,54.8165058,0.0</coordinates>
            </Point>
        </Placemark>
        <Placemark id="577">
            <name>Abandoned storage of military weapons and equipment</name>
            <description/>
            <Point id="576">
                <coordinates>73.4985664,54.8883504,0.0</coordinates>
            </Point>
        </Placemark>
        <Placemark id="579">
            <name>Заброшенный цех инкубации № 1 (ru)</name>
            <description/>
            <Point id="578">
                <coordinates>73.5003898,54.900205,0.0</coordinates>
            </Point>
        </Placemark>
        <Placemark id="581">
            <name>Заброшенный свинарник (ru)</name>
            <description/>
            <Point id="580">
                <coordinates>73.4217273,54.8464276,0.0</coordinates>
            </Point>
        </Placemark>
        <Placemark id="583">
            <name>Зaброшенный птичник (ru)</name>
            <description/>
            <Point id="582">
                <coordinates>73.4966054,54.9082469,0.0</coordinates>
            </Point>
        </Placemark>
        <Placemark id="585">
            <name>Заброшенный птичник (ru)</name>
            <description/>
            <Point id="584">
                <coordinates>73.5766302,54.8244892,0.0</coordinates>
            </Point>
        </Placemark>
        <Placemark id="587">
            <name>Зaброшенный птичник (ru)</name>
            <description/>
            <Point id="586">
                <coordinates>73.4967209,54.907884,0.0</coordinates>
            </Point>
        </Placemark>
        <Placemark id="589">
            <name>Разобранный птичник (ru)</name>
            <description/>
            <Point id="588">
                <coordinates>73.5772271,54.8238176,0.0</coordinates>
            </Point>
        </Placemark>
        <Placemark id="591">
            <name>Заброшенный свинарник № 4 (ru)</name>
            <description/>
            <Point id="590">
                <coordinates>73.5246886,54.8940222,0.0</coordinates>
            </Point>
        </Placemark>
        <Placemark id="593">
            <name>Заброшенный свинарник № 1 (ru)</name>
            <description/>
            <Point id="592">
                <coordinates>73.524181,54.8949267,0.0</coordinates>
            </Point>
        </Placemark>
        <Placemark id="595">
            <name>Садовый участок № 79 (ru)</name>
            <description/>
            <Point id="594">
                <coordinates>73.4456419,54.7225289,0.0</coordinates>
            </Point>
        </Placemark>
        <Placemark id="597">
            <name>Штаб и клуб (ru)</name>
            <description/>
            <Point id="596">
                <coordinates>73.4169374,54.847309,0.0</coordinates>
            </Point>
        </Placemark>
        <Placemark id="599">
            <name>Заброшенный свинарник № 3 (ru)</name>
            <description/>
            <Point id="598">
                <coordinates>73.5245043,54.8943316,0.0</coordinates>
            </Point>
        </Placemark>
        <Placemark id="601">
            <name>Заброшенный утятник № 2 (ru)</name>
            <description/>
            <Point id="600">
                <coordinates>73.5243165,54.8946628,0.0</coordinates>
            </Point>
        </Placemark>
        <Placemark id="603">
            <name>Отстойники (ru)</name>
            <description/>
            <Point id="602">
                <coordinates>73.4748993,54.8749964,0.0</coordinates>
            </Point>
        </Placemark>
        <Placemark id="605">
            <name>Котлован (ru)</name>
            <description/>
            <Point id="604">
                <coordinates>73.2604327,54.8966676,0.0</coordinates>
            </Point>
        </Placemark>
        <Placemark id="607">
            <name>Заброшенное кладбище (ru)</name>
            <description/>
            <Point id="606">
                <coordinates>73.2334095,54.7247007,0.0</coordinates>
            </Point>
        </Placemark>
        <Placemark id="609">
            <name>Заброшенный птичник № 5 (ru)</name>
            <description/>
            <Point id="608">
                <coordinates>73.5053982,54.8976542,0.0</coordinates>
            </Point>
        </Placemark>
        <Placemark id="611">
            <name>Ржавые ангары (ru)</name>
            <description/>
            <Point id="610">
                <coordinates>73.4057067,54.9043547,0.0</coordinates>
            </Point>
        </Placemark>
        <Placemark id="613">
            <name>Недостроенный корпус (ru)</name>
            <description/>
            <Point id="612">
                <coordinates>73.3021233,54.8736791,0.0</coordinates>
            </Point>
        </Placemark>
        <Placemark id="615">
            <name>Заброшенный цех инкубации № 2 (ru)</name>
            <description/>
            <Point id="614">
                <coordinates>73.5012334,54.8999454,0.0</coordinates>
            </Point>
        </Placemark>
        <Placemark id="617">
            <name>Казарма (ru)</name>
            <description/>
            <Point id="616">
                <coordinates>73.4156648,54.8461784,0.0</coordinates>
            </Point>
        </Placemark>
        <Placemark id="619">
            <name>Казарма (ru)</name>
            <description/>
            <Point id="618">
                <coordinates>73.4175993,54.8467011,0.0</coordinates>
            </Point>
        </Placemark>
        <Placemark id="621">
            <name>Заброшенный птичник № 6 (ru)</name>
            <description/>
            <Point id="620">
                <coordinates>73.5059382,54.8974475,0.0</coordinates>
            </Point>
        </Placemark>
        <Placemark id="623">
            <name>Заброшенная котельная (ru)</name>
            <description/>
            <Point id="622">
                <coordinates>73.3151725,54.896784,0.0</coordinates>
            </Point>
        </Placemark>
        <Placemark id="625">
            <name>Заброшенный АБК (ru)</name>
            <description/>
            <Point id="624">
                <coordinates>73.525139,54.8944859,0.0</coordinates>
            </Point>
        </Placemark>
        <Placemark id="627">
            <name>Заброшенное овощехранилище (ru)</name>
            <description/>
            <Point id="626">
                <coordinates>73.3035124,54.8802904,0.0</coordinates>
            </Point>
        </Placemark>
        <Placemark id="629">
            <name>Заброшенный склад керамзита (ru)</name>
            <description/>
            <Point id="628">
                <coordinates>73.3137892,54.8993443,0.0</coordinates>
            </Point>
        </Placemark>
        <Placemark id="631">
            <name>Заброшенное овощехранилище (ru)</name>
            <description/>
            <Point id="630">
                <coordinates>73.3038615,54.8808945,0.0</coordinates>
            </Point>
        </Placemark>
        <Placemark id="633">
            <name>Заброшенный птичник (ru)</name>
            <description/>
            <Point id="632">
                <coordinates>73.5789679,54.8208404,0.0</coordinates>
            </Point>
        </Placemark>
        <Placemark id="635">
            <name>Заброшенное бомбоубежище (ru)</name>
            <description/>
            <Point id="634">
                <coordinates>73.3097713,54.8953535,0.0</coordinates>
            </Point>
        </Placemark>
        <Placemark id="637">
            <name>Заброшенный корпус (ru)</name>
            <description/>
            <Point id="636">
                <coordinates>73.3523604,54.8379275,0.0</coordinates>
            </Point>
        </Placemark>
        <Placemark id="639">
            <name>Заброшенное здание (ru)</name>
            <description/>
            <Point id="638">
                <coordinates>73.1574248,54.81417,0.0</coordinates>
            </Point>
        </Placemark>
        <Placemark id="641">
            <name>Бывший бетоносмеситель (ru)</name>
            <description/>
            <Point id="640">
                <coordinates>73.315069,54.8982585,0.0</coordinates>
            </Point>
        </Placemark>
        <Placemark id="643">
            <name>Заброшенное здание (ru)</name>
            <description/>
            <Point id="642">
                <coordinates>73.4774207,54.8751121,0.0</coordinates>
            </Point>
        </Placemark>
        <Placemark id="645">
            <name>Бывшая сыроварня (ru)</name>
            <description/>
            <Point id="644">
                <coordinates>73.1413803,54.821031,0.0</coordinates>
            </Point>
        </Placemark>
        <Placemark id="647">
            <name>Заброшенная котельная (ru)</name>
            <description/>
            <Point id="646">
                <coordinates>73.5232073,54.8963408,0.0</coordinates>
            </Point>
        </Placemark>
        <Placemark id="649">
            <name>Заброшенное убежище (ru)</name>
            <description/>
            <Point id="648">
                <coordinates>73.311083,54.8948293,0.0</coordinates>
            </Point>
        </Placemark>
        <Placemark id="651">
            <name>Заброшенное здание (ru)</name>
            <description/>
            <Point id="650">
                <coordinates>73.3147468,54.899298,0.0</coordinates>
            </Point>
        </Placemark>
        <Placemark id="653">
            <name>Заброшенный санпропускник (ru)</name>
            <description/>
            <Point id="652">
                <coordinates>73.5069003,54.8984112,0.0</coordinates>
            </Point>
        </Placemark>
        <Placemark id="655">
            <name>Заброшенный санпропускник (ru)</name>
            <description/>
            <Point id="654">
                <coordinates>73.4869098,54.9032658,0.0</coordinates>
            </Point>
        </Placemark>
        <Placemark id="657">
            <name>Заброшенный санпропускник (ru)</name>
            <description/>
            <Point id="656">
                <coordinates>73.486246,54.9040574,0.0</coordinates>
            </Point>
        </Placemark>
        <Placemark id="659">
            <name>Заброшенный санпропускник (ru)</name>
            <description/>
            <Point id="658">
                <coordinates>73.5066062,54.8977351,0.0</coordinates>
            </Point>
        </Placemark>
        <Placemark id="661">
            <name>Бывшая контора (ru)</name>
            <description/>
            <Point id="660">
                <coordinates>73.1482911,54.8145142,0.0</coordinates>
            </Point>
        </Placemark>
        <Placemark id="663">
            <name>Заброшенное здание уборных (ru)</name>
            <description/>
            <Point id="662">
                <coordinates>73.4951551,54.9032147,0.0</coordinates>
            </Point>
        </Placemark>
        <Placemark id="665">
            <name>Бывшая котельная (ru)</name>
            <description/>
            <Point id="664">
                <coordinates>73.1423414,54.821254,0.0</coordinates>
            </Point>
        </Placemark>
        <Placemark id="667">
            <name>Больничный гараж (ru)</name>
            <description/>
            <Point id="666">
                <coordinates>73.1388561,54.8175911,0.0</coordinates>
            </Point>
        </Placemark>
        <Placemark id="669">
            <name>Заброшенный ангар (ru)</name>
            <description/>
            <Point id="668">
                <coordinates>73.4037846,54.9047847,0.0</coordinates>
            </Point>
        </Placemark>
        <Placemark id="671">
            <name>Заброшенный склад (ru)</name>
            <description/>
            <Point id="670">
                <coordinates>73.4949453,54.903708,0.0</coordinates>
            </Point>
        </Placemark>
        <Placemark id="673">
            <name>Заброшенное административное здание (ru)</name>
            <description/>
            <Point id="672">
                <coordinates>73.501685,54.9003753,0.0</coordinates>
            </Point>
        </Placemark>
        <Placemark id="675">
            <name>Заброшенный КПП (ru)</name>
            <description/>
            <Point id="674">
                <coordinates>73.4949342,54.9040772,0.0</coordinates>
            </Point>
        </Placemark>
        <Placemark id="677">
            <name>Заброшенный КПП (ru)</name>
            <description/>
            <Point id="676">
                <coordinates>73.5012967,54.9004834,0.0</coordinates>
            </Point>
        </Placemark>
        <Placemark id="679">
            <name>Караульное помещение (ru)</name>
            <description/>
            <Point id="678">
                <coordinates>73.3978187,54.8966269,0.0</coordinates>
            </Point>
        </Placemark>
        <Placemark id="681">
            <name>Заброшенная вышка (ru)</name>
            <description/>
            <Point id="680">
                <coordinates>73.3684681,54.8766737,0.0</coordinates>
            </Point>
        </Placemark>
        <Placemark id="683">
            <name>Козловой кран (ru)</name>
            <description/>
            <Point id="682">
                <coordinates>73.404077,54.9039713,0.0</coordinates>
            </Point>
        </Placemark>
        <Placemark id="685">
            <name>Недостроенный дом (ru)</name>
            <description/>
            <Point id="684">
                <coordinates>73.4509401,54.9009895,0.0</coordinates>
            </Point>
        </Placemark>
        <Placemark id="687">
            <name>Заброшенное бомбоубежище птицефабрики (ru)</name>
            <description/>
            <Point id="686">
                <coordinates>73.487923,54.9049174,0.0</coordinates>
            </Point>
        </Placemark>
        <Placemark id="689">
            <name>Заброшенный бетоносмеситель (ru)</name>
            <description/>
            <Point id="688">
                <coordinates>73.3132838,54.8985822,0.0</coordinates>
            </Point>
        </Placemark>
        <Placemark id="691">
            <name>Вторичный отстойник (ru)</name>
            <description/>
            <Point id="690">
                <coordinates>73.4745561,54.8752377,0.0</coordinates>
            </Point>
        </Placemark>
        <Placemark id="693">
            <name>Закрытый пост ДПС (ru)</name>
            <description/>
            <Point id="692">
                <coordinates>73.424921,54.8880088,0.0</coordinates>
            </Point>
        </Placemark>
        <Placemark id="695">
            <name>КНС № 51 (ru)</name>
            <description/>
            <Point id="694">
                <coordinates>73.316725,54.9006079,0.0</coordinates>
            </Point>
        </Placemark>
        <Placemark id="697">
            <name>Заброшенное здание (ru)</name>
            <description/>
            <Point id="696">
                <coordinates>73.4922457,54.9072939,0.0</coordinates>
            </Point>
        </Placemark>
        <Placemark id="699">
            <name>Заброшенная трансформаторная подстанция (ru)</name>
            <description/>
            <Point id="698">
                <coordinates>73.5277019,54.8995704,0.0</coordinates>
            </Point>
        </Placemark>
        <Placemark id="701">
            <name>Вторичный отстойник (ru)</name>
            <description/>
            <Point id="700">
                <coordinates>73.4743509,54.8751683,0.0</coordinates>
            </Point>
        </Placemark>
        <Placemark id="703">
            <name>Вторичный отстойник (ru)</name>
            <description/>
            <Point id="702">
                <coordinates>73.4742114,54.8752857,0.0</coordinates>
            </Point>
        </Placemark>
        <Placemark id="705">
            <name>Трансформаторная подстанция (ru)</name>
            <description/>
            <Point id="704">
                <coordinates>73.5064866,54.8983829,0.0</coordinates>
            </Point>
        </Placemark>
        <Placemark id="707">
            <name>Заброшенная трансформаторная подстанция (ru)</name>
            <description/>
            <Point id="706">
                <coordinates>73.4862772,54.9031484,0.0</coordinates>
            </Point>
        </Placemark>
        <Placemark id="709">
            <name>Заброшенная трансформаторная подстанция (ru)</name>
            <description/>
            <Point id="708">
                <coordinates>73.4951036,54.9079874,0.0</coordinates>
            </Point>
        </Placemark>
        <Placemark id="711">
            <name>Обзорная вышка (ru)</name>
            <description/>
            <Point id="710">
                <coordinates>73.4064818,54.9059528,0.0</coordinates>
            </Point>
        </Placemark>
        <Placemark id="713">
            <name>Заброшенное здание (ru)</name>
            <description/>
            <Point id="712">
                <coordinates>73.156608,54.8124202,0.0</coordinates>
            </Point>
        </Placemark>
        <Placemark id="715">
            <name>Заброшенная будка (ru)</name>
            <description/>
            <Point id="714">
                <coordinates>73.4903884,54.9070945,0.0</coordinates>
            </Point>
        </Placemark>
        <Placemark id="717">
            <name>Деревянный сарай (ru)</name>
            <description/>
            <Point id="716">
                <coordinates>73.5092418,54.8987274,0.0</coordinates>
            </Point>
        </Placemark>
        <Placemark id="719">
            <name>Заброшенная водонапорная башня (ru)</name>
            <description/>
            <Point id="718">
                <coordinates>73.3165955,54.896831,0.0</coordinates>
            </Point>
        </Placemark>
        <Placemark id="721">
            <name>Заброшенная будка (ru)</name>
            <description/>
            <Point id="720">
                <coordinates>73.4933999,54.9072502,0.0</coordinates>
            </Point>
        </Placemark>
        <Placemark id="723">
            <name>Заброшенный КПП (ru)</name>
            <description/>
            <Point id="722">
                <coordinates>73.4950323,54.906985,0.0</coordinates>
            </Point>
        </Placemark>
        <Placemark id="725">
            <name>Заброшенная КНС (ru)</name>
            <description/>
            <Point id="724">
                <coordinates>73.5020984,54.8999156,0.0</coordinates>
            </Point>
        </Placemark>
        <Placemark id="727">
            <name>Дымовая труба (ru)</name>
            <description/>
            <Point id="726">
                <coordinates>73.3150235,54.8965557,0.0</coordinates>
            </Point>
        </Placemark>
        <Placemark id="729">
            <name>Неиспользуемая автобусная остановка (ru)</name>
            <description/>
            <Point id="728">
                <coordinates>73.2498594,54.8229413,0.0</coordinates>
            </Point>
        </Placemark>
        <Placemark id="731">
            <name>Водонапорная башня (ru)</name>
            <description/>
            <Point id="730">
                <coordinates>73.4039912,54.7679951,0.0</coordinates>
            </Point>
        </Placemark>
    </Document>
</kml>
